{
"type": "FeatureCollection",
"name": "grid_a6f4b445",
"crs": { "type": "name", "properties": { "name": "urn:ogc:def:crs:OGC:1.3:CRS84" } },
"features": [
{ "type": "Feature", "properties": { "cell_id": 0, "node_count": 0.0, "total_length": 0.0, "avg_degree": 0.0, "poi_count": 0, "text_des": "", "poi_categories": [ ] }, "geometry": { "type": "Polygon", "coordinates": [ [ [ 31.490601771371182, 30.021795495495496 ], [ 31.490601771371182, 30.0263 ], [ 31.486097266866679, 30.0263 ], [ 31.486097266866679, 30.021795495495496 ], [ 31.490601771371182, 30.021795495495496 ] ] ] } },
{ "type": "Feature", "properties": { "cell_id": 1, "node_count": 0.0, "total_length": 0.0, "avg_degree": 0.0, "poi_count": 1, "text_des": "تقع عيادة الدكتور عمرو سويدان في القاهرة، مصر. نوع المنطقة: عام. البيانات من OpenStreetMap.", "poi_categories": [ "Health" ] }, "geometry": { "type": "Polygon", "coordinates": [ [ [ 31.490601771371182, 30.0263 ], [ 31.490601771371182, 30.030804504504502 ], [ 31.486097266866679, 30.030804504504502 ], [ 31.486097266866679, 30.0263 ], [ 31.490601771371182, 30.0263 ] ] ] } },
{ "type": "Feature", "properties": { "cell_id": 2, "node_count": 0.0, "total_length": 0.0, "avg_degree": 0.0, "poi_count": 0, "text_des": "", "poi_categories": [ ] }, "geometry": { "type": "Polygon", "coordinates": [ [ [ 31.495106275875685, 30.021795495495496 ], [ 31.495106275875685, 30.0263 ], [ 31.490601771371182, 30.0263 ], [ 31.490601771371182, 30.021795495495496 ], [ 31.495106275875685, 30.021795495495496 ] ] ] } },
{ "type": "Feature", "properties": { "cell_id": 3, "node_count": 0.0, "total_length": 0.0, "avg_degree": 0.0, "poi_count": 0, "text_des": "", "poi_categories": [ ] }, "geometry": { "type": "Polygon", "coordinates": [ [ [ 31.495106275875685, 30.0263 ], [ 31.495106275875685, 30.030804504504502 ], [ 31.490601771371182, 30.030804504504502 ], [ 31.490601771371182, 30.0263 ], [ 31.495106275875685, 30.0263 ] ] ] } },
{ "type": "Feature", "properties": { "cell_id": 4, "node_count": 0.0, "total_length": 0.0, "avg_degree": 0.0, "poi_count": 0, "text_des": "", "poi_categories": [ ] }, "geometry": { "type": "Polygon", "coordinates": [ [ [ 31.499610780380191, 30.021795495495496 ], [ 31.499610780380191, 30.0263 ], [ 31.495106275875688, 30.0263 ], [ 31.495106275875688, 30.021795495495496 ], [ 31.499610780380191, 30.021795495495496 ] ] ] } },
{ "type": "Feature", "properties": { "cell_id": 5, "node_count": 0.0, "total_length": 0.0, "avg_degree": 0.0, "poi_count": 1, "text_des": "تقع هذه المنشأة في القاهرة، مصر. نوع المنطقة: مول تجاري (Mall). البيانات من OpenStreetMap.", "poi_categories": [ "Mall" ] }, "geometry": { "type": "Polygon", "coordinates": [ [ [ 31.499610780380191, 30.0263 ], [ 31.499610780380191, 30.030804504504502 ], [ 31.495106275875688, 30.030804504504502 ], [ 31.495106275875688, 30.0263 ], [ 31.499610780380191, 30.0263 ] ] ] } }
]
}
