{
"type": "FeatureCollection",
"name": "grid_58a06720",
"crs": { "type": "name", "properties": { "name": "urn:ogc:def:crs:OGC:1.3:CRS84" } },
"features": [
{ "type": "Feature", "properties": { "cell_id": 0 }, "geometry": { "type": "Polygon", "coordinates": [ [ [ 31.004504504504503, 30.0 ], [ 31.004504504504503, 30.004504504504503 ], [ 31.0, 30.004504504504503 ], [ 31.0, 30.0 ], [ 31.004504504504503, 30.0 ] ] ] } },
{ "type": "Feature", "properties": { "cell_id": 1 }, "geometry": { "type": "Polygon", "coordinates": [ [ [ 31.004504504504503, 30.004504504504503 ], [ 31.004504504504503, 30.009009009009006 ], [ 31.0, 30.009009009009006 ], [ 31.0, 30.004504504504503 ], [ 31.004504504504503, 30.004504504504503 ] ] ] } },
{ "type": "Feature", "properties": { "cell_id": 2 }, "geometry": { "type": "Polygon", "coordinates": [ [ [ 31.004504504504503, 30.009009009009009 ], [ 31.004504504504503, 30.013513513513512 ], [ 31.0, 30.013513513513512 ], [ 31.0, 30.009009009009009 ], [ 31.004504504504503, 30.009009009009009 ] ] ] } },
{ "type": "Feature", "properties": { "cell_id": 3 }, "geometry": { "type": "Polygon", "coordinates": [ [ [ 31.004504504504503, 30.013513513513512 ], [ 31.004504504504503, 30.018018018018015 ], [ 31.0, 30.018018018018015 ], [ 31.0, 30.013513513513512 ], [ 31.004504504504503, 30.013513513513512 ] ] ] } },
{ "type": "Feature", "properties": { "cell_id": 4 }, "geometry": { "type": "Polygon", "coordinates": [ [ [ 31.004504504504503, 30.018018018018019 ], [ 31.004504504504503, 30.022522522522522 ], [ 31.0, 30.022522522522522 ], [ 31.0, 30.018018018018019 ], [ 31.004504504504503, 30.018018018018019 ] ] ] } },
{ "type": "Feature", "properties": { "cell_id": 5 }, "geometry": { "type": "Polygon", "coordinates": [ [ [ 31.004504504504503, 30.022522522522522 ], [ 31.004504504504503, 30.027027027027025 ], [ 31.0, 30.027027027027025 ], [ 31.0, 30.022522522522522 ], [ 31.004504504504503, 30.022522522522522 ] ] ] } },
{ "type": "Feature", "properties": { "cell_id": 6 }, "geometry": { "type": "Polygon", "coordinates": [ [ [ 31.004504504504503, 30.027027027027028 ], [ 31.004504504504503, 30.031531531531531 ], [ 31.0, 30.031531531531531 ], [ 31.0, 30.027027027027028 ], [ 31.004504504504503, 30.027027027027028 ] ] ] } },
{ "type": "Feature", "properties": { "cell_id": 7 }, "geometry": { "type": "Polygon", "coordinates": [ [ [ 31.004504504504503, 30.031531531531531 ], [ 31.004504504504503, 30.036036036036034 ], [ 31.0, 30.036036036036034 ], [ 31.0, 30.031531531531531 ], [ 31.004504504504503, 30.031531531531531 ] ] ] } },
{ "type": "Feature", "properties": { "cell_id": 8 }, "geometry": { "type": "Polygon", "coordinates": [ [ [ 31.004504504504503, 30.036036036036037 ], [ 31.004504504504503, 30.04054054054054 ], [ 31.0, 30.04054054054054 ], [ 31.0, 30.036036036036037 ], [ 31.004504504504503, 30.036036036036037 ] ] ] } },
{ "type": "Feature", "properties": { "cell_id": 9 }, "geometry": { "type": "Polygon", "coordinates": [ [ [ 31.004504504504503, 30.04054054054054 ], [ 31.004504504504503, 30.045045045045043 ], [ 31.0, 30.045045045045043 ], [ 31.0, 30.04054054054054 ], [ 31.004504504504503, 30.04054054054054 ] ] ] } },
{ "type": "Feature", "properties": { "cell_id": 10 }, "geometry": { "type": "Polygon", "coordinates": [ [ [ 31.004504504504503, 30.045045045045047 ], [ 31.004504504504503, 30.04954954954955 ], [ 31.0, 30.04954954954955 ], [ 31.0, 30.045045045045047 ], [ 31.004504504504503, 30.045045045045047 ] ] ] } },
{ "type": "Feature", "properties": { "cell_id": 11 }, "geometry": { "type": "Polygon", "coordinates": [ [ [ 31.004504504504503, 30.04954954954955 ], [ 31.004504504504503, 30.054054054054053 ], [ 31.0, 30.054054054054053 ], [ 31.0, 30.04954954954955 ], [ 31.004504504504503, 30.04954954954955 ] ] ] } },
{ "type": "Feature", "properties": { "cell_id": 12 }, "geometry": { "type": "Polygon", "coordinates": [ [ [ 31.004504504504503, 30.054054054054053 ], [ 31.004504504504503, 30.058558558558556 ], [ 31.0, 30.058558558558556 ], [ 31.0, 30.054054054054053 ], [ 31.004504504504503, 30.054054054054053 ] ] ] } },
{ "type": "Feature", "properties": { "cell_id": 13 }, "geometry": { "type": "Polygon", "coordinates": [ [ [ 31.004504504504503, 30.058558558558559 ], [ 31.004504504504503, 30.063063063063062 ], [ 31.0, 30.063063063063062 ], [ 31.0, 30.058558558558559 ], [ 31.004504504504503, 30.058558558558559 ] ] ] } },
{ "type": "Feature", "properties": { "cell_id": 14 }, "geometry": { "type": "Polygon", "coordinates": [ [ [ 31.004504504504503, 30.063063063063062 ], [ 31.004504504504503, 30.067567567567565 ], [ 31.0, 30.067567567567565 ], [ 31.0, 30.063063063063062 ], [ 31.004504504504503, 30.063063063063062 ] ] ] } },
{ "type": "Feature", "properties": { "cell_id": 15 }, "geometry": { "type": "Polygon", "coordinates": [ [ [ 31.004504504504503, 30.067567567567568 ], [ 31.004504504504503, 30.072072072072071 ], [ 31.0, 30.072072072072071 ], [ 31.0, 30.067567567567568 ], [ 31.004504504504503, 30.067567567567568 ] ] ] } },
{ "type": "Feature", "properties": { "cell_id": 16 }, "geometry": { "type": "Polygon", "coordinates": [ [ [ 31.009009009009006, 30.0 ], [ 31.009009009009006, 30.004504504504503 ], [ 31.004504504504503, 30.004504504504503 ], [ 31.004504504504503, 30.0 ], [ 31.009009009009006, 30.0 ] ] ] } },
{ "type": "Feature", "properties": { "cell_id": 17 }, "geometry": { "type": "Polygon", "coordinates": [ [ [ 31.009009009009006, 30.004504504504503 ], [ 31.009009009009006, 30.009009009009006 ], [ 31.004504504504503, 30.009009009009006 ], [ 31.004504504504503, 30.004504504504503 ], [ 31.009009009009006, 30.004504504504503 ] ] ] } },
{ "type": "Feature", "properties": { "cell_id": 18 }, "geometry": { "type": "Polygon", "coordinates": [ [ [ 31.009009009009006, 30.009009009009009 ], [ 31.009009009009006, 30.013513513513512 ], [ 31.004504504504503, 30.013513513513512 ], [ 31.004504504504503, 30.009009009009009 ], [ 31.009009009009006, 30.009009009009009 ] ] ] } },
{ "type": "Feature", "properties": { "cell_id": 19 }, "geometry": { "type": "Polygon", "coordinates": [ [ [ 31.009009009009006, 30.013513513513512 ], [ 31.009009009009006, 30.018018018018015 ], [ 31.004504504504503, 30.018018018018015 ], [ 31.004504504504503, 30.013513513513512 ], [ 31.009009009009006, 30.013513513513512 ] ] ] } },
{ "type": "Feature", "properties": { "cell_id": 20 }, "geometry": { "type": "Polygon", "coordinates": [ [ [ 31.009009009009006, 30.018018018018019 ], [ 31.009009009009006, 30.022522522522522 ], [ 31.004504504504503, 30.022522522522522 ], [ 31.004504504504503, 30.018018018018019 ], [ 31.009009009009006, 30.018018018018019 ] ] ] } },
{ "type": "Feature", "properties": { "cell_id": 21 }, "geometry": { "type": "Polygon", "coordinates": [ [ [ 31.009009009009006, 30.022522522522522 ], [ 31.009009009009006, 30.027027027027025 ], [ 31.004504504504503, 30.027027027027025 ], [ 31.004504504504503, 30.022522522522522 ], [ 31.009009009009006, 30.022522522522522 ] ] ] } },
{ "type": "Feature", "properties": { "cell_id": 22 }, "geometry": { "type": "Polygon", "coordinates": [ [ [ 31.009009009009006, 30.027027027027028 ], [ 31.009009009009006, 30.031531531531531 ], [ 31.004504504504503, 30.031531531531531 ], [ 31.004504504504503, 30.027027027027028 ], [ 31.009009009009006, 30.027027027027028 ] ] ] } },
{ "type": "Feature", "properties": { "cell_id": 23 }, "geometry": { "type": "Polygon", "coordinates": [ [ [ 31.009009009009006, 30.031531531531531 ], [ 31.009009009009006, 30.036036036036034 ], [ 31.004504504504503, 30.036036036036034 ], [ 31.004504504504503, 30.031531531531531 ], [ 31.009009009009006, 30.031531531531531 ] ] ] } },
{ "type": "Feature", "properties": { "cell_id": 24 }, "geometry": { "type": "Polygon", "coordinates": [ [ [ 31.009009009009006, 30.036036036036037 ], [ 31.009009009009006, 30.04054054054054 ], [ 31.004504504504503, 30.04054054054054 ], [ 31.004504504504503, 30.036036036036037 ], [ 31.009009009009006, 30.036036036036037 ] ] ] } },
{ "type": "Feature", "properties": { "cell_id": 25 }, "geometry": { "type": "Polygon", "coordinates": [ [ [ 31.009009009009006, 30.04054054054054 ], [ 31.009009009009006, 30.045045045045043 ], [ 31.004504504504503, 30.045045045045043 ], [ 31.004504504504503, 30.04054054054054 ], [ 31.009009009009006, 30.04054054054054 ] ] ] } },
{ "type": "Feature", "properties": { "cell_id": 26 }, "geometry": { "type": "Polygon", "coordinates": [ [ [ 31.009009009009006, 30.045045045045047 ], [ 31.009009009009006, 30.04954954954955 ], [ 31.004504504504503, 30.04954954954955 ], [ 31.004504504504503, 30.045045045045047 ], [ 31.009009009009006, 30.045045045045047 ] ] ] } },
{ "type": "Feature", "properties": { "cell_id": 27 }, "geometry": { "type": "Polygon", "coordinates": [ [ [ 31.009009009009006, 30.04954954954955 ], [ 31.009009009009006, 30.054054054054053 ], [ 31.004504504504503, 30.054054054054053 ], [ 31.004504504504503, 30.04954954954955 ], [ 31.009009009009006, 30.04954954954955 ] ] ] } },
{ "type": "Feature", "properties": { "cell_id": 28 }, "geometry": { "type": "Polygon", "coordinates": [ [ [ 31.009009009009006, 30.054054054054053 ], [ 31.009009009009006, 30.058558558558556 ], [ 31.004504504504503, 30.058558558558556 ], [ 31.004504504504503, 30.054054054054053 ], [ 31.009009009009006, 30.054054054054053 ] ] ] } },
{ "type": "Feature", "properties": { "cell_id": 29 }, "geometry": { "type": "Polygon", "coordinates": [ [ [ 31.009009009009006, 30.058558558558559 ], [ 31.009009009009006, 30.063063063063062 ], [ 31.004504504504503, 30.063063063063062 ], [ 31.004504504504503, 30.058558558558559 ], [ 31.009009009009006, 30.058558558558559 ] ] ] } },
{ "type": "Feature", "properties": { "cell_id": 30 }, "geometry": { "type": "Polygon", "coordinates": [ [ [ 31.009009009009006, 30.063063063063062 ], [ 31.009009009009006, 30.067567567567565 ], [ 31.004504504504503, 30.067567567567565 ], [ 31.004504504504503, 30.063063063063062 ], [ 31.009009009009006, 30.063063063063062 ] ] ] } },
{ "type": "Feature", "properties": { "cell_id": 31 }, "geometry": { "type": "Polygon", "coordinates": [ [ [ 31.009009009009006, 30.067567567567568 ], [ 31.009009009009006, 30.072072072072071 ], [ 31.004504504504503, 30.072072072072071 ], [ 31.004504504504503, 30.067567567567568 ], [ 31.009009009009006, 30.067567567567568 ] ] ] } },
{ "type": "Feature", "properties": { "cell_id": 32 }, "geometry": { "type": "Polygon", "coordinates": [ [ [ 31.013513513513512, 30.0 ], [ 31.013513513513512, 30.004504504504503 ], [ 31.009009009009009, 30.004504504504503 ], [ 31.009009009009009, 30.0 ], [ 31.013513513513512, 30.0 ] ] ] } },
{ "type": "Feature", "properties": { "cell_id": 33 }, "geometry": { "type": "Polygon", "coordinates": [ [ [ 31.013513513513512, 30.004504504504503 ], [ 31.013513513513512, 30.009009009009006 ], [ 31.009009009009009, 30.009009009009006 ], [ 31.009009009009009, 30.004504504504503 ], [ 31.013513513513512, 30.004504504504503 ] ] ] } },
{ "type": "Feature", "properties": { "cell_id": 34 }, "geometry": { "type": "Polygon", "coordinates": [ [ [ 31.013513513513512, 30.009009009009009 ], [ 31.013513513513512, 30.013513513513512 ], [ 31.009009009009009, 30.013513513513512 ], [ 31.009009009009009, 30.009009009009009 ], [ 31.013513513513512, 30.009009009009009 ] ] ] } },
{ "type": "Feature", "properties": { "cell_id": 35 }, "geometry": { "type": "Polygon", "coordinates": [ [ [ 31.013513513513512, 30.013513513513512 ], [ 31.013513513513512, 30.018018018018015 ], [ 31.009009009009009, 30.018018018018015 ], [ 31.009009009009009, 30.013513513513512 ], [ 31.013513513513512, 30.013513513513512 ] ] ] } },
{ "type": "Feature", "properties": { "cell_id": 36 }, "geometry": { "type": "Polygon", "coordinates": [ [ [ 31.013513513513512, 30.018018018018019 ], [ 31.013513513513512, 30.022522522522522 ], [ 31.009009009009009, 30.022522522522522 ], [ 31.009009009009009, 30.018018018018019 ], [ 31.013513513513512, 30.018018018018019 ] ] ] } },
{ "type": "Feature", "properties": { "cell_id": 37 }, "geometry": { "type": "Polygon", "coordinates": [ [ [ 31.013513513513512, 30.022522522522522 ], [ 31.013513513513512, 30.027027027027025 ], [ 31.009009009009009, 30.027027027027025 ], [ 31.009009009009009, 30.022522522522522 ], [ 31.013513513513512, 30.022522522522522 ] ] ] } },
{ "type": "Feature", "properties": { "cell_id": 38 }, "geometry": { "type": "Polygon", "coordinates": [ [ [ 31.013513513513512, 30.027027027027028 ], [ 31.013513513513512, 30.031531531531531 ], [ 31.009009009009009, 30.031531531531531 ], [ 31.009009009009009, 30.027027027027028 ], [ 31.013513513513512, 30.027027027027028 ] ] ] } },
{ "type": "Feature", "properties": { "cell_id": 39 }, "geometry": { "type": "Polygon", "coordinates": [ [ [ 31.013513513513512, 30.031531531531531 ], [ 31.013513513513512, 30.036036036036034 ], [ 31.009009009009009, 30.036036036036034 ], [ 31.009009009009009, 30.031531531531531 ], [ 31.013513513513512, 30.031531531531531 ] ] ] } },
{ "type": "Feature", "properties": { "cell_id": 40 }, "geometry": { "type": "Polygon", "coordinates": [ [ [ 31.013513513513512, 30.036036036036037 ], [ 31.013513513513512, 30.04054054054054 ], [ 31.009009009009009, 30.04054054054054 ], [ 31.009009009009009, 30.036036036036037 ], [ 31.013513513513512, 30.036036036036037 ] ] ] } },
{ "type": "Feature", "properties": { "cell_id": 41 }, "geometry": { "type": "Polygon", "coordinates": [ [ [ 31.013513513513512, 30.04054054054054 ], [ 31.013513513513512, 30.045045045045043 ], [ 31.009009009009009, 30.045045045045043 ], [ 31.009009009009009, 30.04054054054054 ], [ 31.013513513513512, 30.04054054054054 ] ] ] } },
{ "type": "Feature", "properties": { "cell_id": 42 }, "geometry": { "type": "Polygon", "coordinates": [ [ [ 31.013513513513512, 30.045045045045047 ], [ 31.013513513513512, 30.04954954954955 ], [ 31.009009009009009, 30.04954954954955 ], [ 31.009009009009009, 30.045045045045047 ], [ 31.013513513513512, 30.045045045045047 ] ] ] } },
{ "type": "Feature", "properties": { "cell_id": 43 }, "geometry": { "type": "Polygon", "coordinates": [ [ [ 31.013513513513512, 30.04954954954955 ], [ 31.013513513513512, 30.054054054054053 ], [ 31.009009009009009, 30.054054054054053 ], [ 31.009009009009009, 30.04954954954955 ], [ 31.013513513513512, 30.04954954954955 ] ] ] } },
{ "type": "Feature", "properties": { "cell_id": 44 }, "geometry": { "type": "Polygon", "coordinates": [ [ [ 31.013513513513512, 30.054054054054053 ], [ 31.013513513513512, 30.058558558558556 ], [ 31.009009009009009, 30.058558558558556 ], [ 31.009009009009009, 30.054054054054053 ], [ 31.013513513513512, 30.054054054054053 ] ] ] } },
{ "type": "Feature", "properties": { "cell_id": 45 }, "geometry": { "type": "Polygon", "coordinates": [ [ [ 31.013513513513512, 30.058558558558559 ], [ 31.013513513513512, 30.063063063063062 ], [ 31.009009009009009, 30.063063063063062 ], [ 31.009009009009009, 30.058558558558559 ], [ 31.013513513513512, 30.058558558558559 ] ] ] } },
{ "type": "Feature", "properties": { "cell_id": 46 }, "geometry": { "type": "Polygon", "coordinates": [ [ [ 31.013513513513512, 30.063063063063062 ], [ 31.013513513513512, 30.067567567567565 ], [ 31.009009009009009, 30.067567567567565 ], [ 31.009009009009009, 30.063063063063062 ], [ 31.013513513513512, 30.063063063063062 ] ] ] } },
{ "type": "Feature", "properties": { "cell_id": 47 }, "geometry": { "type": "Polygon", "coordinates": [ [ [ 31.013513513513512, 30.067567567567568 ], [ 31.013513513513512, 30.072072072072071 ], [ 31.009009009009009, 30.072072072072071 ], [ 31.009009009009009, 30.067567567567568 ], [ 31.013513513513512, 30.067567567567568 ] ] ] } },
{ "type": "Feature", "properties": { "cell_id": 48 }, "geometry": { "type": "Polygon", "coordinates": [ [ [ 31.018018018018015, 30.0 ], [ 31.018018018018015, 30.004504504504503 ], [ 31.013513513513512, 30.004504504504503 ], [ 31.013513513513512, 30.0 ], [ 31.018018018018015, 30.0 ] ] ] } },
{ "type": "Feature", "properties": { "cell_id": 49 }, "geometry": { "type": "Polygon", "coordinates": [ [ [ 31.018018018018015, 30.004504504504503 ], [ 31.018018018018015, 30.009009009009006 ], [ 31.013513513513512, 30.009009009009006 ], [ 31.013513513513512, 30.004504504504503 ], [ 31.018018018018015, 30.004504504504503 ] ] ] } },
{ "type": "Feature", "properties": { "cell_id": 50 }, "geometry": { "type": "Polygon", "coordinates": [ [ [ 31.018018018018015, 30.009009009009009 ], [ 31.018018018018015, 30.013513513513512 ], [ 31.013513513513512, 30.013513513513512 ], [ 31.013513513513512, 30.009009009009009 ], [ 31.018018018018015, 30.009009009009009 ] ] ] } },
{ "type": "Feature", "properties": { "cell_id": 51 }, "geometry": { "type": "Polygon", "coordinates": [ [ [ 31.018018018018015, 30.013513513513512 ], [ 31.018018018018015, 30.018018018018015 ], [ 31.013513513513512, 30.018018018018015 ], [ 31.013513513513512, 30.013513513513512 ], [ 31.018018018018015, 30.013513513513512 ] ] ] } },
{ "type": "Feature", "properties": { "cell_id": 52 }, "geometry": { "type": "Polygon", "coordinates": [ [ [ 31.018018018018015, 30.018018018018019 ], [ 31.018018018018015, 30.022522522522522 ], [ 31.013513513513512, 30.022522522522522 ], [ 31.013513513513512, 30.018018018018019 ], [ 31.018018018018015, 30.018018018018019 ] ] ] } },
{ "type": "Feature", "properties": { "cell_id": 53 }, "geometry": { "type": "Polygon", "coordinates": [ [ [ 31.018018018018015, 30.022522522522522 ], [ 31.018018018018015, 30.027027027027025 ], [ 31.013513513513512, 30.027027027027025 ], [ 31.013513513513512, 30.022522522522522 ], [ 31.018018018018015, 30.022522522522522 ] ] ] } },
{ "type": "Feature", "properties": { "cell_id": 54 }, "geometry": { "type": "Polygon", "coordinates": [ [ [ 31.018018018018015, 30.027027027027028 ], [ 31.018018018018015, 30.031531531531531 ], [ 31.013513513513512, 30.031531531531531 ], [ 31.013513513513512, 30.027027027027028 ], [ 31.018018018018015, 30.027027027027028 ] ] ] } },
{ "type": "Feature", "properties": { "cell_id": 55 }, "geometry": { "type": "Polygon", "coordinates": [ [ [ 31.018018018018015, 30.031531531531531 ], [ 31.018018018018015, 30.036036036036034 ], [ 31.013513513513512, 30.036036036036034 ], [ 31.013513513513512, 30.031531531531531 ], [ 31.018018018018015, 30.031531531531531 ] ] ] } },
{ "type": "Feature", "properties": { "cell_id": 56 }, "geometry": { "type": "Polygon", "coordinates": [ [ [ 31.018018018018015, 30.036036036036037 ], [ 31.018018018018015, 30.04054054054054 ], [ 31.013513513513512, 30.04054054054054 ], [ 31.013513513513512, 30.036036036036037 ], [ 31.018018018018015, 30.036036036036037 ] ] ] } },
{ "type": "Feature", "properties": { "cell_id": 57 }, "geometry": { "type": "Polygon", "coordinates": [ [ [ 31.018018018018015, 30.04054054054054 ], [ 31.018018018018015, 30.045045045045043 ], [ 31.013513513513512, 30.045045045045043 ], [ 31.013513513513512, 30.04054054054054 ], [ 31.018018018018015, 30.04054054054054 ] ] ] } },
{ "type": "Feature", "properties": { "cell_id": 58 }, "geometry": { "type": "Polygon", "coordinates": [ [ [ 31.018018018018015, 30.045045045045047 ], [ 31.018018018018015, 30.04954954954955 ], [ 31.013513513513512, 30.04954954954955 ], [ 31.013513513513512, 30.045045045045047 ], [ 31.018018018018015, 30.045045045045047 ] ] ] } },
{ "type": "Feature", "properties": { "cell_id": 59 }, "geometry": { "type": "Polygon", "coordinates": [ [ [ 31.018018018018015, 30.04954954954955 ], [ 31.018018018018015, 30.054054054054053 ], [ 31.013513513513512, 30.054054054054053 ], [ 31.013513513513512, 30.04954954954955 ], [ 31.018018018018015, 30.04954954954955 ] ] ] } },
{ "type": "Feature", "properties": { "cell_id": 60 }, "geometry": { "type": "Polygon", "coordinates": [ [ [ 31.018018018018015, 30.054054054054053 ], [ 31.018018018018015, 30.058558558558556 ], [ 31.013513513513512, 30.058558558558556 ], [ 31.013513513513512, 30.054054054054053 ], [ 31.018018018018015, 30.054054054054053 ] ] ] } },
{ "type": "Feature", "properties": { "cell_id": 61 }, "geometry": { "type": "Polygon", "coordinates": [ [ [ 31.018018018018015, 30.058558558558559 ], [ 31.018018018018015, 30.063063063063062 ], [ 31.013513513513512, 30.063063063063062 ], [ 31.013513513513512, 30.058558558558559 ], [ 31.018018018018015, 30.058558558558559 ] ] ] } },
{ "type": "Feature", "properties": { "cell_id": 62 }, "geometry": { "type": "Polygon", "coordinates": [ [ [ 31.018018018018015, 30.063063063063062 ], [ 31.018018018018015, 30.067567567567565 ], [ 31.013513513513512, 30.067567567567565 ], [ 31.013513513513512, 30.063063063063062 ], [ 31.018018018018015, 30.063063063063062 ] ] ] } },
{ "type": "Feature", "properties": { "cell_id": 63 }, "geometry": { "type": "Polygon", "coordinates": [ [ [ 31.018018018018015, 30.067567567567568 ], [ 31.018018018018015, 30.072072072072071 ], [ 31.013513513513512, 30.072072072072071 ], [ 31.013513513513512, 30.067567567567568 ], [ 31.018018018018015, 30.067567567567568 ] ] ] } },
{ "type": "Feature", "properties": { "cell_id": 64 }, "geometry": { "type": "Polygon", "coordinates": [ [ [ 31.022522522522522, 30.0 ], [ 31.022522522522522, 30.004504504504503 ], [ 31.018018018018019, 30.004504504504503 ], [ 31.018018018018019, 30.0 ], [ 31.022522522522522, 30.0 ] ] ] } },
{ "type": "Feature", "properties": { "cell_id": 65 }, "geometry": { "type": "Polygon", "coordinates": [ [ [ 31.022522522522522, 30.004504504504503 ], [ 31.022522522522522, 30.009009009009006 ], [ 31.018018018018019, 30.009009009009006 ], [ 31.018018018018019, 30.004504504504503 ], [ 31.022522522522522, 30.004504504504503 ] ] ] } },
{ "type": "Feature", "properties": { "cell_id": 66 }, "geometry": { "type": "Polygon", "coordinates": [ [ [ 31.022522522522522, 30.009009009009009 ], [ 31.022522522522522, 30.013513513513512 ], [ 31.018018018018019, 30.013513513513512 ], [ 31.018018018018019, 30.009009009009009 ], [ 31.022522522522522, 30.009009009009009 ] ] ] } },
{ "type": "Feature", "properties": { "cell_id": 67 }, "geometry": { "type": "Polygon", "coordinates": [ [ [ 31.022522522522522, 30.013513513513512 ], [ 31.022522522522522, 30.018018018018015 ], [ 31.018018018018019, 30.018018018018015 ], [ 31.018018018018019, 30.013513513513512 ], [ 31.022522522522522, 30.013513513513512 ] ] ] } },
{ "type": "Feature", "properties": { "cell_id": 68 }, "geometry": { "type": "Polygon", "coordinates": [ [ [ 31.022522522522522, 30.018018018018019 ], [ 31.022522522522522, 30.022522522522522 ], [ 31.018018018018019, 30.022522522522522 ], [ 31.018018018018019, 30.018018018018019 ], [ 31.022522522522522, 30.018018018018019 ] ] ] } },
{ "type": "Feature", "properties": { "cell_id": 69 }, "geometry": { "type": "Polygon", "coordinates": [ [ [ 31.022522522522522, 30.022522522522522 ], [ 31.022522522522522, 30.027027027027025 ], [ 31.018018018018019, 30.027027027027025 ], [ 31.018018018018019, 30.022522522522522 ], [ 31.022522522522522, 30.022522522522522 ] ] ] } },
{ "type": "Feature", "properties": { "cell_id": 70 }, "geometry": { "type": "Polygon", "coordinates": [ [ [ 31.022522522522522, 30.027027027027028 ], [ 31.022522522522522, 30.031531531531531 ], [ 31.018018018018019, 30.031531531531531 ], [ 31.018018018018019, 30.027027027027028 ], [ 31.022522522522522, 30.027027027027028 ] ] ] } },
{ "type": "Feature", "properties": { "cell_id": 71 }, "geometry": { "type": "Polygon", "coordinates": [ [ [ 31.022522522522522, 30.031531531531531 ], [ 31.022522522522522, 30.036036036036034 ], [ 31.018018018018019, 30.036036036036034 ], [ 31.018018018018019, 30.031531531531531 ], [ 31.022522522522522, 30.031531531531531 ] ] ] } },
{ "type": "Feature", "properties": { "cell_id": 72 }, "geometry": { "type": "Polygon", "coordinates": [ [ [ 31.022522522522522, 30.036036036036037 ], [ 31.022522522522522, 30.04054054054054 ], [ 31.018018018018019, 30.04054054054054 ], [ 31.018018018018019, 30.036036036036037 ], [ 31.022522522522522, 30.036036036036037 ] ] ] } },
{ "type": "Feature", "properties": { "cell_id": 73 }, "geometry": { "type": "Polygon", "coordinates": [ [ [ 31.022522522522522, 30.04054054054054 ], [ 31.022522522522522, 30.045045045045043 ], [ 31.018018018018019, 30.045045045045043 ], [ 31.018018018018019, 30.04054054054054 ], [ 31.022522522522522, 30.04054054054054 ] ] ] } },
{ "type": "Feature", "properties": { "cell_id": 74 }, "geometry": { "type": "Polygon", "coordinates": [ [ [ 31.022522522522522, 30.045045045045047 ], [ 31.022522522522522, 30.04954954954955 ], [ 31.018018018018019, 30.04954954954955 ], [ 31.018018018018019, 30.045045045045047 ], [ 31.022522522522522, 30.045045045045047 ] ] ] } },
{ "type": "Feature", "properties": { "cell_id": 75 }, "geometry": { "type": "Polygon", "coordinates": [ [ [ 31.022522522522522, 30.04954954954955 ], [ 31.022522522522522, 30.054054054054053 ], [ 31.018018018018019, 30.054054054054053 ], [ 31.018018018018019, 30.04954954954955 ], [ 31.022522522522522, 30.04954954954955 ] ] ] } },
{ "type": "Feature", "properties": { "cell_id": 76 }, "geometry": { "type": "Polygon", "coordinates": [ [ [ 31.022522522522522, 30.054054054054053 ], [ 31.022522522522522, 30.058558558558556 ], [ 31.018018018018019, 30.058558558558556 ], [ 31.018018018018019, 30.054054054054053 ], [ 31.022522522522522, 30.054054054054053 ] ] ] } },
{ "type": "Feature", "properties": { "cell_id": 77 }, "geometry": { "type": "Polygon", "coordinates": [ [ [ 31.022522522522522, 30.058558558558559 ], [ 31.022522522522522, 30.063063063063062 ], [ 31.018018018018019, 30.063063063063062 ], [ 31.018018018018019, 30.058558558558559 ], [ 31.022522522522522, 30.058558558558559 ] ] ] } },
{ "type": "Feature", "properties": { "cell_id": 78 }, "geometry": { "type": "Polygon", "coordinates": [ [ [ 31.022522522522522, 30.063063063063062 ], [ 31.022522522522522, 30.067567567567565 ], [ 31.018018018018019, 30.067567567567565 ], [ 31.018018018018019, 30.063063063063062 ], [ 31.022522522522522, 30.063063063063062 ] ] ] } },
{ "type": "Feature", "properties": { "cell_id": 79 }, "geometry": { "type": "Polygon", "coordinates": [ [ [ 31.022522522522522, 30.067567567567568 ], [ 31.022522522522522, 30.072072072072071 ], [ 31.018018018018019, 30.072072072072071 ], [ 31.018018018018019, 30.067567567567568 ], [ 31.022522522522522, 30.067567567567568 ] ] ] } },
{ "type": "Feature", "properties": { "cell_id": 80 }, "geometry": { "type": "Polygon", "coordinates": [ [ [ 31.027027027027025, 30.0 ], [ 31.027027027027025, 30.004504504504503 ], [ 31.022522522522522, 30.004504504504503 ], [ 31.022522522522522, 30.0 ], [ 31.027027027027025, 30.0 ] ] ] } },
{ "type": "Feature", "properties": { "cell_id": 81 }, "geometry": { "type": "Polygon", "coordinates": [ [ [ 31.027027027027025, 30.004504504504503 ], [ 31.027027027027025, 30.009009009009006 ], [ 31.022522522522522, 30.009009009009006 ], [ 31.022522522522522, 30.004504504504503 ], [ 31.027027027027025, 30.004504504504503 ] ] ] } },
{ "type": "Feature", "properties": { "cell_id": 82 }, "geometry": { "type": "Polygon", "coordinates": [ [ [ 31.027027027027025, 30.009009009009009 ], [ 31.027027027027025, 30.013513513513512 ], [ 31.022522522522522, 30.013513513513512 ], [ 31.022522522522522, 30.009009009009009 ], [ 31.027027027027025, 30.009009009009009 ] ] ] } },
{ "type": "Feature", "properties": { "cell_id": 83 }, "geometry": { "type": "Polygon", "coordinates": [ [ [ 31.027027027027025, 30.013513513513512 ], [ 31.027027027027025, 30.018018018018015 ], [ 31.022522522522522, 30.018018018018015 ], [ 31.022522522522522, 30.013513513513512 ], [ 31.027027027027025, 30.013513513513512 ] ] ] } },
{ "type": "Feature", "properties": { "cell_id": 84 }, "geometry": { "type": "Polygon", "coordinates": [ [ [ 31.027027027027025, 30.018018018018019 ], [ 31.027027027027025, 30.022522522522522 ], [ 31.022522522522522, 30.022522522522522 ], [ 31.022522522522522, 30.018018018018019 ], [ 31.027027027027025, 30.018018018018019 ] ] ] } },
{ "type": "Feature", "properties": { "cell_id": 85 }, "geometry": { "type": "Polygon", "coordinates": [ [ [ 31.027027027027025, 30.022522522522522 ], [ 31.027027027027025, 30.027027027027025 ], [ 31.022522522522522, 30.027027027027025 ], [ 31.022522522522522, 30.022522522522522 ], [ 31.027027027027025, 30.022522522522522 ] ] ] } },
{ "type": "Feature", "properties": { "cell_id": 86 }, "geometry": { "type": "Polygon", "coordinates": [ [ [ 31.027027027027025, 30.027027027027028 ], [ 31.027027027027025, 30.031531531531531 ], [ 31.022522522522522, 30.031531531531531 ], [ 31.022522522522522, 30.027027027027028 ], [ 31.027027027027025, 30.027027027027028 ] ] ] } },
{ "type": "Feature", "properties": { "cell_id": 87 }, "geometry": { "type": "Polygon", "coordinates": [ [ [ 31.027027027027025, 30.031531531531531 ], [ 31.027027027027025, 30.036036036036034 ], [ 31.022522522522522, 30.036036036036034 ], [ 31.022522522522522, 30.031531531531531 ], [ 31.027027027027025, 30.031531531531531 ] ] ] } },
{ "type": "Feature", "properties": { "cell_id": 88 }, "geometry": { "type": "Polygon", "coordinates": [ [ [ 31.027027027027025, 30.036036036036037 ], [ 31.027027027027025, 30.04054054054054 ], [ 31.022522522522522, 30.04054054054054 ], [ 31.022522522522522, 30.036036036036037 ], [ 31.027027027027025, 30.036036036036037 ] ] ] } },
{ "type": "Feature", "properties": { "cell_id": 89 }, "geometry": { "type": "Polygon", "coordinates": [ [ [ 31.027027027027025, 30.04054054054054 ], [ 31.027027027027025, 30.045045045045043 ], [ 31.022522522522522, 30.045045045045043 ], [ 31.022522522522522, 30.04054054054054 ], [ 31.027027027027025, 30.04054054054054 ] ] ] } },
{ "type": "Feature", "properties": { "cell_id": 90 }, "geometry": { "type": "Polygon", "coordinates": [ [ [ 31.027027027027025, 30.045045045045047 ], [ 31.027027027027025, 30.04954954954955 ], [ 31.022522522522522, 30.04954954954955 ], [ 31.022522522522522, 30.045045045045047 ], [ 31.027027027027025, 30.045045045045047 ] ] ] } },
{ "type": "Feature", "properties": { "cell_id": 91 }, "geometry": { "type": "Polygon", "coordinates": [ [ [ 31.027027027027025, 30.04954954954955 ], [ 31.027027027027025, 30.054054054054053 ], [ 31.022522522522522, 30.054054054054053 ], [ 31.022522522522522, 30.04954954954955 ], [ 31.027027027027025, 30.04954954954955 ] ] ] } },
{ "type": "Feature", "properties": { "cell_id": 92 }, "geometry": { "type": "Polygon", "coordinates": [ [ [ 31.027027027027025, 30.054054054054053 ], [ 31.027027027027025, 30.058558558558556 ], [ 31.022522522522522, 30.058558558558556 ], [ 31.022522522522522, 30.054054054054053 ], [ 31.027027027027025, 30.054054054054053 ] ] ] } },
{ "type": "Feature", "properties": { "cell_id": 93 }, "geometry": { "type": "Polygon", "coordinates": [ [ [ 31.027027027027025, 30.058558558558559 ], [ 31.027027027027025, 30.063063063063062 ], [ 31.022522522522522, 30.063063063063062 ], [ 31.022522522522522, 30.058558558558559 ], [ 31.027027027027025, 30.058558558558559 ] ] ] } },
{ "type": "Feature", "properties": { "cell_id": 94 }, "geometry": { "type": "Polygon", "coordinates": [ [ [ 31.027027027027025, 30.063063063063062 ], [ 31.027027027027025, 30.067567567567565 ], [ 31.022522522522522, 30.067567567567565 ], [ 31.022522522522522, 30.063063063063062 ], [ 31.027027027027025, 30.063063063063062 ] ] ] } },
{ "type": "Feature", "properties": { "cell_id": 95 }, "geometry": { "type": "Polygon", "coordinates": [ [ [ 31.027027027027025, 30.067567567567568 ], [ 31.027027027027025, 30.072072072072071 ], [ 31.022522522522522, 30.072072072072071 ], [ 31.022522522522522, 30.067567567567568 ], [ 31.027027027027025, 30.067567567567568 ] ] ] } },
{ "type": "Feature", "properties": { "cell_id": 96 }, "geometry": { "type": "Polygon", "coordinates": [ [ [ 31.031531531531531, 30.0 ], [ 31.031531531531531, 30.004504504504503 ], [ 31.027027027027028, 30.004504504504503 ], [ 31.027027027027028, 30.0 ], [ 31.031531531531531, 30.0 ] ] ] } },
{ "type": "Feature", "properties": { "cell_id": 97 }, "geometry": { "type": "Polygon", "coordinates": [ [ [ 31.031531531531531, 30.004504504504503 ], [ 31.031531531531531, 30.009009009009006 ], [ 31.027027027027028, 30.009009009009006 ], [ 31.027027027027028, 30.004504504504503 ], [ 31.031531531531531, 30.004504504504503 ] ] ] } },
{ "type": "Feature", "properties": { "cell_id": 98 }, "geometry": { "type": "Polygon", "coordinates": [ [ [ 31.031531531531531, 30.009009009009009 ], [ 31.031531531531531, 30.013513513513512 ], [ 31.027027027027028, 30.013513513513512 ], [ 31.027027027027028, 30.009009009009009 ], [ 31.031531531531531, 30.009009009009009 ] ] ] } },
{ "type": "Feature", "properties": { "cell_id": 99 }, "geometry": { "type": "Polygon", "coordinates": [ [ [ 31.031531531531531, 30.013513513513512 ], [ 31.031531531531531, 30.018018018018015 ], [ 31.027027027027028, 30.018018018018015 ], [ 31.027027027027028, 30.013513513513512 ], [ 31.031531531531531, 30.013513513513512 ] ] ] } },
{ "type": "Feature", "properties": { "cell_id": 100 }, "geometry": { "type": "Polygon", "coordinates": [ [ [ 31.031531531531531, 30.018018018018019 ], [ 31.031531531531531, 30.022522522522522 ], [ 31.027027027027028, 30.022522522522522 ], [ 31.027027027027028, 30.018018018018019 ], [ 31.031531531531531, 30.018018018018019 ] ] ] } },
{ "type": "Feature", "properties": { "cell_id": 101 }, "geometry": { "type": "Polygon", "coordinates": [ [ [ 31.031531531531531, 30.022522522522522 ], [ 31.031531531531531, 30.027027027027025 ], [ 31.027027027027028, 30.027027027027025 ], [ 31.027027027027028, 30.022522522522522 ], [ 31.031531531531531, 30.022522522522522 ] ] ] } },
{ "type": "Feature", "properties": { "cell_id": 102 }, "geometry": { "type": "Polygon", "coordinates": [ [ [ 31.031531531531531, 30.027027027027028 ], [ 31.031531531531531, 30.031531531531531 ], [ 31.027027027027028, 30.031531531531531 ], [ 31.027027027027028, 30.027027027027028 ], [ 31.031531531531531, 30.027027027027028 ] ] ] } },
{ "type": "Feature", "properties": { "cell_id": 103 }, "geometry": { "type": "Polygon", "coordinates": [ [ [ 31.031531531531531, 30.031531531531531 ], [ 31.031531531531531, 30.036036036036034 ], [ 31.027027027027028, 30.036036036036034 ], [ 31.027027027027028, 30.031531531531531 ], [ 31.031531531531531, 30.031531531531531 ] ] ] } },
{ "type": "Feature", "properties": { "cell_id": 104 }, "geometry": { "type": "Polygon", "coordinates": [ [ [ 31.031531531531531, 30.036036036036037 ], [ 31.031531531531531, 30.04054054054054 ], [ 31.027027027027028, 30.04054054054054 ], [ 31.027027027027028, 30.036036036036037 ], [ 31.031531531531531, 30.036036036036037 ] ] ] } },
{ "type": "Feature", "properties": { "cell_id": 105 }, "geometry": { "type": "Polygon", "coordinates": [ [ [ 31.031531531531531, 30.04054054054054 ], [ 31.031531531531531, 30.045045045045043 ], [ 31.027027027027028, 30.045045045045043 ], [ 31.027027027027028, 30.04054054054054 ], [ 31.031531531531531, 30.04054054054054 ] ] ] } },
{ "type": "Feature", "properties": { "cell_id": 106 }, "geometry": { "type": "Polygon", "coordinates": [ [ [ 31.031531531531531, 30.045045045045047 ], [ 31.031531531531531, 30.04954954954955 ], [ 31.027027027027028, 30.04954954954955 ], [ 31.027027027027028, 30.045045045045047 ], [ 31.031531531531531, 30.045045045045047 ] ] ] } },
{ "type": "Feature", "properties": { "cell_id": 107 }, "geometry": { "type": "Polygon", "coordinates": [ [ [ 31.031531531531531, 30.04954954954955 ], [ 31.031531531531531, 30.054054054054053 ], [ 31.027027027027028, 30.054054054054053 ], [ 31.027027027027028, 30.04954954954955 ], [ 31.031531531531531, 30.04954954954955 ] ] ] } },
{ "type": "Feature", "properties": { "cell_id": 108 }, "geometry": { "type": "Polygon", "coordinates": [ [ [ 31.031531531531531, 30.054054054054053 ], [ 31.031531531531531, 30.058558558558556 ], [ 31.027027027027028, 30.058558558558556 ], [ 31.027027027027028, 30.054054054054053 ], [ 31.031531531531531, 30.054054054054053 ] ] ] } },
{ "type": "Feature", "properties": { "cell_id": 109 }, "geometry": { "type": "Polygon", "coordinates": [ [ [ 31.031531531531531, 30.058558558558559 ], [ 31.031531531531531, 30.063063063063062 ], [ 31.027027027027028, 30.063063063063062 ], [ 31.027027027027028, 30.058558558558559 ], [ 31.031531531531531, 30.058558558558559 ] ] ] } },
{ "type": "Feature", "properties": { "cell_id": 110 }, "geometry": { "type": "Polygon", "coordinates": [ [ [ 31.031531531531531, 30.063063063063062 ], [ 31.031531531531531, 30.067567567567565 ], [ 31.027027027027028, 30.067567567567565 ], [ 31.027027027027028, 30.063063063063062 ], [ 31.031531531531531, 30.063063063063062 ] ] ] } },
{ "type": "Feature", "properties": { "cell_id": 111 }, "geometry": { "type": "Polygon", "coordinates": [ [ [ 31.031531531531531, 30.067567567567568 ], [ 31.031531531531531, 30.072072072072071 ], [ 31.027027027027028, 30.072072072072071 ], [ 31.027027027027028, 30.067567567567568 ], [ 31.031531531531531, 30.067567567567568 ] ] ] } },
{ "type": "Feature", "properties": { "cell_id": 112 }, "geometry": { "type": "Polygon", "coordinates": [ [ [ 31.036036036036034, 30.0 ], [ 31.036036036036034, 30.004504504504503 ], [ 31.031531531531531, 30.004504504504503 ], [ 31.031531531531531, 30.0 ], [ 31.036036036036034, 30.0 ] ] ] } },
{ "type": "Feature", "properties": { "cell_id": 113 }, "geometry": { "type": "Polygon", "coordinates": [ [ [ 31.036036036036034, 30.004504504504503 ], [ 31.036036036036034, 30.009009009009006 ], [ 31.031531531531531, 30.009009009009006 ], [ 31.031531531531531, 30.004504504504503 ], [ 31.036036036036034, 30.004504504504503 ] ] ] } },
{ "type": "Feature", "properties": { "cell_id": 114 }, "geometry": { "type": "Polygon", "coordinates": [ [ [ 31.036036036036034, 30.009009009009009 ], [ 31.036036036036034, 30.013513513513512 ], [ 31.031531531531531, 30.013513513513512 ], [ 31.031531531531531, 30.009009009009009 ], [ 31.036036036036034, 30.009009009009009 ] ] ] } },
{ "type": "Feature", "properties": { "cell_id": 115 }, "geometry": { "type": "Polygon", "coordinates": [ [ [ 31.036036036036034, 30.013513513513512 ], [ 31.036036036036034, 30.018018018018015 ], [ 31.031531531531531, 30.018018018018015 ], [ 31.031531531531531, 30.013513513513512 ], [ 31.036036036036034, 30.013513513513512 ] ] ] } },
{ "type": "Feature", "properties": { "cell_id": 116 }, "geometry": { "type": "Polygon", "coordinates": [ [ [ 31.036036036036034, 30.018018018018019 ], [ 31.036036036036034, 30.022522522522522 ], [ 31.031531531531531, 30.022522522522522 ], [ 31.031531531531531, 30.018018018018019 ], [ 31.036036036036034, 30.018018018018019 ] ] ] } },
{ "type": "Feature", "properties": { "cell_id": 117 }, "geometry": { "type": "Polygon", "coordinates": [ [ [ 31.036036036036034, 30.022522522522522 ], [ 31.036036036036034, 30.027027027027025 ], [ 31.031531531531531, 30.027027027027025 ], [ 31.031531531531531, 30.022522522522522 ], [ 31.036036036036034, 30.022522522522522 ] ] ] } },
{ "type": "Feature", "properties": { "cell_id": 118 }, "geometry": { "type": "Polygon", "coordinates": [ [ [ 31.036036036036034, 30.027027027027028 ], [ 31.036036036036034, 30.031531531531531 ], [ 31.031531531531531, 30.031531531531531 ], [ 31.031531531531531, 30.027027027027028 ], [ 31.036036036036034, 30.027027027027028 ] ] ] } },
{ "type": "Feature", "properties": { "cell_id": 119 }, "geometry": { "type": "Polygon", "coordinates": [ [ [ 31.036036036036034, 30.031531531531531 ], [ 31.036036036036034, 30.036036036036034 ], [ 31.031531531531531, 30.036036036036034 ], [ 31.031531531531531, 30.031531531531531 ], [ 31.036036036036034, 30.031531531531531 ] ] ] } },
{ "type": "Feature", "properties": { "cell_id": 120 }, "geometry": { "type": "Polygon", "coordinates": [ [ [ 31.036036036036034, 30.036036036036037 ], [ 31.036036036036034, 30.04054054054054 ], [ 31.031531531531531, 30.04054054054054 ], [ 31.031531531531531, 30.036036036036037 ], [ 31.036036036036034, 30.036036036036037 ] ] ] } },
{ "type": "Feature", "properties": { "cell_id": 121 }, "geometry": { "type": "Polygon", "coordinates": [ [ [ 31.036036036036034, 30.04054054054054 ], [ 31.036036036036034, 30.045045045045043 ], [ 31.031531531531531, 30.045045045045043 ], [ 31.031531531531531, 30.04054054054054 ], [ 31.036036036036034, 30.04054054054054 ] ] ] } },
{ "type": "Feature", "properties": { "cell_id": 122 }, "geometry": { "type": "Polygon", "coordinates": [ [ [ 31.036036036036034, 30.045045045045047 ], [ 31.036036036036034, 30.04954954954955 ], [ 31.031531531531531, 30.04954954954955 ], [ 31.031531531531531, 30.045045045045047 ], [ 31.036036036036034, 30.045045045045047 ] ] ] } },
{ "type": "Feature", "properties": { "cell_id": 123 }, "geometry": { "type": "Polygon", "coordinates": [ [ [ 31.036036036036034, 30.04954954954955 ], [ 31.036036036036034, 30.054054054054053 ], [ 31.031531531531531, 30.054054054054053 ], [ 31.031531531531531, 30.04954954954955 ], [ 31.036036036036034, 30.04954954954955 ] ] ] } },
{ "type": "Feature", "properties": { "cell_id": 124 }, "geometry": { "type": "Polygon", "coordinates": [ [ [ 31.036036036036034, 30.054054054054053 ], [ 31.036036036036034, 30.058558558558556 ], [ 31.031531531531531, 30.058558558558556 ], [ 31.031531531531531, 30.054054054054053 ], [ 31.036036036036034, 30.054054054054053 ] ] ] } },
{ "type": "Feature", "properties": { "cell_id": 125 }, "geometry": { "type": "Polygon", "coordinates": [ [ [ 31.036036036036034, 30.058558558558559 ], [ 31.036036036036034, 30.063063063063062 ], [ 31.031531531531531, 30.063063063063062 ], [ 31.031531531531531, 30.058558558558559 ], [ 31.036036036036034, 30.058558558558559 ] ] ] } },
{ "type": "Feature", "properties": { "cell_id": 126 }, "geometry": { "type": "Polygon", "coordinates": [ [ [ 31.036036036036034, 30.063063063063062 ], [ 31.036036036036034, 30.067567567567565 ], [ 31.031531531531531, 30.067567567567565 ], [ 31.031531531531531, 30.063063063063062 ], [ 31.036036036036034, 30.063063063063062 ] ] ] } },
{ "type": "Feature", "properties": { "cell_id": 127 }, "geometry": { "type": "Polygon", "coordinates": [ [ [ 31.036036036036034, 30.067567567567568 ], [ 31.036036036036034, 30.072072072072071 ], [ 31.031531531531531, 30.072072072072071 ], [ 31.031531531531531, 30.067567567567568 ], [ 31.036036036036034, 30.067567567567568 ] ] ] } },
{ "type": "Feature", "properties": { "cell_id": 128 }, "geometry": { "type": "Polygon", "coordinates": [ [ [ 31.04054054054054, 30.0 ], [ 31.04054054054054, 30.004504504504503 ], [ 31.036036036036037, 30.004504504504503 ], [ 31.036036036036037, 30.0 ], [ 31.04054054054054, 30.0 ] ] ] } },
{ "type": "Feature", "properties": { "cell_id": 129 }, "geometry": { "type": "Polygon", "coordinates": [ [ [ 31.04054054054054, 30.004504504504503 ], [ 31.04054054054054, 30.009009009009006 ], [ 31.036036036036037, 30.009009009009006 ], [ 31.036036036036037, 30.004504504504503 ], [ 31.04054054054054, 30.004504504504503 ] ] ] } },
{ "type": "Feature", "properties": { "cell_id": 130 }, "geometry": { "type": "Polygon", "coordinates": [ [ [ 31.04054054054054, 30.009009009009009 ], [ 31.04054054054054, 30.013513513513512 ], [ 31.036036036036037, 30.013513513513512 ], [ 31.036036036036037, 30.009009009009009 ], [ 31.04054054054054, 30.009009009009009 ] ] ] } },
{ "type": "Feature", "properties": { "cell_id": 131 }, "geometry": { "type": "Polygon", "coordinates": [ [ [ 31.04054054054054, 30.013513513513512 ], [ 31.04054054054054, 30.018018018018015 ], [ 31.036036036036037, 30.018018018018015 ], [ 31.036036036036037, 30.013513513513512 ], [ 31.04054054054054, 30.013513513513512 ] ] ] } },
{ "type": "Feature", "properties": { "cell_id": 132 }, "geometry": { "type": "Polygon", "coordinates": [ [ [ 31.04054054054054, 30.018018018018019 ], [ 31.04054054054054, 30.022522522522522 ], [ 31.036036036036037, 30.022522522522522 ], [ 31.036036036036037, 30.018018018018019 ], [ 31.04054054054054, 30.018018018018019 ] ] ] } },
{ "type": "Feature", "properties": { "cell_id": 133 }, "geometry": { "type": "Polygon", "coordinates": [ [ [ 31.04054054054054, 30.022522522522522 ], [ 31.04054054054054, 30.027027027027025 ], [ 31.036036036036037, 30.027027027027025 ], [ 31.036036036036037, 30.022522522522522 ], [ 31.04054054054054, 30.022522522522522 ] ] ] } },
{ "type": "Feature", "properties": { "cell_id": 134 }, "geometry": { "type": "Polygon", "coordinates": [ [ [ 31.04054054054054, 30.027027027027028 ], [ 31.04054054054054, 30.031531531531531 ], [ 31.036036036036037, 30.031531531531531 ], [ 31.036036036036037, 30.027027027027028 ], [ 31.04054054054054, 30.027027027027028 ] ] ] } },
{ "type": "Feature", "properties": { "cell_id": 135 }, "geometry": { "type": "Polygon", "coordinates": [ [ [ 31.04054054054054, 30.031531531531531 ], [ 31.04054054054054, 30.036036036036034 ], [ 31.036036036036037, 30.036036036036034 ], [ 31.036036036036037, 30.031531531531531 ], [ 31.04054054054054, 30.031531531531531 ] ] ] } },
{ "type": "Feature", "properties": { "cell_id": 136 }, "geometry": { "type": "Polygon", "coordinates": [ [ [ 31.04054054054054, 30.036036036036037 ], [ 31.04054054054054, 30.04054054054054 ], [ 31.036036036036037, 30.04054054054054 ], [ 31.036036036036037, 30.036036036036037 ], [ 31.04054054054054, 30.036036036036037 ] ] ] } },
{ "type": "Feature", "properties": { "cell_id": 137 }, "geometry": { "type": "Polygon", "coordinates": [ [ [ 31.04054054054054, 30.04054054054054 ], [ 31.04054054054054, 30.045045045045043 ], [ 31.036036036036037, 30.045045045045043 ], [ 31.036036036036037, 30.04054054054054 ], [ 31.04054054054054, 30.04054054054054 ] ] ] } },
{ "type": "Feature", "properties": { "cell_id": 138 }, "geometry": { "type": "Polygon", "coordinates": [ [ [ 31.04054054054054, 30.045045045045047 ], [ 31.04054054054054, 30.04954954954955 ], [ 31.036036036036037, 30.04954954954955 ], [ 31.036036036036037, 30.045045045045047 ], [ 31.04054054054054, 30.045045045045047 ] ] ] } },
{ "type": "Feature", "properties": { "cell_id": 139 }, "geometry": { "type": "Polygon", "coordinates": [ [ [ 31.04054054054054, 30.04954954954955 ], [ 31.04054054054054, 30.054054054054053 ], [ 31.036036036036037, 30.054054054054053 ], [ 31.036036036036037, 30.04954954954955 ], [ 31.04054054054054, 30.04954954954955 ] ] ] } },
{ "type": "Feature", "properties": { "cell_id": 140 }, "geometry": { "type": "Polygon", "coordinates": [ [ [ 31.04054054054054, 30.054054054054053 ], [ 31.04054054054054, 30.058558558558556 ], [ 31.036036036036037, 30.058558558558556 ], [ 31.036036036036037, 30.054054054054053 ], [ 31.04054054054054, 30.054054054054053 ] ] ] } },
{ "type": "Feature", "properties": { "cell_id": 141 }, "geometry": { "type": "Polygon", "coordinates": [ [ [ 31.04054054054054, 30.058558558558559 ], [ 31.04054054054054, 30.063063063063062 ], [ 31.036036036036037, 30.063063063063062 ], [ 31.036036036036037, 30.058558558558559 ], [ 31.04054054054054, 30.058558558558559 ] ] ] } },
{ "type": "Feature", "properties": { "cell_id": 142 }, "geometry": { "type": "Polygon", "coordinates": [ [ [ 31.04054054054054, 30.063063063063062 ], [ 31.04054054054054, 30.067567567567565 ], [ 31.036036036036037, 30.067567567567565 ], [ 31.036036036036037, 30.063063063063062 ], [ 31.04054054054054, 30.063063063063062 ] ] ] } },
{ "type": "Feature", "properties": { "cell_id": 143 }, "geometry": { "type": "Polygon", "coordinates": [ [ [ 31.04054054054054, 30.067567567567568 ], [ 31.04054054054054, 30.072072072072071 ], [ 31.036036036036037, 30.072072072072071 ], [ 31.036036036036037, 30.067567567567568 ], [ 31.04054054054054, 30.067567567567568 ] ] ] } },
{ "type": "Feature", "properties": { "cell_id": 144 }, "geometry": { "type": "Polygon", "coordinates": [ [ [ 31.045045045045043, 30.0 ], [ 31.045045045045043, 30.004504504504503 ], [ 31.04054054054054, 30.004504504504503 ], [ 31.04054054054054, 30.0 ], [ 31.045045045045043, 30.0 ] ] ] } },
{ "type": "Feature", "properties": { "cell_id": 145 }, "geometry": { "type": "Polygon", "coordinates": [ [ [ 31.045045045045043, 30.004504504504503 ], [ 31.045045045045043, 30.009009009009006 ], [ 31.04054054054054, 30.009009009009006 ], [ 31.04054054054054, 30.004504504504503 ], [ 31.045045045045043, 30.004504504504503 ] ] ] } },
{ "type": "Feature", "properties": { "cell_id": 146 }, "geometry": { "type": "Polygon", "coordinates": [ [ [ 31.045045045045043, 30.009009009009009 ], [ 31.045045045045043, 30.013513513513512 ], [ 31.04054054054054, 30.013513513513512 ], [ 31.04054054054054, 30.009009009009009 ], [ 31.045045045045043, 30.009009009009009 ] ] ] } },
{ "type": "Feature", "properties": { "cell_id": 147 }, "geometry": { "type": "Polygon", "coordinates": [ [ [ 31.045045045045043, 30.013513513513512 ], [ 31.045045045045043, 30.018018018018015 ], [ 31.04054054054054, 30.018018018018015 ], [ 31.04054054054054, 30.013513513513512 ], [ 31.045045045045043, 30.013513513513512 ] ] ] } },
{ "type": "Feature", "properties": { "cell_id": 148 }, "geometry": { "type": "Polygon", "coordinates": [ [ [ 31.045045045045043, 30.018018018018019 ], [ 31.045045045045043, 30.022522522522522 ], [ 31.04054054054054, 30.022522522522522 ], [ 31.04054054054054, 30.018018018018019 ], [ 31.045045045045043, 30.018018018018019 ] ] ] } },
{ "type": "Feature", "properties": { "cell_id": 149 }, "geometry": { "type": "Polygon", "coordinates": [ [ [ 31.045045045045043, 30.022522522522522 ], [ 31.045045045045043, 30.027027027027025 ], [ 31.04054054054054, 30.027027027027025 ], [ 31.04054054054054, 30.022522522522522 ], [ 31.045045045045043, 30.022522522522522 ] ] ] } },
{ "type": "Feature", "properties": { "cell_id": 150 }, "geometry": { "type": "Polygon", "coordinates": [ [ [ 31.045045045045043, 30.027027027027028 ], [ 31.045045045045043, 30.031531531531531 ], [ 31.04054054054054, 30.031531531531531 ], [ 31.04054054054054, 30.027027027027028 ], [ 31.045045045045043, 30.027027027027028 ] ] ] } },
{ "type": "Feature", "properties": { "cell_id": 151 }, "geometry": { "type": "Polygon", "coordinates": [ [ [ 31.045045045045043, 30.031531531531531 ], [ 31.045045045045043, 30.036036036036034 ], [ 31.04054054054054, 30.036036036036034 ], [ 31.04054054054054, 30.031531531531531 ], [ 31.045045045045043, 30.031531531531531 ] ] ] } },
{ "type": "Feature", "properties": { "cell_id": 152 }, "geometry": { "type": "Polygon", "coordinates": [ [ [ 31.045045045045043, 30.036036036036037 ], [ 31.045045045045043, 30.04054054054054 ], [ 31.04054054054054, 30.04054054054054 ], [ 31.04054054054054, 30.036036036036037 ], [ 31.045045045045043, 30.036036036036037 ] ] ] } },
{ "type": "Feature", "properties": { "cell_id": 153 }, "geometry": { "type": "Polygon", "coordinates": [ [ [ 31.045045045045043, 30.04054054054054 ], [ 31.045045045045043, 30.045045045045043 ], [ 31.04054054054054, 30.045045045045043 ], [ 31.04054054054054, 30.04054054054054 ], [ 31.045045045045043, 30.04054054054054 ] ] ] } },
{ "type": "Feature", "properties": { "cell_id": 154 }, "geometry": { "type": "Polygon", "coordinates": [ [ [ 31.045045045045043, 30.045045045045047 ], [ 31.045045045045043, 30.04954954954955 ], [ 31.04054054054054, 30.04954954954955 ], [ 31.04054054054054, 30.045045045045047 ], [ 31.045045045045043, 30.045045045045047 ] ] ] } },
{ "type": "Feature", "properties": { "cell_id": 155 }, "geometry": { "type": "Polygon", "coordinates": [ [ [ 31.045045045045043, 30.04954954954955 ], [ 31.045045045045043, 30.054054054054053 ], [ 31.04054054054054, 30.054054054054053 ], [ 31.04054054054054, 30.04954954954955 ], [ 31.045045045045043, 30.04954954954955 ] ] ] } },
{ "type": "Feature", "properties": { "cell_id": 156 }, "geometry": { "type": "Polygon", "coordinates": [ [ [ 31.045045045045043, 30.054054054054053 ], [ 31.045045045045043, 30.058558558558556 ], [ 31.04054054054054, 30.058558558558556 ], [ 31.04054054054054, 30.054054054054053 ], [ 31.045045045045043, 30.054054054054053 ] ] ] } },
{ "type": "Feature", "properties": { "cell_id": 157 }, "geometry": { "type": "Polygon", "coordinates": [ [ [ 31.045045045045043, 30.058558558558559 ], [ 31.045045045045043, 30.063063063063062 ], [ 31.04054054054054, 30.063063063063062 ], [ 31.04054054054054, 30.058558558558559 ], [ 31.045045045045043, 30.058558558558559 ] ] ] } },
{ "type": "Feature", "properties": { "cell_id": 158 }, "geometry": { "type": "Polygon", "coordinates": [ [ [ 31.045045045045043, 30.063063063063062 ], [ 31.045045045045043, 30.067567567567565 ], [ 31.04054054054054, 30.067567567567565 ], [ 31.04054054054054, 30.063063063063062 ], [ 31.045045045045043, 30.063063063063062 ] ] ] } },
{ "type": "Feature", "properties": { "cell_id": 159 }, "geometry": { "type": "Polygon", "coordinates": [ [ [ 31.045045045045043, 30.067567567567568 ], [ 31.045045045045043, 30.072072072072071 ], [ 31.04054054054054, 30.072072072072071 ], [ 31.04054054054054, 30.067567567567568 ], [ 31.045045045045043, 30.067567567567568 ] ] ] } },
{ "type": "Feature", "properties": { "cell_id": 160 }, "geometry": { "type": "Polygon", "coordinates": [ [ [ 31.04954954954955, 30.0 ], [ 31.04954954954955, 30.004504504504503 ], [ 31.045045045045047, 30.004504504504503 ], [ 31.045045045045047, 30.0 ], [ 31.04954954954955, 30.0 ] ] ] } },
{ "type": "Feature", "properties": { "cell_id": 161 }, "geometry": { "type": "Polygon", "coordinates": [ [ [ 31.04954954954955, 30.004504504504503 ], [ 31.04954954954955, 30.009009009009006 ], [ 31.045045045045047, 30.009009009009006 ], [ 31.045045045045047, 30.004504504504503 ], [ 31.04954954954955, 30.004504504504503 ] ] ] } },
{ "type": "Feature", "properties": { "cell_id": 162 }, "geometry": { "type": "Polygon", "coordinates": [ [ [ 31.04954954954955, 30.009009009009009 ], [ 31.04954954954955, 30.013513513513512 ], [ 31.045045045045047, 30.013513513513512 ], [ 31.045045045045047, 30.009009009009009 ], [ 31.04954954954955, 30.009009009009009 ] ] ] } },
{ "type": "Feature", "properties": { "cell_id": 163 }, "geometry": { "type": "Polygon", "coordinates": [ [ [ 31.04954954954955, 30.013513513513512 ], [ 31.04954954954955, 30.018018018018015 ], [ 31.045045045045047, 30.018018018018015 ], [ 31.045045045045047, 30.013513513513512 ], [ 31.04954954954955, 30.013513513513512 ] ] ] } },
{ "type": "Feature", "properties": { "cell_id": 164 }, "geometry": { "type": "Polygon", "coordinates": [ [ [ 31.04954954954955, 30.018018018018019 ], [ 31.04954954954955, 30.022522522522522 ], [ 31.045045045045047, 30.022522522522522 ], [ 31.045045045045047, 30.018018018018019 ], [ 31.04954954954955, 30.018018018018019 ] ] ] } },
{ "type": "Feature", "properties": { "cell_id": 165 }, "geometry": { "type": "Polygon", "coordinates": [ [ [ 31.04954954954955, 30.022522522522522 ], [ 31.04954954954955, 30.027027027027025 ], [ 31.045045045045047, 30.027027027027025 ], [ 31.045045045045047, 30.022522522522522 ], [ 31.04954954954955, 30.022522522522522 ] ] ] } },
{ "type": "Feature", "properties": { "cell_id": 166 }, "geometry": { "type": "Polygon", "coordinates": [ [ [ 31.04954954954955, 30.027027027027028 ], [ 31.04954954954955, 30.031531531531531 ], [ 31.045045045045047, 30.031531531531531 ], [ 31.045045045045047, 30.027027027027028 ], [ 31.04954954954955, 30.027027027027028 ] ] ] } },
{ "type": "Feature", "properties": { "cell_id": 167 }, "geometry": { "type": "Polygon", "coordinates": [ [ [ 31.04954954954955, 30.031531531531531 ], [ 31.04954954954955, 30.036036036036034 ], [ 31.045045045045047, 30.036036036036034 ], [ 31.045045045045047, 30.031531531531531 ], [ 31.04954954954955, 30.031531531531531 ] ] ] } },
{ "type": "Feature", "properties": { "cell_id": 168 }, "geometry": { "type": "Polygon", "coordinates": [ [ [ 31.04954954954955, 30.036036036036037 ], [ 31.04954954954955, 30.04054054054054 ], [ 31.045045045045047, 30.04054054054054 ], [ 31.045045045045047, 30.036036036036037 ], [ 31.04954954954955, 30.036036036036037 ] ] ] } },
{ "type": "Feature", "properties": { "cell_id": 169 }, "geometry": { "type": "Polygon", "coordinates": [ [ [ 31.04954954954955, 30.04054054054054 ], [ 31.04954954954955, 30.045045045045043 ], [ 31.045045045045047, 30.045045045045043 ], [ 31.045045045045047, 30.04054054054054 ], [ 31.04954954954955, 30.04054054054054 ] ] ] } },
{ "type": "Feature", "properties": { "cell_id": 170 }, "geometry": { "type": "Polygon", "coordinates": [ [ [ 31.04954954954955, 30.045045045045047 ], [ 31.04954954954955, 30.04954954954955 ], [ 31.045045045045047, 30.04954954954955 ], [ 31.045045045045047, 30.045045045045047 ], [ 31.04954954954955, 30.045045045045047 ] ] ] } },
{ "type": "Feature", "properties": { "cell_id": 171 }, "geometry": { "type": "Polygon", "coordinates": [ [ [ 31.04954954954955, 30.04954954954955 ], [ 31.04954954954955, 30.054054054054053 ], [ 31.045045045045047, 30.054054054054053 ], [ 31.045045045045047, 30.04954954954955 ], [ 31.04954954954955, 30.04954954954955 ] ] ] } },
{ "type": "Feature", "properties": { "cell_id": 172 }, "geometry": { "type": "Polygon", "coordinates": [ [ [ 31.04954954954955, 30.054054054054053 ], [ 31.04954954954955, 30.058558558558556 ], [ 31.045045045045047, 30.058558558558556 ], [ 31.045045045045047, 30.054054054054053 ], [ 31.04954954954955, 30.054054054054053 ] ] ] } },
{ "type": "Feature", "properties": { "cell_id": 173 }, "geometry": { "type": "Polygon", "coordinates": [ [ [ 31.04954954954955, 30.058558558558559 ], [ 31.04954954954955, 30.063063063063062 ], [ 31.045045045045047, 30.063063063063062 ], [ 31.045045045045047, 30.058558558558559 ], [ 31.04954954954955, 30.058558558558559 ] ] ] } },
{ "type": "Feature", "properties": { "cell_id": 174 }, "geometry": { "type": "Polygon", "coordinates": [ [ [ 31.04954954954955, 30.063063063063062 ], [ 31.04954954954955, 30.067567567567565 ], [ 31.045045045045047, 30.067567567567565 ], [ 31.045045045045047, 30.063063063063062 ], [ 31.04954954954955, 30.063063063063062 ] ] ] } },
{ "type": "Feature", "properties": { "cell_id": 175 }, "geometry": { "type": "Polygon", "coordinates": [ [ [ 31.04954954954955, 30.067567567567568 ], [ 31.04954954954955, 30.072072072072071 ], [ 31.045045045045047, 30.072072072072071 ], [ 31.045045045045047, 30.067567567567568 ], [ 31.04954954954955, 30.067567567567568 ] ] ] } },
{ "type": "Feature", "properties": { "cell_id": 176 }, "geometry": { "type": "Polygon", "coordinates": [ [ [ 31.054054054054053, 30.0 ], [ 31.054054054054053, 30.004504504504503 ], [ 31.04954954954955, 30.004504504504503 ], [ 31.04954954954955, 30.0 ], [ 31.054054054054053, 30.0 ] ] ] } },
{ "type": "Feature", "properties": { "cell_id": 177 }, "geometry": { "type": "Polygon", "coordinates": [ [ [ 31.054054054054053, 30.004504504504503 ], [ 31.054054054054053, 30.009009009009006 ], [ 31.04954954954955, 30.009009009009006 ], [ 31.04954954954955, 30.004504504504503 ], [ 31.054054054054053, 30.004504504504503 ] ] ] } },
{ "type": "Feature", "properties": { "cell_id": 178 }, "geometry": { "type": "Polygon", "coordinates": [ [ [ 31.054054054054053, 30.009009009009009 ], [ 31.054054054054053, 30.013513513513512 ], [ 31.04954954954955, 30.013513513513512 ], [ 31.04954954954955, 30.009009009009009 ], [ 31.054054054054053, 30.009009009009009 ] ] ] } },
{ "type": "Feature", "properties": { "cell_id": 179 }, "geometry": { "type": "Polygon", "coordinates": [ [ [ 31.054054054054053, 30.013513513513512 ], [ 31.054054054054053, 30.018018018018015 ], [ 31.04954954954955, 30.018018018018015 ], [ 31.04954954954955, 30.013513513513512 ], [ 31.054054054054053, 30.013513513513512 ] ] ] } },
{ "type": "Feature", "properties": { "cell_id": 180 }, "geometry": { "type": "Polygon", "coordinates": [ [ [ 31.054054054054053, 30.018018018018019 ], [ 31.054054054054053, 30.022522522522522 ], [ 31.04954954954955, 30.022522522522522 ], [ 31.04954954954955, 30.018018018018019 ], [ 31.054054054054053, 30.018018018018019 ] ] ] } },
{ "type": "Feature", "properties": { "cell_id": 181 }, "geometry": { "type": "Polygon", "coordinates": [ [ [ 31.054054054054053, 30.022522522522522 ], [ 31.054054054054053, 30.027027027027025 ], [ 31.04954954954955, 30.027027027027025 ], [ 31.04954954954955, 30.022522522522522 ], [ 31.054054054054053, 30.022522522522522 ] ] ] } },
{ "type": "Feature", "properties": { "cell_id": 182 }, "geometry": { "type": "Polygon", "coordinates": [ [ [ 31.054054054054053, 30.027027027027028 ], [ 31.054054054054053, 30.031531531531531 ], [ 31.04954954954955, 30.031531531531531 ], [ 31.04954954954955, 30.027027027027028 ], [ 31.054054054054053, 30.027027027027028 ] ] ] } },
{ "type": "Feature", "properties": { "cell_id": 183 }, "geometry": { "type": "Polygon", "coordinates": [ [ [ 31.054054054054053, 30.031531531531531 ], [ 31.054054054054053, 30.036036036036034 ], [ 31.04954954954955, 30.036036036036034 ], [ 31.04954954954955, 30.031531531531531 ], [ 31.054054054054053, 30.031531531531531 ] ] ] } },
{ "type": "Feature", "properties": { "cell_id": 184 }, "geometry": { "type": "Polygon", "coordinates": [ [ [ 31.054054054054053, 30.036036036036037 ], [ 31.054054054054053, 30.04054054054054 ], [ 31.04954954954955, 30.04054054054054 ], [ 31.04954954954955, 30.036036036036037 ], [ 31.054054054054053, 30.036036036036037 ] ] ] } },
{ "type": "Feature", "properties": { "cell_id": 185 }, "geometry": { "type": "Polygon", "coordinates": [ [ [ 31.054054054054053, 30.04054054054054 ], [ 31.054054054054053, 30.045045045045043 ], [ 31.04954954954955, 30.045045045045043 ], [ 31.04954954954955, 30.04054054054054 ], [ 31.054054054054053, 30.04054054054054 ] ] ] } },
{ "type": "Feature", "properties": { "cell_id": 186 }, "geometry": { "type": "Polygon", "coordinates": [ [ [ 31.054054054054053, 30.045045045045047 ], [ 31.054054054054053, 30.04954954954955 ], [ 31.04954954954955, 30.04954954954955 ], [ 31.04954954954955, 30.045045045045047 ], [ 31.054054054054053, 30.045045045045047 ] ] ] } },
{ "type": "Feature", "properties": { "cell_id": 187 }, "geometry": { "type": "Polygon", "coordinates": [ [ [ 31.054054054054053, 30.04954954954955 ], [ 31.054054054054053, 30.054054054054053 ], [ 31.04954954954955, 30.054054054054053 ], [ 31.04954954954955, 30.04954954954955 ], [ 31.054054054054053, 30.04954954954955 ] ] ] } },
{ "type": "Feature", "properties": { "cell_id": 188 }, "geometry": { "type": "Polygon", "coordinates": [ [ [ 31.054054054054053, 30.054054054054053 ], [ 31.054054054054053, 30.058558558558556 ], [ 31.04954954954955, 30.058558558558556 ], [ 31.04954954954955, 30.054054054054053 ], [ 31.054054054054053, 30.054054054054053 ] ] ] } },
{ "type": "Feature", "properties": { "cell_id": 189 }, "geometry": { "type": "Polygon", "coordinates": [ [ [ 31.054054054054053, 30.058558558558559 ], [ 31.054054054054053, 30.063063063063062 ], [ 31.04954954954955, 30.063063063063062 ], [ 31.04954954954955, 30.058558558558559 ], [ 31.054054054054053, 30.058558558558559 ] ] ] } },
{ "type": "Feature", "properties": { "cell_id": 190 }, "geometry": { "type": "Polygon", "coordinates": [ [ [ 31.054054054054053, 30.063063063063062 ], [ 31.054054054054053, 30.067567567567565 ], [ 31.04954954954955, 30.067567567567565 ], [ 31.04954954954955, 30.063063063063062 ], [ 31.054054054054053, 30.063063063063062 ] ] ] } },
{ "type": "Feature", "properties": { "cell_id": 191 }, "geometry": { "type": "Polygon", "coordinates": [ [ [ 31.054054054054053, 30.067567567567568 ], [ 31.054054054054053, 30.072072072072071 ], [ 31.04954954954955, 30.072072072072071 ], [ 31.04954954954955, 30.067567567567568 ], [ 31.054054054054053, 30.067567567567568 ] ] ] } },
{ "type": "Feature", "properties": { "cell_id": 192 }, "geometry": { "type": "Polygon", "coordinates": [ [ [ 31.058558558558556, 30.0 ], [ 31.058558558558556, 30.004504504504503 ], [ 31.054054054054053, 30.004504504504503 ], [ 31.054054054054053, 30.0 ], [ 31.058558558558556, 30.0 ] ] ] } },
{ "type": "Feature", "properties": { "cell_id": 193 }, "geometry": { "type": "Polygon", "coordinates": [ [ [ 31.058558558558556, 30.004504504504503 ], [ 31.058558558558556, 30.009009009009006 ], [ 31.054054054054053, 30.009009009009006 ], [ 31.054054054054053, 30.004504504504503 ], [ 31.058558558558556, 30.004504504504503 ] ] ] } },
{ "type": "Feature", "properties": { "cell_id": 194 }, "geometry": { "type": "Polygon", "coordinates": [ [ [ 31.058558558558556, 30.009009009009009 ], [ 31.058558558558556, 30.013513513513512 ], [ 31.054054054054053, 30.013513513513512 ], [ 31.054054054054053, 30.009009009009009 ], [ 31.058558558558556, 30.009009009009009 ] ] ] } },
{ "type": "Feature", "properties": { "cell_id": 195 }, "geometry": { "type": "Polygon", "coordinates": [ [ [ 31.058558558558556, 30.013513513513512 ], [ 31.058558558558556, 30.018018018018015 ], [ 31.054054054054053, 30.018018018018015 ], [ 31.054054054054053, 30.013513513513512 ], [ 31.058558558558556, 30.013513513513512 ] ] ] } },
{ "type": "Feature", "properties": { "cell_id": 196 }, "geometry": { "type": "Polygon", "coordinates": [ [ [ 31.058558558558556, 30.018018018018019 ], [ 31.058558558558556, 30.022522522522522 ], [ 31.054054054054053, 30.022522522522522 ], [ 31.054054054054053, 30.018018018018019 ], [ 31.058558558558556, 30.018018018018019 ] ] ] } },
{ "type": "Feature", "properties": { "cell_id": 197 }, "geometry": { "type": "Polygon", "coordinates": [ [ [ 31.058558558558556, 30.022522522522522 ], [ 31.058558558558556, 30.027027027027025 ], [ 31.054054054054053, 30.027027027027025 ], [ 31.054054054054053, 30.022522522522522 ], [ 31.058558558558556, 30.022522522522522 ] ] ] } },
{ "type": "Feature", "properties": { "cell_id": 198 }, "geometry": { "type": "Polygon", "coordinates": [ [ [ 31.058558558558556, 30.027027027027028 ], [ 31.058558558558556, 30.031531531531531 ], [ 31.054054054054053, 30.031531531531531 ], [ 31.054054054054053, 30.027027027027028 ], [ 31.058558558558556, 30.027027027027028 ] ] ] } },
{ "type": "Feature", "properties": { "cell_id": 199 }, "geometry": { "type": "Polygon", "coordinates": [ [ [ 31.058558558558556, 30.031531531531531 ], [ 31.058558558558556, 30.036036036036034 ], [ 31.054054054054053, 30.036036036036034 ], [ 31.054054054054053, 30.031531531531531 ], [ 31.058558558558556, 30.031531531531531 ] ] ] } },
{ "type": "Feature", "properties": { "cell_id": 200 }, "geometry": { "type": "Polygon", "coordinates": [ [ [ 31.058558558558556, 30.036036036036037 ], [ 31.058558558558556, 30.04054054054054 ], [ 31.054054054054053, 30.04054054054054 ], [ 31.054054054054053, 30.036036036036037 ], [ 31.058558558558556, 30.036036036036037 ] ] ] } },
{ "type": "Feature", "properties": { "cell_id": 201 }, "geometry": { "type": "Polygon", "coordinates": [ [ [ 31.058558558558556, 30.04054054054054 ], [ 31.058558558558556, 30.045045045045043 ], [ 31.054054054054053, 30.045045045045043 ], [ 31.054054054054053, 30.04054054054054 ], [ 31.058558558558556, 30.04054054054054 ] ] ] } },
{ "type": "Feature", "properties": { "cell_id": 202 }, "geometry": { "type": "Polygon", "coordinates": [ [ [ 31.058558558558556, 30.045045045045047 ], [ 31.058558558558556, 30.04954954954955 ], [ 31.054054054054053, 30.04954954954955 ], [ 31.054054054054053, 30.045045045045047 ], [ 31.058558558558556, 30.045045045045047 ] ] ] } },
{ "type": "Feature", "properties": { "cell_id": 203 }, "geometry": { "type": "Polygon", "coordinates": [ [ [ 31.058558558558556, 30.04954954954955 ], [ 31.058558558558556, 30.054054054054053 ], [ 31.054054054054053, 30.054054054054053 ], [ 31.054054054054053, 30.04954954954955 ], [ 31.058558558558556, 30.04954954954955 ] ] ] } },
{ "type": "Feature", "properties": { "cell_id": 204 }, "geometry": { "type": "Polygon", "coordinates": [ [ [ 31.058558558558556, 30.054054054054053 ], [ 31.058558558558556, 30.058558558558556 ], [ 31.054054054054053, 30.058558558558556 ], [ 31.054054054054053, 30.054054054054053 ], [ 31.058558558558556, 30.054054054054053 ] ] ] } },
{ "type": "Feature", "properties": { "cell_id": 205 }, "geometry": { "type": "Polygon", "coordinates": [ [ [ 31.058558558558556, 30.058558558558559 ], [ 31.058558558558556, 30.063063063063062 ], [ 31.054054054054053, 30.063063063063062 ], [ 31.054054054054053, 30.058558558558559 ], [ 31.058558558558556, 30.058558558558559 ] ] ] } },
{ "type": "Feature", "properties": { "cell_id": 206 }, "geometry": { "type": "Polygon", "coordinates": [ [ [ 31.058558558558556, 30.063063063063062 ], [ 31.058558558558556, 30.067567567567565 ], [ 31.054054054054053, 30.067567567567565 ], [ 31.054054054054053, 30.063063063063062 ], [ 31.058558558558556, 30.063063063063062 ] ] ] } },
{ "type": "Feature", "properties": { "cell_id": 207 }, "geometry": { "type": "Polygon", "coordinates": [ [ [ 31.058558558558556, 30.067567567567568 ], [ 31.058558558558556, 30.072072072072071 ], [ 31.054054054054053, 30.072072072072071 ], [ 31.054054054054053, 30.067567567567568 ], [ 31.058558558558556, 30.067567567567568 ] ] ] } },
{ "type": "Feature", "properties": { "cell_id": 208 }, "geometry": { "type": "Polygon", "coordinates": [ [ [ 31.063063063063062, 30.0 ], [ 31.063063063063062, 30.004504504504503 ], [ 31.058558558558559, 30.004504504504503 ], [ 31.058558558558559, 30.0 ], [ 31.063063063063062, 30.0 ] ] ] } },
{ "type": "Feature", "properties": { "cell_id": 209 }, "geometry": { "type": "Polygon", "coordinates": [ [ [ 31.063063063063062, 30.004504504504503 ], [ 31.063063063063062, 30.009009009009006 ], [ 31.058558558558559, 30.009009009009006 ], [ 31.058558558558559, 30.004504504504503 ], [ 31.063063063063062, 30.004504504504503 ] ] ] } },
{ "type": "Feature", "properties": { "cell_id": 210 }, "geometry": { "type": "Polygon", "coordinates": [ [ [ 31.063063063063062, 30.009009009009009 ], [ 31.063063063063062, 30.013513513513512 ], [ 31.058558558558559, 30.013513513513512 ], [ 31.058558558558559, 30.009009009009009 ], [ 31.063063063063062, 30.009009009009009 ] ] ] } },
{ "type": "Feature", "properties": { "cell_id": 211 }, "geometry": { "type": "Polygon", "coordinates": [ [ [ 31.063063063063062, 30.013513513513512 ], [ 31.063063063063062, 30.018018018018015 ], [ 31.058558558558559, 30.018018018018015 ], [ 31.058558558558559, 30.013513513513512 ], [ 31.063063063063062, 30.013513513513512 ] ] ] } },
{ "type": "Feature", "properties": { "cell_id": 212 }, "geometry": { "type": "Polygon", "coordinates": [ [ [ 31.063063063063062, 30.018018018018019 ], [ 31.063063063063062, 30.022522522522522 ], [ 31.058558558558559, 30.022522522522522 ], [ 31.058558558558559, 30.018018018018019 ], [ 31.063063063063062, 30.018018018018019 ] ] ] } },
{ "type": "Feature", "properties": { "cell_id": 213 }, "geometry": { "type": "Polygon", "coordinates": [ [ [ 31.063063063063062, 30.022522522522522 ], [ 31.063063063063062, 30.027027027027025 ], [ 31.058558558558559, 30.027027027027025 ], [ 31.058558558558559, 30.022522522522522 ], [ 31.063063063063062, 30.022522522522522 ] ] ] } },
{ "type": "Feature", "properties": { "cell_id": 214 }, "geometry": { "type": "Polygon", "coordinates": [ [ [ 31.063063063063062, 30.027027027027028 ], [ 31.063063063063062, 30.031531531531531 ], [ 31.058558558558559, 30.031531531531531 ], [ 31.058558558558559, 30.027027027027028 ], [ 31.063063063063062, 30.027027027027028 ] ] ] } },
{ "type": "Feature", "properties": { "cell_id": 215 }, "geometry": { "type": "Polygon", "coordinates": [ [ [ 31.063063063063062, 30.031531531531531 ], [ 31.063063063063062, 30.036036036036034 ], [ 31.058558558558559, 30.036036036036034 ], [ 31.058558558558559, 30.031531531531531 ], [ 31.063063063063062, 30.031531531531531 ] ] ] } },
{ "type": "Feature", "properties": { "cell_id": 216 }, "geometry": { "type": "Polygon", "coordinates": [ [ [ 31.063063063063062, 30.036036036036037 ], [ 31.063063063063062, 30.04054054054054 ], [ 31.058558558558559, 30.04054054054054 ], [ 31.058558558558559, 30.036036036036037 ], [ 31.063063063063062, 30.036036036036037 ] ] ] } },
{ "type": "Feature", "properties": { "cell_id": 217 }, "geometry": { "type": "Polygon", "coordinates": [ [ [ 31.063063063063062, 30.04054054054054 ], [ 31.063063063063062, 30.045045045045043 ], [ 31.058558558558559, 30.045045045045043 ], [ 31.058558558558559, 30.04054054054054 ], [ 31.063063063063062, 30.04054054054054 ] ] ] } },
{ "type": "Feature", "properties": { "cell_id": 218 }, "geometry": { "type": "Polygon", "coordinates": [ [ [ 31.063063063063062, 30.045045045045047 ], [ 31.063063063063062, 30.04954954954955 ], [ 31.058558558558559, 30.04954954954955 ], [ 31.058558558558559, 30.045045045045047 ], [ 31.063063063063062, 30.045045045045047 ] ] ] } },
{ "type": "Feature", "properties": { "cell_id": 219 }, "geometry": { "type": "Polygon", "coordinates": [ [ [ 31.063063063063062, 30.04954954954955 ], [ 31.063063063063062, 30.054054054054053 ], [ 31.058558558558559, 30.054054054054053 ], [ 31.058558558558559, 30.04954954954955 ], [ 31.063063063063062, 30.04954954954955 ] ] ] } },
{ "type": "Feature", "properties": { "cell_id": 220 }, "geometry": { "type": "Polygon", "coordinates": [ [ [ 31.063063063063062, 30.054054054054053 ], [ 31.063063063063062, 30.058558558558556 ], [ 31.058558558558559, 30.058558558558556 ], [ 31.058558558558559, 30.054054054054053 ], [ 31.063063063063062, 30.054054054054053 ] ] ] } },
{ "type": "Feature", "properties": { "cell_id": 221 }, "geometry": { "type": "Polygon", "coordinates": [ [ [ 31.063063063063062, 30.058558558558559 ], [ 31.063063063063062, 30.063063063063062 ], [ 31.058558558558559, 30.063063063063062 ], [ 31.058558558558559, 30.058558558558559 ], [ 31.063063063063062, 30.058558558558559 ] ] ] } },
{ "type": "Feature", "properties": { "cell_id": 222 }, "geometry": { "type": "Polygon", "coordinates": [ [ [ 31.063063063063062, 30.063063063063062 ], [ 31.063063063063062, 30.067567567567565 ], [ 31.058558558558559, 30.067567567567565 ], [ 31.058558558558559, 30.063063063063062 ], [ 31.063063063063062, 30.063063063063062 ] ] ] } },
{ "type": "Feature", "properties": { "cell_id": 223 }, "geometry": { "type": "Polygon", "coordinates": [ [ [ 31.063063063063062, 30.067567567567568 ], [ 31.063063063063062, 30.072072072072071 ], [ 31.058558558558559, 30.072072072072071 ], [ 31.058558558558559, 30.067567567567568 ], [ 31.063063063063062, 30.067567567567568 ] ] ] } },
{ "type": "Feature", "properties": { "cell_id": 224 }, "geometry": { "type": "Polygon", "coordinates": [ [ [ 31.067567567567565, 30.0 ], [ 31.067567567567565, 30.004504504504503 ], [ 31.063063063063062, 30.004504504504503 ], [ 31.063063063063062, 30.0 ], [ 31.067567567567565, 30.0 ] ] ] } },
{ "type": "Feature", "properties": { "cell_id": 225 }, "geometry": { "type": "Polygon", "coordinates": [ [ [ 31.067567567567565, 30.004504504504503 ], [ 31.067567567567565, 30.009009009009006 ], [ 31.063063063063062, 30.009009009009006 ], [ 31.063063063063062, 30.004504504504503 ], [ 31.067567567567565, 30.004504504504503 ] ] ] } },
{ "type": "Feature", "properties": { "cell_id": 226 }, "geometry": { "type": "Polygon", "coordinates": [ [ [ 31.067567567567565, 30.009009009009009 ], [ 31.067567567567565, 30.013513513513512 ], [ 31.063063063063062, 30.013513513513512 ], [ 31.063063063063062, 30.009009009009009 ], [ 31.067567567567565, 30.009009009009009 ] ] ] } },
{ "type": "Feature", "properties": { "cell_id": 227 }, "geometry": { "type": "Polygon", "coordinates": [ [ [ 31.067567567567565, 30.013513513513512 ], [ 31.067567567567565, 30.018018018018015 ], [ 31.063063063063062, 30.018018018018015 ], [ 31.063063063063062, 30.013513513513512 ], [ 31.067567567567565, 30.013513513513512 ] ] ] } },
{ "type": "Feature", "properties": { "cell_id": 228 }, "geometry": { "type": "Polygon", "coordinates": [ [ [ 31.067567567567565, 30.018018018018019 ], [ 31.067567567567565, 30.022522522522522 ], [ 31.063063063063062, 30.022522522522522 ], [ 31.063063063063062, 30.018018018018019 ], [ 31.067567567567565, 30.018018018018019 ] ] ] } },
{ "type": "Feature", "properties": { "cell_id": 229 }, "geometry": { "type": "Polygon", "coordinates": [ [ [ 31.067567567567565, 30.022522522522522 ], [ 31.067567567567565, 30.027027027027025 ], [ 31.063063063063062, 30.027027027027025 ], [ 31.063063063063062, 30.022522522522522 ], [ 31.067567567567565, 30.022522522522522 ] ] ] } },
{ "type": "Feature", "properties": { "cell_id": 230 }, "geometry": { "type": "Polygon", "coordinates": [ [ [ 31.067567567567565, 30.027027027027028 ], [ 31.067567567567565, 30.031531531531531 ], [ 31.063063063063062, 30.031531531531531 ], [ 31.063063063063062, 30.027027027027028 ], [ 31.067567567567565, 30.027027027027028 ] ] ] } },
{ "type": "Feature", "properties": { "cell_id": 231 }, "geometry": { "type": "Polygon", "coordinates": [ [ [ 31.067567567567565, 30.031531531531531 ], [ 31.067567567567565, 30.036036036036034 ], [ 31.063063063063062, 30.036036036036034 ], [ 31.063063063063062, 30.031531531531531 ], [ 31.067567567567565, 30.031531531531531 ] ] ] } },
{ "type": "Feature", "properties": { "cell_id": 232 }, "geometry": { "type": "Polygon", "coordinates": [ [ [ 31.067567567567565, 30.036036036036037 ], [ 31.067567567567565, 30.04054054054054 ], [ 31.063063063063062, 30.04054054054054 ], [ 31.063063063063062, 30.036036036036037 ], [ 31.067567567567565, 30.036036036036037 ] ] ] } },
{ "type": "Feature", "properties": { "cell_id": 233 }, "geometry": { "type": "Polygon", "coordinates": [ [ [ 31.067567567567565, 30.04054054054054 ], [ 31.067567567567565, 30.045045045045043 ], [ 31.063063063063062, 30.045045045045043 ], [ 31.063063063063062, 30.04054054054054 ], [ 31.067567567567565, 30.04054054054054 ] ] ] } },
{ "type": "Feature", "properties": { "cell_id": 234 }, "geometry": { "type": "Polygon", "coordinates": [ [ [ 31.067567567567565, 30.045045045045047 ], [ 31.067567567567565, 30.04954954954955 ], [ 31.063063063063062, 30.04954954954955 ], [ 31.063063063063062, 30.045045045045047 ], [ 31.067567567567565, 30.045045045045047 ] ] ] } },
{ "type": "Feature", "properties": { "cell_id": 235 }, "geometry": { "type": "Polygon", "coordinates": [ [ [ 31.067567567567565, 30.04954954954955 ], [ 31.067567567567565, 30.054054054054053 ], [ 31.063063063063062, 30.054054054054053 ], [ 31.063063063063062, 30.04954954954955 ], [ 31.067567567567565, 30.04954954954955 ] ] ] } },
{ "type": "Feature", "properties": { "cell_id": 236 }, "geometry": { "type": "Polygon", "coordinates": [ [ [ 31.067567567567565, 30.054054054054053 ], [ 31.067567567567565, 30.058558558558556 ], [ 31.063063063063062, 30.058558558558556 ], [ 31.063063063063062, 30.054054054054053 ], [ 31.067567567567565, 30.054054054054053 ] ] ] } },
{ "type": "Feature", "properties": { "cell_id": 237 }, "geometry": { "type": "Polygon", "coordinates": [ [ [ 31.067567567567565, 30.058558558558559 ], [ 31.067567567567565, 30.063063063063062 ], [ 31.063063063063062, 30.063063063063062 ], [ 31.063063063063062, 30.058558558558559 ], [ 31.067567567567565, 30.058558558558559 ] ] ] } },
{ "type": "Feature", "properties": { "cell_id": 238 }, "geometry": { "type": "Polygon", "coordinates": [ [ [ 31.067567567567565, 30.063063063063062 ], [ 31.067567567567565, 30.067567567567565 ], [ 31.063063063063062, 30.067567567567565 ], [ 31.063063063063062, 30.063063063063062 ], [ 31.067567567567565, 30.063063063063062 ] ] ] } },
{ "type": "Feature", "properties": { "cell_id": 239 }, "geometry": { "type": "Polygon", "coordinates": [ [ [ 31.067567567567565, 30.067567567567568 ], [ 31.067567567567565, 30.072072072072071 ], [ 31.063063063063062, 30.072072072072071 ], [ 31.063063063063062, 30.067567567567568 ], [ 31.067567567567565, 30.067567567567568 ] ] ] } },
{ "type": "Feature", "properties": { "cell_id": 240 }, "geometry": { "type": "Polygon", "coordinates": [ [ [ 31.072072072072071, 30.0 ], [ 31.072072072072071, 30.004504504504503 ], [ 31.067567567567568, 30.004504504504503 ], [ 31.067567567567568, 30.0 ], [ 31.072072072072071, 30.0 ] ] ] } },
{ "type": "Feature", "properties": { "cell_id": 241 }, "geometry": { "type": "Polygon", "coordinates": [ [ [ 31.072072072072071, 30.004504504504503 ], [ 31.072072072072071, 30.009009009009006 ], [ 31.067567567567568, 30.009009009009006 ], [ 31.067567567567568, 30.004504504504503 ], [ 31.072072072072071, 30.004504504504503 ] ] ] } },
{ "type": "Feature", "properties": { "cell_id": 242 }, "geometry": { "type": "Polygon", "coordinates": [ [ [ 31.072072072072071, 30.009009009009009 ], [ 31.072072072072071, 30.013513513513512 ], [ 31.067567567567568, 30.013513513513512 ], [ 31.067567567567568, 30.009009009009009 ], [ 31.072072072072071, 30.009009009009009 ] ] ] } },
{ "type": "Feature", "properties": { "cell_id": 243 }, "geometry": { "type": "Polygon", "coordinates": [ [ [ 31.072072072072071, 30.013513513513512 ], [ 31.072072072072071, 30.018018018018015 ], [ 31.067567567567568, 30.018018018018015 ], [ 31.067567567567568, 30.013513513513512 ], [ 31.072072072072071, 30.013513513513512 ] ] ] } },
{ "type": "Feature", "properties": { "cell_id": 244 }, "geometry": { "type": "Polygon", "coordinates": [ [ [ 31.072072072072071, 30.018018018018019 ], [ 31.072072072072071, 30.022522522522522 ], [ 31.067567567567568, 30.022522522522522 ], [ 31.067567567567568, 30.018018018018019 ], [ 31.072072072072071, 30.018018018018019 ] ] ] } },
{ "type": "Feature", "properties": { "cell_id": 245 }, "geometry": { "type": "Polygon", "coordinates": [ [ [ 31.072072072072071, 30.022522522522522 ], [ 31.072072072072071, 30.027027027027025 ], [ 31.067567567567568, 30.027027027027025 ], [ 31.067567567567568, 30.022522522522522 ], [ 31.072072072072071, 30.022522522522522 ] ] ] } },
{ "type": "Feature", "properties": { "cell_id": 246 }, "geometry": { "type": "Polygon", "coordinates": [ [ [ 31.072072072072071, 30.027027027027028 ], [ 31.072072072072071, 30.031531531531531 ], [ 31.067567567567568, 30.031531531531531 ], [ 31.067567567567568, 30.027027027027028 ], [ 31.072072072072071, 30.027027027027028 ] ] ] } },
{ "type": "Feature", "properties": { "cell_id": 247 }, "geometry": { "type": "Polygon", "coordinates": [ [ [ 31.072072072072071, 30.031531531531531 ], [ 31.072072072072071, 30.036036036036034 ], [ 31.067567567567568, 30.036036036036034 ], [ 31.067567567567568, 30.031531531531531 ], [ 31.072072072072071, 30.031531531531531 ] ] ] } },
{ "type": "Feature", "properties": { "cell_id": 248 }, "geometry": { "type": "Polygon", "coordinates": [ [ [ 31.072072072072071, 30.036036036036037 ], [ 31.072072072072071, 30.04054054054054 ], [ 31.067567567567568, 30.04054054054054 ], [ 31.067567567567568, 30.036036036036037 ], [ 31.072072072072071, 30.036036036036037 ] ] ] } },
{ "type": "Feature", "properties": { "cell_id": 249 }, "geometry": { "type": "Polygon", "coordinates": [ [ [ 31.072072072072071, 30.04054054054054 ], [ 31.072072072072071, 30.045045045045043 ], [ 31.067567567567568, 30.045045045045043 ], [ 31.067567567567568, 30.04054054054054 ], [ 31.072072072072071, 30.04054054054054 ] ] ] } },
{ "type": "Feature", "properties": { "cell_id": 250 }, "geometry": { "type": "Polygon", "coordinates": [ [ [ 31.072072072072071, 30.045045045045047 ], [ 31.072072072072071, 30.04954954954955 ], [ 31.067567567567568, 30.04954954954955 ], [ 31.067567567567568, 30.045045045045047 ], [ 31.072072072072071, 30.045045045045047 ] ] ] } },
{ "type": "Feature", "properties": { "cell_id": 251 }, "geometry": { "type": "Polygon", "coordinates": [ [ [ 31.072072072072071, 30.04954954954955 ], [ 31.072072072072071, 30.054054054054053 ], [ 31.067567567567568, 30.054054054054053 ], [ 31.067567567567568, 30.04954954954955 ], [ 31.072072072072071, 30.04954954954955 ] ] ] } },
{ "type": "Feature", "properties": { "cell_id": 252 }, "geometry": { "type": "Polygon", "coordinates": [ [ [ 31.072072072072071, 30.054054054054053 ], [ 31.072072072072071, 30.058558558558556 ], [ 31.067567567567568, 30.058558558558556 ], [ 31.067567567567568, 30.054054054054053 ], [ 31.072072072072071, 30.054054054054053 ] ] ] } },
{ "type": "Feature", "properties": { "cell_id": 253 }, "geometry": { "type": "Polygon", "coordinates": [ [ [ 31.072072072072071, 30.058558558558559 ], [ 31.072072072072071, 30.063063063063062 ], [ 31.067567567567568, 30.063063063063062 ], [ 31.067567567567568, 30.058558558558559 ], [ 31.072072072072071, 30.058558558558559 ] ] ] } },
{ "type": "Feature", "properties": { "cell_id": 254 }, "geometry": { "type": "Polygon", "coordinates": [ [ [ 31.072072072072071, 30.063063063063062 ], [ 31.072072072072071, 30.067567567567565 ], [ 31.067567567567568, 30.067567567567565 ], [ 31.067567567567568, 30.063063063063062 ], [ 31.072072072072071, 30.063063063063062 ] ] ] } },
{ "type": "Feature", "properties": { "cell_id": 255 }, "geometry": { "type": "Polygon", "coordinates": [ [ [ 31.072072072072071, 30.067567567567568 ], [ 31.072072072072071, 30.072072072072071 ], [ 31.067567567567568, 30.072072072072071 ], [ 31.067567567567568, 30.067567567567568 ], [ 31.072072072072071, 30.067567567567568 ] ] ] } }
]
}
