{
"type": "FeatureCollection",
"name": "grid_8e56c9ec",
"crs": { "type": "name", "properties": { "name": "urn:ogc:def:crs:OGC:1.3:CRS84" } },
"features": [
{ "type": "Feature", "properties": { "cell_id": 0 }, "geometry": { "type": "Polygon", "coordinates": [ [ [ 31.234504504504503, 30.04 ], [ 31.234504504504503, 30.044504504504502 ], [ 31.23, 30.044504504504502 ], [ 31.23, 30.04 ], [ 31.234504504504503, 30.04 ] ] ] } },
{ "type": "Feature", "properties": { "cell_id": 1 }, "geometry": { "type": "Polygon", "coordinates": [ [ [ 31.234504504504503, 30.044504504504502 ], [ 31.234504504504503, 30.049009009009005 ], [ 31.23, 30.049009009009005 ], [ 31.23, 30.044504504504502 ], [ 31.234504504504503, 30.044504504504502 ] ] ] } },
{ "type": "Feature", "properties": { "cell_id": 2 }, "geometry": { "type": "Polygon", "coordinates": [ [ [ 31.234504504504503, 30.049009009009009 ], [ 31.234504504504503, 30.053513513513511 ], [ 31.23, 30.053513513513511 ], [ 31.23, 30.049009009009009 ], [ 31.234504504504503, 30.049009009009009 ] ] ] } },
{ "type": "Feature", "properties": { "cell_id": 3 }, "geometry": { "type": "Polygon", "coordinates": [ [ [ 31.239009009009006, 30.04 ], [ 31.239009009009006, 30.044504504504502 ], [ 31.234504504504503, 30.044504504504502 ], [ 31.234504504504503, 30.04 ], [ 31.239009009009006, 30.04 ] ] ] } },
{ "type": "Feature", "properties": { "cell_id": 4 }, "geometry": { "type": "Polygon", "coordinates": [ [ [ 31.239009009009006, 30.044504504504502 ], [ 31.239009009009006, 30.049009009009005 ], [ 31.234504504504503, 30.049009009009005 ], [ 31.234504504504503, 30.044504504504502 ], [ 31.239009009009006, 30.044504504504502 ] ] ] } },
{ "type": "Feature", "properties": { "cell_id": 5 }, "geometry": { "type": "Polygon", "coordinates": [ [ [ 31.239009009009006, 30.049009009009009 ], [ 31.239009009009006, 30.053513513513511 ], [ 31.234504504504503, 30.053513513513511 ], [ 31.234504504504503, 30.049009009009009 ], [ 31.239009009009006, 30.049009009009009 ] ] ] } },
{ "type": "Feature", "properties": { "cell_id": 6 }, "geometry": { "type": "Polygon", "coordinates": [ [ [ 31.243513513513513, 30.04 ], [ 31.243513513513513, 30.044504504504502 ], [ 31.23900900900901, 30.044504504504502 ], [ 31.23900900900901, 30.04 ], [ 31.243513513513513, 30.04 ] ] ] } },
{ "type": "Feature", "properties": { "cell_id": 7 }, "geometry": { "type": "Polygon", "coordinates": [ [ [ 31.243513513513513, 30.044504504504502 ], [ 31.243513513513513, 30.049009009009005 ], [ 31.23900900900901, 30.049009009009005 ], [ 31.23900900900901, 30.044504504504502 ], [ 31.243513513513513, 30.044504504504502 ] ] ] } },
{ "type": "Feature", "properties": { "cell_id": 8 }, "geometry": { "type": "Polygon", "coordinates": [ [ [ 31.243513513513513, 30.049009009009009 ], [ 31.243513513513513, 30.053513513513511 ], [ 31.23900900900901, 30.053513513513511 ], [ 31.23900900900901, 30.049009009009009 ], [ 31.243513513513513, 30.049009009009009 ] ] ] } }
]
}
