{
"type": "FeatureCollection",
"name": "grid_0fbaa83e",
"crs": { "type": "name", "properties": { "name": "urn:ogc:def:crs:OGC:1.3:CRS84" } },
"features": [
{ "type": "Feature", "properties": { "cell_id": 0, "node_count": 0.0, "total_length": 0.0, "avg_degree": 0.0, "poi_count": 0, "text_des": "", "poi_categories": [ ] }, "geometry": { "type": "Polygon", "coordinates": [ [ [ 31.339418264570646, 30.069005021643775 ], [ 31.339418264570646, 30.073509526148278 ], [ 31.334913760066144, 30.073509526148278 ], [ 31.334913760066144, 30.069005021643775 ], [ 31.339418264570646, 30.069005021643775 ] ] ] } },
{ "type": "Feature", "properties": { "cell_id": 1, "node_count": 0.0, "total_length": 0.0, "avg_degree": 0.0, "poi_count": 0, "text_des": "", "poi_categories": [ ] }, "geometry": { "type": "Polygon", "coordinates": [ [ [ 31.339418264570646, 30.073509526148278 ], [ 31.339418264570646, 30.078014030652781 ], [ 31.334913760066144, 30.078014030652781 ], [ 31.334913760066144, 30.073509526148278 ], [ 31.339418264570646, 30.073509526148278 ] ] ] } },
{ "type": "Feature", "properties": { "cell_id": 2, "node_count": 0.0, "total_length": 0.0, "avg_degree": 0.0, "poi_count": 2, "text_des": "تقع الجولف ميموريال في القاهرة، مصر. نوع المنطقة: عام. البيانات من OpenStreetMap. تقع صيرفة في القاهرة، مصر. نوع المنطقة: بنك. البيانات من :contentReference[oaicite:1]{index=1}.", "poi_categories": [ "Health", "Bank" ] }, "geometry": { "type": "Polygon", "coordinates": [ [ [ 31.339418264570646, 30.078014030652785 ], [ 31.339418264570646, 30.082518535157288 ], [ 31.334913760066144, 30.082518535157288 ], [ 31.334913760066144, 30.078014030652785 ], [ 31.339418264570646, 30.078014030652785 ] ] ] } },
{ "type": "Feature", "properties": { "cell_id": 3, "node_count": 0.0, "total_length": 0.0, "avg_degree": 0.0, "poi_count": 0, "text_des": "", "poi_categories": [ ] }, "geometry": { "type": "Polygon", "coordinates": [ [ [ 31.343922769075149, 30.069005021643775 ], [ 31.343922769075149, 30.073509526148278 ], [ 31.339418264570646, 30.073509526148278 ], [ 31.339418264570646, 30.069005021643775 ], [ 31.343922769075149, 30.069005021643775 ] ] ] } },
{ "type": "Feature", "properties": { "cell_id": 4, "node_count": 0.0, "total_length": 0.0, "avg_degree": 0.0, "poi_count": 2, "text_des": "تقع عيادات سيمويا الايطالية للتجميل SIMOE Italian Beauty Clinics في القاهرة، مصر. نوع المنطقة: عام. البيانات من OpenStreetMap. تقع البنك الأهلي المصري في القاهرة، مصر. نوع المنطقة: بنك. البيانات من :contentReference[oaicite:1]{index=1}.", "poi_categories": [ "Health", "Bank" ] }, "geometry": { "type": "Polygon", "coordinates": [ [ [ 31.343922769075149, 30.073509526148278 ], [ 31.343922769075149, 30.078014030652781 ], [ 31.339418264570646, 30.078014030652781 ], [ 31.339418264570646, 30.073509526148278 ], [ 31.343922769075149, 30.073509526148278 ] ] ] } },
{ "type": "Feature", "properties": { "cell_id": 5, "node_count": 0.0, "total_length": 0.0, "avg_degree": 0.0, "poi_count": 5, "text_des": "تقع مس إيرينى في القاهرة، مصر. نوع المنطقة: مدرسة. البيانات من OpenStreetMap. تقع دكتورة جميلة محمد نصر، القلب و الأوعية الدموية في القاهرة، مصر. نوع المنطقة: عام. البيانات من OpenStreetMap. تقع البنك العربي الافريقي في القاهرة، مصر. نوع المنطقة: بنك. البيانات من :contentReference[oaicite:1]{index=1}. تقع البنك العربي في القاهرة، مصر. نوع المنطقة: بنك. البيانات من :contentReference[oaicite:1]{index=1}. تقع HSBC في القاهرة، مصر. نوع المنطقة: بنك. البيانات من :contentReference[oaicite:1]{index=1}.", "poi_categories": [ "Education", "Health", "Bank" ] }, "geometry": { "type": "Polygon", "coordinates": [ [ [ 31.343922769075149, 30.078014030652785 ], [ 31.343922769075149, 30.082518535157288 ], [ 31.339418264570646, 30.082518535157288 ], [ 31.339418264570646, 30.078014030652785 ], [ 31.343922769075149, 30.078014030652785 ] ] ] } },
{ "type": "Feature", "properties": { "cell_id": 6, "node_count": 0.0, "total_length": 0.0, "avg_degree": 0.0, "poi_count": 4, "text_des": "تقع عودة في القاهرة، مصر. نوع المنطقة: بنك. البيانات من :contentReference[oaicite:1]{index=1}. تقع بنك الاسكندرية في القاهرة، مصر. نوع المنطقة: بنك. البيانات من :contentReference[oaicite:1]{index=1}. تقع هذه المنشأة في القاهرة، مصر. نوع المنطقة: مول تجاري (Mall). البيانات من OpenStreetMap. تقع هذه المنشأة في القاهرة، مصر. نوع المنطقة: مول تجاري (Mall). البيانات من OpenStreetMap.", "poi_categories": [ "Bank", "Mall" ] }, "geometry": { "type": "Polygon", "coordinates": [ [ [ 31.348427273579656, 30.069005021643775 ], [ 31.348427273579656, 30.073509526148278 ], [ 31.343922769075153, 30.073509526148278 ], [ 31.343922769075153, 30.069005021643775 ], [ 31.348427273579656, 30.069005021643775 ] ] ] } },
{ "type": "Feature", "properties": { "cell_id": 7, "node_count": 0.0, "total_length": 0.0, "avg_degree": 0.0, "poi_count": 1, "text_des": "تقع Banque MISR في القاهرة، مصر. نوع المنطقة: بنك. البيانات من :contentReference[oaicite:1]{index=1}.", "poi_categories": [ "Bank" ] }, "geometry": { "type": "Polygon", "coordinates": [ [ [ 31.348427273579656, 30.073509526148278 ], [ 31.348427273579656, 30.078014030652781 ], [ 31.343922769075153, 30.078014030652781 ], [ 31.343922769075153, 30.073509526148278 ], [ 31.348427273579656, 30.073509526148278 ] ] ] } },
{ "type": "Feature", "properties": { "cell_id": 8, "node_count": 0.0, "total_length": 0.0, "avg_degree": 0.0, "poi_count": 1, "text_des": "تقع مستشفى عبدالقادر فهمي في القاهرة، مصر. نوع المنطقة: مستشفى. البيانات من OpenStreetMap.", "poi_categories": [ "Health" ] }, "geometry": { "type": "Polygon", "coordinates": [ [ [ 31.348427273579656, 30.078014030652785 ], [ 31.348427273579656, 30.082518535157288 ], [ 31.343922769075153, 30.082518535157288 ], [ 31.343922769075153, 30.078014030652785 ], [ 31.348427273579656, 30.078014030652785 ] ] ] } }
]
}
