{
"type": "FeatureCollection",
"name": "grid_055bec3d",
"crs": { "type": "name", "properties": { "name": "urn:ogc:def:crs:OGC:1.3:CRS84" } },
"features": [
{ "type": "Feature", "properties": { "cell_id": 0, "poi_count": 0, "text_des": "" }, "geometry": { "type": "Polygon", "coordinates": [ [ [ 31.204504504504502, 30.0 ], [ 31.204504504504502, 30.004504504504503 ], [ 31.2, 30.004504504504503 ], [ 31.2, 30.0 ], [ 31.204504504504502, 30.0 ] ] ] } },
{ "type": "Feature", "properties": { "cell_id": 1, "poi_count": 0, "text_des": "" }, "geometry": { "type": "Polygon", "coordinates": [ [ [ 31.204504504504502, 30.004504504504503 ], [ 31.204504504504502, 30.009009009009006 ], [ 31.2, 30.009009009009006 ], [ 31.2, 30.004504504504503 ], [ 31.204504504504502, 30.004504504504503 ] ] ] } },
{ "type": "Feature", "properties": { "cell_id": 2, "poi_count": 2, "text_des": "تقع عيادة الدكتور احمد محمود عبدالحفيظ إستشاري صدر في القاهرة، مصر. نوع المنطقة: عام. البيانات من OpenStreetMap. تقع مدرسة الشهيد هشام شتا الاعداديه بنات في القاهرة، مصر. نوع المنطقة: مدرسة. البيانات من OpenStreetMap." }, "geometry": { "type": "Polygon", "coordinates": [ [ [ 31.204504504504502, 30.009009009009009 ], [ 31.204504504504502, 30.013513513513512 ], [ 31.2, 30.013513513513512 ], [ 31.2, 30.009009009009009 ], [ 31.204504504504502, 30.009009009009009 ] ] ] } },
{ "type": "Feature", "properties": { "cell_id": 3, "poi_count": 0, "text_des": "" }, "geometry": { "type": "Polygon", "coordinates": [ [ [ 31.204504504504502, 30.013513513513512 ], [ 31.204504504504502, 30.018018018018015 ], [ 31.2, 30.018018018018015 ], [ 31.2, 30.013513513513512 ], [ 31.204504504504502, 30.013513513513512 ] ] ] } },
{ "type": "Feature", "properties": { "cell_id": 4, "poi_count": 0, "text_des": "" }, "geometry": { "type": "Polygon", "coordinates": [ [ [ 31.204504504504502, 30.018018018018019 ], [ 31.204504504504502, 30.022522522522522 ], [ 31.2, 30.022522522522522 ], [ 31.2, 30.018018018018019 ], [ 31.204504504504502, 30.018018018018019 ] ] ] } },
{ "type": "Feature", "properties": { "cell_id": 5, "poi_count": 0, "text_des": "" }, "geometry": { "type": "Polygon", "coordinates": [ [ [ 31.209009009009005, 30.0 ], [ 31.209009009009005, 30.004504504504503 ], [ 31.204504504504502, 30.004504504504503 ], [ 31.204504504504502, 30.0 ], [ 31.209009009009005, 30.0 ] ] ] } },
{ "type": "Feature", "properties": { "cell_id": 6, "poi_count": 0, "text_des": "" }, "geometry": { "type": "Polygon", "coordinates": [ [ [ 31.209009009009005, 30.004504504504503 ], [ 31.209009009009005, 30.009009009009006 ], [ 31.204504504504502, 30.009009009009006 ], [ 31.204504504504502, 30.004504504504503 ], [ 31.209009009009005, 30.004504504504503 ] ] ] } },
{ "type": "Feature", "properties": { "cell_id": 7, "poi_count": 0, "text_des": "" }, "geometry": { "type": "Polygon", "coordinates": [ [ [ 31.209009009009005, 30.009009009009009 ], [ 31.209009009009005, 30.013513513513512 ], [ 31.204504504504502, 30.013513513513512 ], [ 31.204504504504502, 30.009009009009009 ], [ 31.209009009009005, 30.009009009009009 ] ] ] } },
{ "type": "Feature", "properties": { "cell_id": 8, "poi_count": 0, "text_des": "" }, "geometry": { "type": "Polygon", "coordinates": [ [ [ 31.209009009009005, 30.013513513513512 ], [ 31.209009009009005, 30.018018018018015 ], [ 31.204504504504502, 30.018018018018015 ], [ 31.204504504504502, 30.013513513513512 ], [ 31.209009009009005, 30.013513513513512 ] ] ] } },
{ "type": "Feature", "properties": { "cell_id": 9, "poi_count": 0, "text_des": "" }, "geometry": { "type": "Polygon", "coordinates": [ [ [ 31.209009009009005, 30.018018018018019 ], [ 31.209009009009005, 30.022522522522522 ], [ 31.204504504504502, 30.022522522522522 ], [ 31.204504504504502, 30.018018018018019 ], [ 31.209009009009005, 30.018018018018019 ] ] ] } },
{ "type": "Feature", "properties": { "cell_id": 10, "poi_count": 0, "text_des": "" }, "geometry": { "type": "Polygon", "coordinates": [ [ [ 31.213513513513512, 30.0 ], [ 31.213513513513512, 30.004504504504503 ], [ 31.209009009009009, 30.004504504504503 ], [ 31.209009009009009, 30.0 ], [ 31.213513513513512, 30.0 ] ] ] } },
{ "type": "Feature", "properties": { "cell_id": 11, "poi_count": 0, "text_des": "" }, "geometry": { "type": "Polygon", "coordinates": [ [ [ 31.213513513513512, 30.004504504504503 ], [ 31.213513513513512, 30.009009009009006 ], [ 31.209009009009009, 30.009009009009006 ], [ 31.209009009009009, 30.004504504504503 ], [ 31.213513513513512, 30.004504504504503 ] ] ] } },
{ "type": "Feature", "properties": { "cell_id": 12, "poi_count": 0, "text_des": "" }, "geometry": { "type": "Polygon", "coordinates": [ [ [ 31.213513513513512, 30.009009009009009 ], [ 31.213513513513512, 30.013513513513512 ], [ 31.209009009009009, 30.013513513513512 ], [ 31.209009009009009, 30.009009009009009 ], [ 31.213513513513512, 30.009009009009009 ] ] ] } },
{ "type": "Feature", "properties": { "cell_id": 13, "poi_count": 1, "text_des": "تقع استشاري جراحة الأطفال - دكتور/ خالد صلاح - Dr/ Khaled Salah في القاهرة، مصر. نوع المنطقة: عام. البيانات من OpenStreetMap." }, "geometry": { "type": "Polygon", "coordinates": [ [ [ 31.213513513513512, 30.013513513513512 ], [ 31.213513513513512, 30.018018018018015 ], [ 31.209009009009009, 30.018018018018015 ], [ 31.209009009009009, 30.013513513513512 ], [ 31.213513513513512, 30.013513513513512 ] ] ] } },
{ "type": "Feature", "properties": { "cell_id": 14, "poi_count": 0, "text_des": "" }, "geometry": { "type": "Polygon", "coordinates": [ [ [ 31.213513513513512, 30.018018018018019 ], [ 31.213513513513512, 30.022522522522522 ], [ 31.209009009009009, 30.022522522522522 ], [ 31.209009009009009, 30.018018018018019 ], [ 31.213513513513512, 30.018018018018019 ] ] ] } },
{ "type": "Feature", "properties": { "cell_id": 15, "poi_count": 0, "text_des": "" }, "geometry": { "type": "Polygon", "coordinates": [ [ [ 31.218018018018014, 30.0 ], [ 31.218018018018014, 30.004504504504503 ], [ 31.213513513513512, 30.004504504504503 ], [ 31.213513513513512, 30.0 ], [ 31.218018018018014, 30.0 ] ] ] } },
{ "type": "Feature", "properties": { "cell_id": 16, "poi_count": 0, "text_des": "" }, "geometry": { "type": "Polygon", "coordinates": [ [ [ 31.218018018018014, 30.004504504504503 ], [ 31.218018018018014, 30.009009009009006 ], [ 31.213513513513512, 30.009009009009006 ], [ 31.213513513513512, 30.004504504504503 ], [ 31.218018018018014, 30.004504504504503 ] ] ] } },
{ "type": "Feature", "properties": { "cell_id": 17, "poi_count": 0, "text_des": "" }, "geometry": { "type": "Polygon", "coordinates": [ [ [ 31.218018018018014, 30.009009009009009 ], [ 31.218018018018014, 30.013513513513512 ], [ 31.213513513513512, 30.013513513513512 ], [ 31.213513513513512, 30.009009009009009 ], [ 31.218018018018014, 30.009009009009009 ] ] ] } },
{ "type": "Feature", "properties": { "cell_id": 18, "poi_count": 3, "text_des": "تقع مستشفى الرماد في القاهرة، مصر. نوع المنطقة: مستشفى. البيانات من OpenStreetMap. تقع معهد بحوث امراض الرمد في القاهرة، مصر. نوع المنطقة: مستشفى. البيانات من OpenStreetMap. تقع معهد الرمد التذكاري للابحاث في القاهرة، مصر. نوع المنطقة: مستشفى. البيانات من OpenStreetMap." }, "geometry": { "type": "Polygon", "coordinates": [ [ [ 31.218018018018014, 30.013513513513512 ], [ 31.218018018018014, 30.018018018018015 ], [ 31.213513513513512, 30.018018018018015 ], [ 31.213513513513512, 30.013513513513512 ], [ 31.218018018018014, 30.013513513513512 ] ] ] } },
{ "type": "Feature", "properties": { "cell_id": 19, "poi_count": 1, "text_des": "تقع البنك الاهلي المصري في القاهرة، مصر. نوع المنطقة: بنك. البيانات من :contentReference[oaicite:1]{index=1}." }, "geometry": { "type": "Polygon", "coordinates": [ [ [ 31.218018018018014, 30.018018018018019 ], [ 31.218018018018014, 30.022522522522522 ], [ 31.213513513513512, 30.022522522522522 ], [ 31.213513513513512, 30.018018018018019 ], [ 31.218018018018014, 30.018018018018019 ] ] ] } },
{ "type": "Feature", "properties": { "cell_id": 20, "poi_count": 0, "text_des": "" }, "geometry": { "type": "Polygon", "coordinates": [ [ [ 31.222522522522521, 30.0 ], [ 31.222522522522521, 30.004504504504503 ], [ 31.218018018018018, 30.004504504504503 ], [ 31.218018018018018, 30.0 ], [ 31.222522522522521, 30.0 ] ] ] } },
{ "type": "Feature", "properties": { "cell_id": 21, "poi_count": 0, "text_des": "" }, "geometry": { "type": "Polygon", "coordinates": [ [ [ 31.222522522522521, 30.004504504504503 ], [ 31.222522522522521, 30.009009009009006 ], [ 31.218018018018018, 30.009009009009006 ], [ 31.218018018018018, 30.004504504504503 ], [ 31.222522522522521, 30.004504504504503 ] ] ] } },
{ "type": "Feature", "properties": { "cell_id": 22, "poi_count": 0, "text_des": "" }, "geometry": { "type": "Polygon", "coordinates": [ [ [ 31.222522522522521, 30.009009009009009 ], [ 31.222522522522521, 30.013513513513512 ], [ 31.218018018018018, 30.013513513513512 ], [ 31.218018018018018, 30.009009009009009 ], [ 31.222522522522521, 30.009009009009009 ] ] ] } },
{ "type": "Feature", "properties": { "cell_id": 23, "poi_count": 0, "text_des": "" }, "geometry": { "type": "Polygon", "coordinates": [ [ [ 31.222522522522521, 30.013513513513512 ], [ 31.222522522522521, 30.018018018018015 ], [ 31.218018018018018, 30.018018018018015 ], [ 31.218018018018018, 30.013513513513512 ], [ 31.222522522522521, 30.013513513513512 ] ] ] } },
{ "type": "Feature", "properties": { "cell_id": 24, "poi_count": 0, "text_des": "" }, "geometry": { "type": "Polygon", "coordinates": [ [ [ 31.222522522522521, 30.018018018018019 ], [ 31.222522522522521, 30.022522522522522 ], [ 31.218018018018018, 30.022522522522522 ], [ 31.218018018018018, 30.018018018018019 ], [ 31.222522522522521, 30.018018018018019 ] ] ] } }
]
}
