{
"type": "FeatureCollection",
"name": "grid_4f76b567",
"crs": { "type": "name", "properties": { "name": "urn:ogc:def:crs:OGC:1.3:CRS84" } },
"features": [
{ "type": "Feature", "properties": { "cell_id": 0 }, "geometry": { "type": "Polygon", "coordinates": [ [ [ 31.109009009009011, 30.0 ], [ 31.109009009009011, 30.009009009009009 ], [ 31.1, 30.009009009009009 ], [ 31.1, 30.0 ], [ 31.109009009009011, 30.0 ] ] ] } },
{ "type": "Feature", "properties": { "cell_id": 1 }, "geometry": { "type": "Polygon", "coordinates": [ [ [ 31.109009009009011, 30.009009009009009 ], [ 31.109009009009011, 30.018018018018019 ], [ 31.1, 30.018018018018019 ], [ 31.1, 30.009009009009009 ], [ 31.109009009009011, 30.009009009009009 ] ] ] } },
{ "type": "Feature", "properties": { "cell_id": 2 }, "geometry": { "type": "Polygon", "coordinates": [ [ [ 31.109009009009011, 30.018018018018019 ], [ 31.109009009009011, 30.027027027027028 ], [ 31.1, 30.027027027027028 ], [ 31.1, 30.018018018018019 ], [ 31.109009009009011, 30.018018018018019 ] ] ] } },
{ "type": "Feature", "properties": { "cell_id": 3 }, "geometry": { "type": "Polygon", "coordinates": [ [ [ 31.109009009009011, 30.027027027027028 ], [ 31.109009009009011, 30.036036036036037 ], [ 31.1, 30.036036036036037 ], [ 31.1, 30.027027027027028 ], [ 31.109009009009011, 30.027027027027028 ] ] ] } },
{ "type": "Feature", "properties": { "cell_id": 4 }, "geometry": { "type": "Polygon", "coordinates": [ [ [ 31.109009009009011, 30.036036036036037 ], [ 31.109009009009011, 30.045045045045047 ], [ 31.1, 30.045045045045047 ], [ 31.1, 30.036036036036037 ], [ 31.109009009009011, 30.036036036036037 ] ] ] } },
{ "type": "Feature", "properties": { "cell_id": 5 }, "geometry": { "type": "Polygon", "coordinates": [ [ [ 31.109009009009011, 30.045045045045047 ], [ 31.109009009009011, 30.054054054054056 ], [ 31.1, 30.054054054054056 ], [ 31.1, 30.045045045045047 ], [ 31.109009009009011, 30.045045045045047 ] ] ] } },
{ "type": "Feature", "properties": { "cell_id": 6 }, "geometry": { "type": "Polygon", "coordinates": [ [ [ 31.11801801801802, 30.0 ], [ 31.11801801801802, 30.009009009009009 ], [ 31.109009009009011, 30.009009009009009 ], [ 31.109009009009011, 30.0 ], [ 31.11801801801802, 30.0 ] ] ] } },
{ "type": "Feature", "properties": { "cell_id": 7 }, "geometry": { "type": "Polygon", "coordinates": [ [ [ 31.11801801801802, 30.009009009009009 ], [ 31.11801801801802, 30.018018018018019 ], [ 31.109009009009011, 30.018018018018019 ], [ 31.109009009009011, 30.009009009009009 ], [ 31.11801801801802, 30.009009009009009 ] ] ] } },
{ "type": "Feature", "properties": { "cell_id": 8 }, "geometry": { "type": "Polygon", "coordinates": [ [ [ 31.11801801801802, 30.018018018018019 ], [ 31.11801801801802, 30.027027027027028 ], [ 31.109009009009011, 30.027027027027028 ], [ 31.109009009009011, 30.018018018018019 ], [ 31.11801801801802, 30.018018018018019 ] ] ] } },
{ "type": "Feature", "properties": { "cell_id": 9 }, "geometry": { "type": "Polygon", "coordinates": [ [ [ 31.11801801801802, 30.027027027027028 ], [ 31.11801801801802, 30.036036036036037 ], [ 31.109009009009011, 30.036036036036037 ], [ 31.109009009009011, 30.027027027027028 ], [ 31.11801801801802, 30.027027027027028 ] ] ] } },
{ "type": "Feature", "properties": { "cell_id": 10 }, "geometry": { "type": "Polygon", "coordinates": [ [ [ 31.11801801801802, 30.036036036036037 ], [ 31.11801801801802, 30.045045045045047 ], [ 31.109009009009011, 30.045045045045047 ], [ 31.109009009009011, 30.036036036036037 ], [ 31.11801801801802, 30.036036036036037 ] ] ] } },
{ "type": "Feature", "properties": { "cell_id": 11 }, "geometry": { "type": "Polygon", "coordinates": [ [ [ 31.11801801801802, 30.045045045045047 ], [ 31.11801801801802, 30.054054054054056 ], [ 31.109009009009011, 30.054054054054056 ], [ 31.109009009009011, 30.045045045045047 ], [ 31.11801801801802, 30.045045045045047 ] ] ] } },
{ "type": "Feature", "properties": { "cell_id": 12 }, "geometry": { "type": "Polygon", "coordinates": [ [ [ 31.12702702702703, 30.0 ], [ 31.12702702702703, 30.009009009009009 ], [ 31.11801801801802, 30.009009009009009 ], [ 31.11801801801802, 30.0 ], [ 31.12702702702703, 30.0 ] ] ] } },
{ "type": "Feature", "properties": { "cell_id": 13 }, "geometry": { "type": "Polygon", "coordinates": [ [ [ 31.12702702702703, 30.009009009009009 ], [ 31.12702702702703, 30.018018018018019 ], [ 31.11801801801802, 30.018018018018019 ], [ 31.11801801801802, 30.009009009009009 ], [ 31.12702702702703, 30.009009009009009 ] ] ] } },
{ "type": "Feature", "properties": { "cell_id": 14 }, "geometry": { "type": "Polygon", "coordinates": [ [ [ 31.12702702702703, 30.018018018018019 ], [ 31.12702702702703, 30.027027027027028 ], [ 31.11801801801802, 30.027027027027028 ], [ 31.11801801801802, 30.018018018018019 ], [ 31.12702702702703, 30.018018018018019 ] ] ] } },
{ "type": "Feature", "properties": { "cell_id": 15 }, "geometry": { "type": "Polygon", "coordinates": [ [ [ 31.12702702702703, 30.027027027027028 ], [ 31.12702702702703, 30.036036036036037 ], [ 31.11801801801802, 30.036036036036037 ], [ 31.11801801801802, 30.027027027027028 ], [ 31.12702702702703, 30.027027027027028 ] ] ] } },
{ "type": "Feature", "properties": { "cell_id": 16 }, "geometry": { "type": "Polygon", "coordinates": [ [ [ 31.12702702702703, 30.036036036036037 ], [ 31.12702702702703, 30.045045045045047 ], [ 31.11801801801802, 30.045045045045047 ], [ 31.11801801801802, 30.036036036036037 ], [ 31.12702702702703, 30.036036036036037 ] ] ] } },
{ "type": "Feature", "properties": { "cell_id": 17 }, "geometry": { "type": "Polygon", "coordinates": [ [ [ 31.12702702702703, 30.045045045045047 ], [ 31.12702702702703, 30.054054054054056 ], [ 31.11801801801802, 30.054054054054056 ], [ 31.11801801801802, 30.045045045045047 ], [ 31.12702702702703, 30.045045045045047 ] ] ] } },
{ "type": "Feature", "properties": { "cell_id": 18 }, "geometry": { "type": "Polygon", "coordinates": [ [ [ 31.136036036036039, 30.0 ], [ 31.136036036036039, 30.009009009009009 ], [ 31.12702702702703, 30.009009009009009 ], [ 31.12702702702703, 30.0 ], [ 31.136036036036039, 30.0 ] ] ] } },
{ "type": "Feature", "properties": { "cell_id": 19 }, "geometry": { "type": "Polygon", "coordinates": [ [ [ 31.136036036036039, 30.009009009009009 ], [ 31.136036036036039, 30.018018018018019 ], [ 31.12702702702703, 30.018018018018019 ], [ 31.12702702702703, 30.009009009009009 ], [ 31.136036036036039, 30.009009009009009 ] ] ] } },
{ "type": "Feature", "properties": { "cell_id": 20 }, "geometry": { "type": "Polygon", "coordinates": [ [ [ 31.136036036036039, 30.018018018018019 ], [ 31.136036036036039, 30.027027027027028 ], [ 31.12702702702703, 30.027027027027028 ], [ 31.12702702702703, 30.018018018018019 ], [ 31.136036036036039, 30.018018018018019 ] ] ] } },
{ "type": "Feature", "properties": { "cell_id": 21 }, "geometry": { "type": "Polygon", "coordinates": [ [ [ 31.136036036036039, 30.027027027027028 ], [ 31.136036036036039, 30.036036036036037 ], [ 31.12702702702703, 30.036036036036037 ], [ 31.12702702702703, 30.027027027027028 ], [ 31.136036036036039, 30.027027027027028 ] ] ] } },
{ "type": "Feature", "properties": { "cell_id": 22 }, "geometry": { "type": "Polygon", "coordinates": [ [ [ 31.136036036036039, 30.036036036036037 ], [ 31.136036036036039, 30.045045045045047 ], [ 31.12702702702703, 30.045045045045047 ], [ 31.12702702702703, 30.036036036036037 ], [ 31.136036036036039, 30.036036036036037 ] ] ] } },
{ "type": "Feature", "properties": { "cell_id": 23 }, "geometry": { "type": "Polygon", "coordinates": [ [ [ 31.136036036036039, 30.045045045045047 ], [ 31.136036036036039, 30.054054054054056 ], [ 31.12702702702703, 30.054054054054056 ], [ 31.12702702702703, 30.045045045045047 ], [ 31.136036036036039, 30.045045045045047 ] ] ] } },
{ "type": "Feature", "properties": { "cell_id": 24 }, "geometry": { "type": "Polygon", "coordinates": [ [ [ 31.145045045045048, 30.0 ], [ 31.145045045045048, 30.009009009009009 ], [ 31.136036036036039, 30.009009009009009 ], [ 31.136036036036039, 30.0 ], [ 31.145045045045048, 30.0 ] ] ] } },
{ "type": "Feature", "properties": { "cell_id": 25 }, "geometry": { "type": "Polygon", "coordinates": [ [ [ 31.145045045045048, 30.009009009009009 ], [ 31.145045045045048, 30.018018018018019 ], [ 31.136036036036039, 30.018018018018019 ], [ 31.136036036036039, 30.009009009009009 ], [ 31.145045045045048, 30.009009009009009 ] ] ] } },
{ "type": "Feature", "properties": { "cell_id": 26 }, "geometry": { "type": "Polygon", "coordinates": [ [ [ 31.145045045045048, 30.018018018018019 ], [ 31.145045045045048, 30.027027027027028 ], [ 31.136036036036039, 30.027027027027028 ], [ 31.136036036036039, 30.018018018018019 ], [ 31.145045045045048, 30.018018018018019 ] ] ] } },
{ "type": "Feature", "properties": { "cell_id": 27 }, "geometry": { "type": "Polygon", "coordinates": [ [ [ 31.145045045045048, 30.027027027027028 ], [ 31.145045045045048, 30.036036036036037 ], [ 31.136036036036039, 30.036036036036037 ], [ 31.136036036036039, 30.027027027027028 ], [ 31.145045045045048, 30.027027027027028 ] ] ] } },
{ "type": "Feature", "properties": { "cell_id": 28 }, "geometry": { "type": "Polygon", "coordinates": [ [ [ 31.145045045045048, 30.036036036036037 ], [ 31.145045045045048, 30.045045045045047 ], [ 31.136036036036039, 30.045045045045047 ], [ 31.136036036036039, 30.036036036036037 ], [ 31.145045045045048, 30.036036036036037 ] ] ] } },
{ "type": "Feature", "properties": { "cell_id": 29 }, "geometry": { "type": "Polygon", "coordinates": [ [ [ 31.145045045045048, 30.045045045045047 ], [ 31.145045045045048, 30.054054054054056 ], [ 31.136036036036039, 30.054054054054056 ], [ 31.136036036036039, 30.045045045045047 ], [ 31.145045045045048, 30.045045045045047 ] ] ] } },
{ "type": "Feature", "properties": { "cell_id": 30 }, "geometry": { "type": "Polygon", "coordinates": [ [ [ 31.154054054054058, 30.0 ], [ 31.154054054054058, 30.009009009009009 ], [ 31.145045045045048, 30.009009009009009 ], [ 31.145045045045048, 30.0 ], [ 31.154054054054058, 30.0 ] ] ] } },
{ "type": "Feature", "properties": { "cell_id": 31 }, "geometry": { "type": "Polygon", "coordinates": [ [ [ 31.154054054054058, 30.009009009009009 ], [ 31.154054054054058, 30.018018018018019 ], [ 31.145045045045048, 30.018018018018019 ], [ 31.145045045045048, 30.009009009009009 ], [ 31.154054054054058, 30.009009009009009 ] ] ] } },
{ "type": "Feature", "properties": { "cell_id": 32 }, "geometry": { "type": "Polygon", "coordinates": [ [ [ 31.154054054054058, 30.018018018018019 ], [ 31.154054054054058, 30.027027027027028 ], [ 31.145045045045048, 30.027027027027028 ], [ 31.145045045045048, 30.018018018018019 ], [ 31.154054054054058, 30.018018018018019 ] ] ] } },
{ "type": "Feature", "properties": { "cell_id": 33 }, "geometry": { "type": "Polygon", "coordinates": [ [ [ 31.154054054054058, 30.027027027027028 ], [ 31.154054054054058, 30.036036036036037 ], [ 31.145045045045048, 30.036036036036037 ], [ 31.145045045045048, 30.027027027027028 ], [ 31.154054054054058, 30.027027027027028 ] ] ] } },
{ "type": "Feature", "properties": { "cell_id": 34 }, "geometry": { "type": "Polygon", "coordinates": [ [ [ 31.154054054054058, 30.036036036036037 ], [ 31.154054054054058, 30.045045045045047 ], [ 31.145045045045048, 30.045045045045047 ], [ 31.145045045045048, 30.036036036036037 ], [ 31.154054054054058, 30.036036036036037 ] ] ] } },
{ "type": "Feature", "properties": { "cell_id": 35 }, "geometry": { "type": "Polygon", "coordinates": [ [ [ 31.154054054054058, 30.045045045045047 ], [ 31.154054054054058, 30.054054054054056 ], [ 31.145045045045048, 30.054054054054056 ], [ 31.145045045045048, 30.045045045045047 ], [ 31.154054054054058, 30.045045045045047 ] ] ] } }
]
}
