{
"type": "FeatureCollection",
"name": "grid_5b2acbb7",
"crs": { "type": "name", "properties": { "name": "urn:ogc:def:crs:OGC:1.3:CRS84" } },
"features": [
{ "type": "Feature", "properties": { "cell_id": 0, "poi_count": 5, "text_des": "تقع بنك ابو ظبى في القاهرة، مصر. نوع المنطقة: بنك. البيانات من :contentReference[oaicite:1]{index=1}. تقع كريدي اجريكول مصر في القاهرة، مصر. نوع المنطقة: بنك. البيانات من :contentReference[oaicite:1]{index=1}. تقع Ahli United Bank في القاهرة، مصر. نوع المنطقة: بنك. البيانات من :contentReference[oaicite:1]{index=1}. تقع Banque Misr في القاهرة، مصر. نوع المنطقة: بنك. البيانات من :contentReference[oaicite:1]{index=1}. تقع The United Bank في القاهرة، مصر. نوع المنطقة: بنك. البيانات من :contentReference[oaicite:1]{index=1}." }, "geometry": { "type": "Polygon", "coordinates": [ [ [ 31.23900900900901, 30.04 ], [ 31.23900900900901, 30.049009009009009 ], [ 31.23, 30.049009009009009 ], [ 31.23, 30.04 ], [ 31.23900900900901, 30.04 ] ] ] } },
{ "type": "Feature", "properties": { "cell_id": 1, "poi_count": 1, "text_des": "تقع مستشفى هيئة النقل العام في القاهرة، مصر. نوع المنطقة: مستشفى. البيانات من OpenStreetMap." }, "geometry": { "type": "Polygon", "coordinates": [ [ [ 31.23900900900901, 30.049009009009009 ], [ 31.23900900900901, 30.058018018018018 ], [ 31.23, 30.058018018018018 ], [ 31.23, 30.049009009009009 ], [ 31.23900900900901, 30.049009009009009 ] ] ] } },
{ "type": "Feature", "properties": { "cell_id": 2, "poi_count": 5, "text_des": "تقع مكتب صحة - عابدين في القاهرة، مصر. نوع المنطقة: عام. البيانات من OpenStreetMap. تقع العربي الإفريقي في القاهرة، مصر. نوع المنطقة: بنك. البيانات من :contentReference[oaicite:1]{index=1}. تقع البنك العربي الإفريقي في القاهرة، مصر. نوع المنطقة: بنك. البيانات من :contentReference[oaicite:1]{index=1}. تقع Banco MAR cambio في القاهرة، مصر. نوع المنطقة: بنك. البيانات من :contentReference[oaicite:1]{index=1}. تقع هذه المنشأة في القاهرة، مصر. نوع المنطقة: مول تجاري (Mall). البيانات من OpenStreetMap." }, "geometry": { "type": "Polygon", "coordinates": [ [ [ 31.248018018018019, 30.04 ], [ 31.248018018018019, 30.049009009009009 ], [ 31.23900900900901, 30.049009009009009 ], [ 31.23900900900901, 30.04 ], [ 31.248018018018019, 30.04 ] ] ] } },
{ "type": "Feature", "properties": { "cell_id": 3, "poi_count": 4, "text_des": "تقع ماكينة صرافة البنك الأهلي في القاهرة، مصر. نوع المنطقة: بنك. البيانات من :contentReference[oaicite:1]{index=1}. تقع البنك المركزي المصري في القاهرة، مصر. نوع المنطقة: بنك. البيانات من :contentReference[oaicite:1]{index=1}. تقع التجاري وفا بنك في القاهرة، مصر. نوع المنطقة: بنك. البيانات من :contentReference[oaicite:1]{index=1}. تقع Egbank في القاهرة، مصر. نوع المنطقة: بنك. البيانات من :contentReference[oaicite:1]{index=1}." }, "geometry": { "type": "Polygon", "coordinates": [ [ [ 31.248018018018019, 30.049009009009009 ], [ 31.248018018018019, 30.058018018018018 ], [ 31.23900900900901, 30.058018018018018 ], [ 31.23900900900901, 30.049009009009009 ], [ 31.248018018018019, 30.049009009009009 ] ] ] } }
]
}
