{
"type": "FeatureCollection",
"name": "grid_2f8fbb3b",
"crs": { "type": "name", "properties": { "name": "urn:ogc:def:crs:OGC:1.3:CRS84" } },
"features": [
{ "type": "Feature", "properties": { "cell_id": 0, "node_count": 54.0, "total_length": 11174.736328125, "avg_degree": 2.7962963581085205, "poi_count": 0, "text_des": "" }, "geometry": { "type": "Polygon", "coordinates": [ [ [ 31.236790954123173, 29.995074368807636 ], [ 31.236790954123173, 29.999578873312139 ], [ 31.23228644961867, 29.999578873312139 ], [ 31.23228644961867, 29.995074368807636 ], [ 31.236790954123173, 29.995074368807636 ] ] ] } },
{ "type": "Feature", "properties": { "cell_id": 1, "node_count": 42.0, "total_length": 8979.205078125, "avg_degree": 2.4761905670166016, "poi_count": 0, "text_des": "" }, "geometry": { "type": "Polygon", "coordinates": [ [ [ 31.236790954123173, 29.999578873312139 ], [ 31.236790954123173, 30.004083377816642 ], [ 31.23228644961867, 30.004083377816642 ], [ 31.23228644961867, 29.999578873312139 ], [ 31.236790954123173, 29.999578873312139 ] ] ] } },
{ "type": "Feature", "properties": { "cell_id": 2, "node_count": 5.0, "total_length": 1740.5794677734375, "avg_degree": 3.0, "poi_count": 0, "text_des": "" }, "geometry": { "type": "Polygon", "coordinates": [ [ [ 31.236790954123173, 30.004083377816645 ], [ 31.236790954123173, 30.008587882321148 ], [ 31.23228644961867, 30.008587882321148 ], [ 31.23228644961867, 30.004083377816645 ], [ 31.236790954123173, 30.004083377816645 ] ] ] } },
{ "type": "Feature", "properties": { "cell_id": 3, "node_count": 190.0, "total_length": 18473.89453125, "avg_degree": 2.5263156890869141, "poi_count": 0, "text_des": "" }, "geometry": { "type": "Polygon", "coordinates": [ [ [ 31.241295458627675, 29.995074368807636 ], [ 31.241295458627675, 29.999578873312139 ], [ 31.236790954123173, 29.999578873312139 ], [ 31.236790954123173, 29.995074368807636 ], [ 31.241295458627675, 29.995074368807636 ] ] ] } },
{ "type": "Feature", "properties": { "cell_id": 4, "node_count": 31.0, "total_length": 6054.19873046875, "avg_degree": 2.5483870506286621, "poi_count": 0, "text_des": "" }, "geometry": { "type": "Polygon", "coordinates": [ [ [ 31.241295458627675, 29.999578873312139 ], [ 31.241295458627675, 30.004083377816642 ], [ 31.236790954123173, 30.004083377816642 ], [ 31.236790954123173, 29.999578873312139 ], [ 31.241295458627675, 29.999578873312139 ] ] ] } },
{ "type": "Feature", "properties": { "cell_id": 5, "node_count": 0.0, "total_length": 0.0, "avg_degree": 0.0, "poi_count": 0, "text_des": "" }, "geometry": { "type": "Polygon", "coordinates": [ [ [ 31.241295458627675, 30.004083377816645 ], [ 31.241295458627675, 30.008587882321148 ], [ 31.236790954123173, 30.008587882321148 ], [ 31.236790954123173, 30.004083377816645 ], [ 31.241295458627675, 30.004083377816645 ] ] ] } },
{ "type": "Feature", "properties": { "cell_id": 6, "node_count": 171.0, "total_length": 20061.896484375, "avg_degree": 2.6725146770477295, "poi_count": 0, "text_des": "" }, "geometry": { "type": "Polygon", "coordinates": [ [ [ 31.245799963132182, 29.995074368807636 ], [ 31.245799963132182, 29.999578873312139 ], [ 31.241295458627679, 29.999578873312139 ], [ 31.241295458627679, 29.995074368807636 ], [ 31.245799963132182, 29.995074368807636 ] ] ] } },
{ "type": "Feature", "properties": { "cell_id": 7, "node_count": 44.0, "total_length": 12717.1083984375, "avg_degree": 2.9772727489471436, "poi_count": 0, "text_des": "" }, "geometry": { "type": "Polygon", "coordinates": [ [ [ 31.245799963132182, 29.999578873312139 ], [ 31.245799963132182, 30.004083377816642 ], [ 31.241295458627679, 30.004083377816642 ], [ 31.241295458627679, 29.999578873312139 ], [ 31.245799963132182, 29.999578873312139 ] ] ] } },
{ "type": "Feature", "properties": { "cell_id": 8, "node_count": 0.0, "total_length": 2298.920654296875, "avg_degree": 0.0, "poi_count": 0, "text_des": "" }, "geometry": { "type": "Polygon", "coordinates": [ [ [ 31.245799963132182, 30.004083377816645 ], [ 31.245799963132182, 30.008587882321148 ], [ 31.241295458627679, 30.008587882321148 ], [ 31.241295458627679, 30.004083377816645 ], [ 31.245799963132182, 30.004083377816645 ] ] ] } }
]
}
