{
"type": "FeatureCollection",
"name": "grid_e0d739bd",
"crs": { "type": "name", "properties": { "name": "urn:ogc:def:crs:OGC:1.3:CRS84" } },
"features": [
{ "type": "Feature", "properties": { "cell_id": 0, "node_count": 0.0, "total_length": 0.0, "avg_degree": 0.0, "poi_count": 0, "text_des": "", "poi_categories": [ ] }, "geometry": { "type": "Polygon", "coordinates": [ [ [ 31.310772889764401, 30.052444884099117 ], [ 31.310772889764401, 30.05694938860362 ], [ 31.306268385259898, 30.05694938860362 ], [ 31.306268385259898, 30.052444884099117 ], [ 31.310772889764401, 30.052444884099117 ] ] ] } },
{ "type": "Feature", "properties": { "cell_id": 1, "node_count": 0.0, "total_length": 0.0, "avg_degree": 0.0, "poi_count": 0, "text_des": "", "poi_categories": [ ] }, "geometry": { "type": "Polygon", "coordinates": [ [ [ 31.310772889764401, 30.05694938860362 ], [ 31.310772889764401, 30.061453893108123 ], [ 31.306268385259898, 30.061453893108123 ], [ 31.306268385259898, 30.05694938860362 ], [ 31.310772889764401, 30.05694938860362 ] ] ] } },
{ "type": "Feature", "properties": { "cell_id": 2, "node_count": 0.0, "total_length": 0.0, "avg_degree": 0.0, "poi_count": 0, "text_des": "", "poi_categories": [ ] }, "geometry": { "type": "Polygon", "coordinates": [ [ [ 31.310772889764401, 30.061453893108126 ], [ 31.310772889764401, 30.065958397612629 ], [ 31.306268385259898, 30.065958397612629 ], [ 31.306268385259898, 30.061453893108126 ], [ 31.310772889764401, 30.061453893108126 ] ] ] } },
{ "type": "Feature", "properties": { "cell_id": 3, "node_count": 0.0, "total_length": 0.0, "avg_degree": 0.0, "poi_count": 0, "text_des": "", "poi_categories": [ ] }, "geometry": { "type": "Polygon", "coordinates": [ [ [ 31.310772889764401, 30.065958397612629 ], [ 31.310772889764401, 30.070462902117132 ], [ 31.306268385259898, 30.070462902117132 ], [ 31.306268385259898, 30.065958397612629 ], [ 31.310772889764401, 30.065958397612629 ] ] ] } },
{ "type": "Feature", "properties": { "cell_id": 4, "node_count": 0.0, "total_length": 0.0, "avg_degree": 0.0, "poi_count": 0, "text_des": "", "poi_categories": [ ] }, "geometry": { "type": "Polygon", "coordinates": [ [ [ 31.310772889764401, 30.070462902117136 ], [ 31.310772889764401, 30.074967406621639 ], [ 31.306268385259898, 30.074967406621639 ], [ 31.306268385259898, 30.070462902117136 ], [ 31.310772889764401, 30.070462902117136 ] ] ] } },
{ "type": "Feature", "properties": { "cell_id": 5, "node_count": 0.0, "total_length": 0.0, "avg_degree": 0.0, "poi_count": 0, "text_des": "", "poi_categories": [ ] }, "geometry": { "type": "Polygon", "coordinates": [ [ [ 31.315277394268904, 30.052444884099117 ], [ 31.315277394268904, 30.05694938860362 ], [ 31.310772889764401, 30.05694938860362 ], [ 31.310772889764401, 30.052444884099117 ], [ 31.315277394268904, 30.052444884099117 ] ] ] } },
{ "type": "Feature", "properties": { "cell_id": 6, "node_count": 0.0, "total_length": 0.0, "avg_degree": 0.0, "poi_count": 0, "text_des": "", "poi_categories": [ ] }, "geometry": { "type": "Polygon", "coordinates": [ [ [ 31.315277394268904, 30.05694938860362 ], [ 31.315277394268904, 30.061453893108123 ], [ 31.310772889764401, 30.061453893108123 ], [ 31.310772889764401, 30.05694938860362 ], [ 31.315277394268904, 30.05694938860362 ] ] ] } },
{ "type": "Feature", "properties": { "cell_id": 7, "node_count": 0.0, "total_length": 0.0, "avg_degree": 0.0, "poi_count": 1, "text_des": "تقع Faculty of Islamic Sciences for Non-Arabic Speaking International Students في القاهرة، مصر. نوع المنطقة: عام. البيانات من OpenStreetMap.", "poi_categories": [ "Education" ] }, "geometry": { "type": "Polygon", "coordinates": [ [ [ 31.315277394268904, 30.061453893108126 ], [ 31.315277394268904, 30.065958397612629 ], [ 31.310772889764401, 30.065958397612629 ], [ 31.310772889764401, 30.061453893108126 ], [ 31.315277394268904, 30.061453893108126 ] ] ] } },
{ "type": "Feature", "properties": { "cell_id": 8, "node_count": 0.0, "total_length": 0.0, "avg_degree": 0.0, "poi_count": 0, "text_des": "", "poi_categories": [ ] }, "geometry": { "type": "Polygon", "coordinates": [ [ [ 31.315277394268904, 30.065958397612629 ], [ 31.315277394268904, 30.070462902117132 ], [ 31.310772889764401, 30.070462902117132 ], [ 31.310772889764401, 30.065958397612629 ], [ 31.315277394268904, 30.065958397612629 ] ] ] } },
{ "type": "Feature", "properties": { "cell_id": 9, "node_count": 0.0, "total_length": 0.0, "avg_degree": 0.0, "poi_count": 0, "text_des": "", "poi_categories": [ ] }, "geometry": { "type": "Polygon", "coordinates": [ [ [ 31.315277394268904, 30.070462902117136 ], [ 31.315277394268904, 30.074967406621639 ], [ 31.310772889764401, 30.074967406621639 ], [ 31.310772889764401, 30.070462902117136 ], [ 31.315277394268904, 30.070462902117136 ] ] ] } },
{ "type": "Feature", "properties": { "cell_id": 10, "node_count": 0.0, "total_length": 0.0, "avg_degree": 0.0, "poi_count": 0, "text_des": "", "poi_categories": [ ] }, "geometry": { "type": "Polygon", "coordinates": [ [ [ 31.31978189877341, 30.052444884099117 ], [ 31.31978189877341, 30.05694938860362 ], [ 31.315277394268907, 30.05694938860362 ], [ 31.315277394268907, 30.052444884099117 ], [ 31.31978189877341, 30.052444884099117 ] ] ] } },
{ "type": "Feature", "properties": { "cell_id": 11, "node_count": 0.0, "total_length": 0.0, "avg_degree": 0.0, "poi_count": 0, "text_des": "", "poi_categories": [ ] }, "geometry": { "type": "Polygon", "coordinates": [ [ [ 31.31978189877341, 30.05694938860362 ], [ 31.31978189877341, 30.061453893108123 ], [ 31.315277394268907, 30.061453893108123 ], [ 31.315277394268907, 30.05694938860362 ], [ 31.31978189877341, 30.05694938860362 ] ] ] } },
{ "type": "Feature", "properties": { "cell_id": 12, "node_count": 0.0, "total_length": 0.0, "avg_degree": 0.0, "poi_count": 0, "text_des": "", "poi_categories": [ ] }, "geometry": { "type": "Polygon", "coordinates": [ [ [ 31.31978189877341, 30.061453893108126 ], [ 31.31978189877341, 30.065958397612629 ], [ 31.315277394268907, 30.065958397612629 ], [ 31.315277394268907, 30.061453893108126 ], [ 31.31978189877341, 30.061453893108126 ] ] ] } },
{ "type": "Feature", "properties": { "cell_id": 13, "node_count": 0.0, "total_length": 0.0, "avg_degree": 0.0, "poi_count": 0, "text_des": "", "poi_categories": [ ] }, "geometry": { "type": "Polygon", "coordinates": [ [ [ 31.31978189877341, 30.065958397612629 ], [ 31.31978189877341, 30.070462902117132 ], [ 31.315277394268907, 30.070462902117132 ], [ 31.315277394268907, 30.065958397612629 ], [ 31.31978189877341, 30.065958397612629 ] ] ] } },
{ "type": "Feature", "properties": { "cell_id": 14, "node_count": 0.0, "total_length": 0.0, "avg_degree": 0.0, "poi_count": 0, "text_des": "", "poi_categories": [ ] }, "geometry": { "type": "Polygon", "coordinates": [ [ [ 31.31978189877341, 30.070462902117136 ], [ 31.31978189877341, 30.074967406621639 ], [ 31.315277394268907, 30.074967406621639 ], [ 31.315277394268907, 30.070462902117136 ], [ 31.31978189877341, 30.070462902117136 ] ] ] } },
{ "type": "Feature", "properties": { "cell_id": 15, "node_count": 0.0, "total_length": 0.0, "avg_degree": 0.0, "poi_count": 1, "text_des": "nan", "poi_categories": [ "Government" ] }, "geometry": { "type": "Polygon", "coordinates": [ [ [ 31.324286403277913, 30.052444884099117 ], [ 31.324286403277913, 30.05694938860362 ], [ 31.31978189877341, 30.05694938860362 ], [ 31.31978189877341, 30.052444884099117 ], [ 31.324286403277913, 30.052444884099117 ] ] ] } },
{ "type": "Feature", "properties": { "cell_id": 16, "node_count": 0.0, "total_length": 0.0, "avg_degree": 0.0, "poi_count": 1, "text_des": "nan", "poi_categories": [ "Commercial" ] }, "geometry": { "type": "Polygon", "coordinates": [ [ [ 31.324286403277913, 30.05694938860362 ], [ 31.324286403277913, 30.061453893108123 ], [ 31.31978189877341, 30.061453893108123 ], [ 31.31978189877341, 30.05694938860362 ], [ 31.324286403277913, 30.05694938860362 ] ] ] } },
{ "type": "Feature", "properties": { "cell_id": 17, "node_count": 0.0, "total_length": 0.0, "avg_degree": 0.0, "poi_count": 0, "text_des": "", "poi_categories": [ ] }, "geometry": { "type": "Polygon", "coordinates": [ [ [ 31.324286403277913, 30.061453893108126 ], [ 31.324286403277913, 30.065958397612629 ], [ 31.31978189877341, 30.065958397612629 ], [ 31.31978189877341, 30.061453893108126 ], [ 31.324286403277913, 30.061453893108126 ] ] ] } },
{ "type": "Feature", "properties": { "cell_id": 18, "node_count": 0.0, "total_length": 0.0, "avg_degree": 0.0, "poi_count": 0, "text_des": "", "poi_categories": [ ] }, "geometry": { "type": "Polygon", "coordinates": [ [ [ 31.324286403277913, 30.065958397612629 ], [ 31.324286403277913, 30.070462902117132 ], [ 31.31978189877341, 30.070462902117132 ], [ 31.31978189877341, 30.065958397612629 ], [ 31.324286403277913, 30.065958397612629 ] ] ] } },
{ "type": "Feature", "properties": { "cell_id": 19, "node_count": 0.0, "total_length": 0.0, "avg_degree": 0.0, "poi_count": 1, "text_des": "تقع د. ممدوح لبيب في القاهرة، مصر. نوع المنطقة: عام. البيانات من OpenStreetMap.", "poi_categories": [ "Health" ] }, "geometry": { "type": "Polygon", "coordinates": [ [ [ 31.324286403277913, 30.070462902117136 ], [ 31.324286403277913, 30.074967406621639 ], [ 31.31978189877341, 30.074967406621639 ], [ 31.31978189877341, 30.070462902117136 ], [ 31.324286403277913, 30.070462902117136 ] ] ] } },
{ "type": "Feature", "properties": { "cell_id": 20, "node_count": 0.0, "total_length": 0.0, "avg_degree": 0.0, "poi_count": 0, "text_des": "", "poi_categories": [ ] }, "geometry": { "type": "Polygon", "coordinates": [ [ [ 31.32879090778242, 30.052444884099117 ], [ 31.32879090778242, 30.05694938860362 ], [ 31.324286403277917, 30.05694938860362 ], [ 31.324286403277917, 30.052444884099117 ], [ 31.32879090778242, 30.052444884099117 ] ] ] } },
{ "type": "Feature", "properties": { "cell_id": 21, "node_count": 0.0, "total_length": 0.0, "avg_degree": 0.0, "poi_count": 0, "text_des": "", "poi_categories": [ ] }, "geometry": { "type": "Polygon", "coordinates": [ [ [ 31.32879090778242, 30.05694938860362 ], [ 31.32879090778242, 30.061453893108123 ], [ 31.324286403277917, 30.061453893108123 ], [ 31.324286403277917, 30.05694938860362 ], [ 31.32879090778242, 30.05694938860362 ] ] ] } },
{ "type": "Feature", "properties": { "cell_id": 22, "node_count": 0.0, "total_length": 0.0, "avg_degree": 0.0, "poi_count": 1, "text_des": "تقع أن أس جي بي في القاهرة، مصر. نوع المنطقة: بنك. البيانات من :contentReference[oaicite:1]{index=1}.", "poi_categories": [ "Bank" ] }, "geometry": { "type": "Polygon", "coordinates": [ [ [ 31.32879090778242, 30.061453893108126 ], [ 31.32879090778242, 30.065958397612629 ], [ 31.324286403277917, 30.065958397612629 ], [ 31.324286403277917, 30.061453893108126 ], [ 31.32879090778242, 30.061453893108126 ] ] ] } },
{ "type": "Feature", "properties": { "cell_id": 23, "node_count": 0.0, "total_length": 0.0, "avg_degree": 0.0, "poi_count": 0, "text_des": "", "poi_categories": [ ] }, "geometry": { "type": "Polygon", "coordinates": [ [ [ 31.32879090778242, 30.065958397612629 ], [ 31.32879090778242, 30.070462902117132 ], [ 31.324286403277917, 30.070462902117132 ], [ 31.324286403277917, 30.065958397612629 ], [ 31.32879090778242, 30.065958397612629 ] ] ] } },
{ "type": "Feature", "properties": { "cell_id": 24, "node_count": 0.0, "total_length": 0.0, "avg_degree": 0.0, "poi_count": 0, "text_des": "", "poi_categories": [ ] }, "geometry": { "type": "Polygon", "coordinates": [ [ [ 31.32879090778242, 30.070462902117136 ], [ 31.32879090778242, 30.074967406621639 ], [ 31.324286403277917, 30.074967406621639 ], [ 31.324286403277917, 30.070462902117136 ], [ 31.32879090778242, 30.070462902117136 ] ] ] } },
{ "type": "Feature", "properties": { "cell_id": 25, "node_count": 0.0, "total_length": 0.0, "avg_degree": 0.0, "poi_count": 3, "text_des": "تقع مستشفي جمال ابو العزايم في القاهرة، مصر. نوع المنطقة: مستشفى. البيانات من OpenStreetMap. nan nan", "poi_categories": [ "Health", "Commercial" ] }, "geometry": { "type": "Polygon", "coordinates": [ [ [ 31.333295412286922, 30.052444884099117 ], [ 31.333295412286922, 30.05694938860362 ], [ 31.32879090778242, 30.05694938860362 ], [ 31.32879090778242, 30.052444884099117 ], [ 31.333295412286922, 30.052444884099117 ] ] ] } },
{ "type": "Feature", "properties": { "cell_id": 26, "node_count": 0.0, "total_length": 0.0, "avg_degree": 0.0, "poi_count": 2, "text_des": "nan nan", "poi_categories": [ "Commercial", "Government" ] }, "geometry": { "type": "Polygon", "coordinates": [ [ [ 31.333295412286922, 30.05694938860362 ], [ 31.333295412286922, 30.061453893108123 ], [ 31.32879090778242, 30.061453893108123 ], [ 31.32879090778242, 30.05694938860362 ], [ 31.333295412286922, 30.05694938860362 ] ] ] } },
{ "type": "Feature", "properties": { "cell_id": 27, "node_count": 0.0, "total_length": 0.0, "avg_degree": 0.0, "poi_count": 0, "text_des": "", "poi_categories": [ ] }, "geometry": { "type": "Polygon", "coordinates": [ [ [ 31.333295412286922, 30.061453893108126 ], [ 31.333295412286922, 30.065958397612629 ], [ 31.32879090778242, 30.065958397612629 ], [ 31.32879090778242, 30.061453893108126 ], [ 31.333295412286922, 30.061453893108126 ] ] ] } },
{ "type": "Feature", "properties": { "cell_id": 28, "node_count": 0.0, "total_length": 0.0, "avg_degree": 0.0, "poi_count": 0, "text_des": "", "poi_categories": [ ] }, "geometry": { "type": "Polygon", "coordinates": [ [ [ 31.333295412286922, 30.065958397612629 ], [ 31.333295412286922, 30.070462902117132 ], [ 31.32879090778242, 30.070462902117132 ], [ 31.32879090778242, 30.065958397612629 ], [ 31.333295412286922, 30.065958397612629 ] ] ] } },
{ "type": "Feature", "properties": { "cell_id": 29, "node_count": 0.0, "total_length": 0.0, "avg_degree": 0.0, "poi_count": 0, "text_des": "", "poi_categories": [ ] }, "geometry": { "type": "Polygon", "coordinates": [ [ [ 31.333295412286922, 30.070462902117136 ], [ 31.333295412286922, 30.074967406621639 ], [ 31.32879090778242, 30.074967406621639 ], [ 31.32879090778242, 30.070462902117136 ], [ 31.333295412286922, 30.070462902117136 ] ] ] } },
{ "type": "Feature", "properties": { "cell_id": 30, "node_count": 0.0, "total_length": 0.0, "avg_degree": 0.0, "poi_count": 0, "text_des": "", "poi_categories": [ ] }, "geometry": { "type": "Polygon", "coordinates": [ [ [ 31.337799916791429, 30.052444884099117 ], [ 31.337799916791429, 30.05694938860362 ], [ 31.333295412286926, 30.05694938860362 ], [ 31.333295412286926, 30.052444884099117 ], [ 31.337799916791429, 30.052444884099117 ] ] ] } },
{ "type": "Feature", "properties": { "cell_id": 31, "node_count": 0.0, "total_length": 0.0, "avg_degree": 0.0, "poi_count": 3, "text_des": "تقع مدينة نصر الثانوية الصناعية في القاهرة، مصر. نوع المنطقة: مدرسة. البيانات من OpenStreetMap. تقع COMMERCIAL INTERNATIONAL BANK في القاهرة، مصر. نوع المنطقة: بنك. البيانات من :contentReference[oaicite:1]{index=1}. nan", "poi_categories": [ "Education", "Bank", "Government" ] }, "geometry": { "type": "Polygon", "coordinates": [ [ [ 31.337799916791429, 30.05694938860362 ], [ 31.337799916791429, 30.061453893108123 ], [ 31.333295412286926, 30.061453893108123 ], [ 31.333295412286926, 30.05694938860362 ], [ 31.337799916791429, 30.05694938860362 ] ] ] } },
{ "type": "Feature", "properties": { "cell_id": 32, "node_count": 0.0, "total_length": 0.0, "avg_degree": 0.0, "poi_count": 1, "text_des": "nan", "poi_categories": [ "Commercial" ] }, "geometry": { "type": "Polygon", "coordinates": [ [ [ 31.337799916791429, 30.061453893108126 ], [ 31.337799916791429, 30.065958397612629 ], [ 31.333295412286926, 30.065958397612629 ], [ 31.333295412286926, 30.061453893108126 ], [ 31.337799916791429, 30.061453893108126 ] ] ] } },
{ "type": "Feature", "properties": { "cell_id": 33, "node_count": 0.0, "total_length": 0.0, "avg_degree": 0.0, "poi_count": 0, "text_des": "", "poi_categories": [ ] }, "geometry": { "type": "Polygon", "coordinates": [ [ [ 31.337799916791429, 30.065958397612629 ], [ 31.337799916791429, 30.070462902117132 ], [ 31.333295412286926, 30.070462902117132 ], [ 31.333295412286926, 30.065958397612629 ], [ 31.337799916791429, 30.065958397612629 ] ] ] } },
{ "type": "Feature", "properties": { "cell_id": 34, "node_count": 0.0, "total_length": 0.0, "avg_degree": 0.0, "poi_count": 0, "text_des": "", "poi_categories": [ ] }, "geometry": { "type": "Polygon", "coordinates": [ [ [ 31.337799916791429, 30.070462902117136 ], [ 31.337799916791429, 30.074967406621639 ], [ 31.333295412286926, 30.074967406621639 ], [ 31.333295412286926, 30.070462902117136 ], [ 31.337799916791429, 30.070462902117136 ] ] ] } },
{ "type": "Feature", "properties": { "cell_id": 35, "node_count": 0.0, "total_length": 0.0, "avg_degree": 0.0, "poi_count": 3, "text_des": "تقع بنك الاستثمار العربي في القاهرة، مصر. نوع المنطقة: بنك. البيانات من :contentReference[oaicite:1]{index=1}. تقع CIB في القاهرة، مصر. نوع المنطقة: بنك. البيانات من :contentReference[oaicite:1]{index=1}. nan", "poi_categories": [ "Bank", "Commercial" ] }, "geometry": { "type": "Polygon", "coordinates": [ [ [ 31.342304421295932, 30.052444884099117 ], [ 31.342304421295932, 30.05694938860362 ], [ 31.337799916791429, 30.05694938860362 ], [ 31.337799916791429, 30.052444884099117 ], [ 31.342304421295932, 30.052444884099117 ] ] ] } },
{ "type": "Feature", "properties": { "cell_id": 36, "node_count": 0.0, "total_length": 0.0, "avg_degree": 0.0, "poi_count": 3, "text_des": "تقع بنك عودة - فرع عباس العقاد في القاهرة، مصر. نوع المنطقة: بنك. البيانات من :contentReference[oaicite:1]{index=1}. nan nan", "poi_categories": [ "Bank", "Commercial" ] }, "geometry": { "type": "Polygon", "coordinates": [ [ [ 31.342304421295932, 30.05694938860362 ], [ 31.342304421295932, 30.061453893108123 ], [ 31.337799916791429, 30.061453893108123 ], [ 31.337799916791429, 30.05694938860362 ], [ 31.342304421295932, 30.05694938860362 ] ] ] } },
{ "type": "Feature", "properties": { "cell_id": 37, "node_count": 0.0, "total_length": 0.0, "avg_degree": 0.0, "poi_count": 2, "text_des": "تقع سي أي بي في القاهرة، مصر. نوع المنطقة: بنك. البيانات من :contentReference[oaicite:1]{index=1}. تقع Crédit Agricole في القاهرة، مصر. نوع المنطقة: بنك. البيانات من :contentReference[oaicite:1]{index=1}.", "poi_categories": [ "Bank" ] }, "geometry": { "type": "Polygon", "coordinates": [ [ [ 31.342304421295932, 30.061453893108126 ], [ 31.342304421295932, 30.065958397612629 ], [ 31.337799916791429, 30.065958397612629 ], [ 31.337799916791429, 30.061453893108126 ], [ 31.342304421295932, 30.061453893108126 ] ] ] } },
{ "type": "Feature", "properties": { "cell_id": 38, "node_count": 0.0, "total_length": 0.0, "avg_degree": 0.0, "poi_count": 0, "text_des": "", "poi_categories": [ ] }, "geometry": { "type": "Polygon", "coordinates": [ [ [ 31.342304421295932, 30.065958397612629 ], [ 31.342304421295932, 30.070462902117132 ], [ 31.337799916791429, 30.070462902117132 ], [ 31.337799916791429, 30.065958397612629 ], [ 31.342304421295932, 30.065958397612629 ] ] ] } },
{ "type": "Feature", "properties": { "cell_id": 39, "node_count": 0.0, "total_length": 0.0, "avg_degree": 0.0, "poi_count": 0, "text_des": "", "poi_categories": [ ] }, "geometry": { "type": "Polygon", "coordinates": [ [ [ 31.342304421295932, 30.070462902117136 ], [ 31.342304421295932, 30.074967406621639 ], [ 31.337799916791429, 30.074967406621639 ], [ 31.337799916791429, 30.070462902117136 ], [ 31.342304421295932, 30.070462902117136 ] ] ] } },
{ "type": "Feature", "properties": { "cell_id": 40, "node_count": 0.0, "total_length": 0.0, "avg_degree": 0.0, "poi_count": 2, "text_des": "تقع بنك الكويت الوطنى في القاهرة، مصر. نوع المنطقة: بنك. البيانات من :contentReference[oaicite:1]{index=1}. تقع البنك الاهلي المصرى في القاهرة، مصر. نوع المنطقة: بنك. البيانات من :contentReference[oaicite:1]{index=1}.", "poi_categories": [ "Bank" ] }, "geometry": { "type": "Polygon", "coordinates": [ [ [ 31.346808925800438, 30.052444884099117 ], [ 31.346808925800438, 30.05694938860362 ], [ 31.342304421295935, 30.05694938860362 ], [ 31.342304421295935, 30.052444884099117 ], [ 31.346808925800438, 30.052444884099117 ] ] ] } },
{ "type": "Feature", "properties": { "cell_id": 41, "node_count": 0.0, "total_length": 0.0, "avg_degree": 0.0, "poi_count": 3, "text_des": "تقع Kibeida Academy في القاهرة، مصر. نوع المنطقة: مدرسة. البيانات من OpenStreetMap. nan nan", "poi_categories": [ "Education", "Commercial" ] }, "geometry": { "type": "Polygon", "coordinates": [ [ [ 31.346808925800438, 30.05694938860362 ], [ 31.346808925800438, 30.061453893108123 ], [ 31.342304421295935, 30.061453893108123 ], [ 31.342304421295935, 30.05694938860362 ], [ 31.346808925800438, 30.05694938860362 ] ] ] } },
{ "type": "Feature", "properties": { "cell_id": 42, "node_count": 0.0, "total_length": 0.0, "avg_degree": 0.0, "poi_count": 3, "text_des": "تقع مركز الإيمان الطبي في القاهرة، مصر. نوع المنطقة: مستشفى. البيانات من OpenStreetMap. تقع مستشفى العاملين بقطاع البترول في القاهرة، مصر. نوع المنطقة: مستشفى. البيانات من OpenStreetMap. تقع أن أس جي بي في القاهرة، مصر. نوع المنطقة: بنك. البيانات من :contentReference[oaicite:1]{index=1}.", "poi_categories": [ "Health", "Bank" ] }, "geometry": { "type": "Polygon", "coordinates": [ [ [ 31.346808925800438, 30.061453893108126 ], [ 31.346808925800438, 30.065958397612629 ], [ 31.342304421295935, 30.065958397612629 ], [ 31.342304421295935, 30.061453893108126 ], [ 31.346808925800438, 30.061453893108126 ] ] ] } },
{ "type": "Feature", "properties": { "cell_id": 43, "node_count": 0.0, "total_length": 0.0, "avg_degree": 0.0, "poi_count": 2, "text_des": "تقع عودة في القاهرة، مصر. نوع المنطقة: بنك. البيانات من :contentReference[oaicite:1]{index=1}. تقع بنك القاهرة في القاهرة، مصر. نوع المنطقة: بنك. البيانات من :contentReference[oaicite:1]{index=1}.", "poi_categories": [ "Bank" ] }, "geometry": { "type": "Polygon", "coordinates": [ [ [ 31.346808925800438, 30.065958397612629 ], [ 31.346808925800438, 30.070462902117132 ], [ 31.342304421295935, 30.070462902117132 ], [ 31.342304421295935, 30.065958397612629 ], [ 31.346808925800438, 30.065958397612629 ] ] ] } },
{ "type": "Feature", "properties": { "cell_id": 44, "node_count": 0.0, "total_length": 0.0, "avg_degree": 0.0, "poi_count": 4, "text_des": "تقع بنك الاسكندرية في القاهرة، مصر. نوع المنطقة: بنك. البيانات من :contentReference[oaicite:1]{index=1}. تقع Banque MISR في القاهرة، مصر. نوع المنطقة: بنك. البيانات من :contentReference[oaicite:1]{index=1}. تقع هذه المنشأة في القاهرة، مصر. نوع المنطقة: مول تجاري (Mall). البيانات من OpenStreetMap. تقع هذه المنشأة في القاهرة، مصر. نوع المنطقة: مول تجاري (Mall). البيانات من OpenStreetMap.", "poi_categories": [ "Bank", "Mall" ] }, "geometry": { "type": "Polygon", "coordinates": [ [ [ 31.346808925800438, 30.070462902117136 ], [ 31.346808925800438, 30.074967406621639 ], [ 31.342304421295935, 30.074967406621639 ], [ 31.342304421295935, 30.070462902117136 ], [ 31.346808925800438, 30.070462902117136 ] ] ] } },
{ "type": "Feature", "properties": { "cell_id": 45, "node_count": 0.0, "total_length": 0.0, "avg_degree": 0.0, "poi_count": 2, "text_des": "تقع بنك باركليز في القاهرة، مصر. نوع المنطقة: بنك. البيانات من :contentReference[oaicite:1]{index=1}. nan", "poi_categories": [ "Bank", "Commercial" ] }, "geometry": { "type": "Polygon", "coordinates": [ [ [ 31.351313430304941, 30.052444884099117 ], [ 31.351313430304941, 30.05694938860362 ], [ 31.346808925800438, 30.05694938860362 ], [ 31.346808925800438, 30.052444884099117 ], [ 31.351313430304941, 30.052444884099117 ] ] ] } },
{ "type": "Feature", "properties": { "cell_id": 46, "node_count": 0.0, "total_length": 0.0, "avg_degree": 0.0, "poi_count": 0, "text_des": "", "poi_categories": [ ] }, "geometry": { "type": "Polygon", "coordinates": [ [ [ 31.351313430304941, 30.05694938860362 ], [ 31.351313430304941, 30.061453893108123 ], [ 31.346808925800438, 30.061453893108123 ], [ 31.346808925800438, 30.05694938860362 ], [ 31.351313430304941, 30.05694938860362 ] ] ] } },
{ "type": "Feature", "properties": { "cell_id": 47, "node_count": 0.0, "total_length": 0.0, "avg_degree": 0.0, "poi_count": 3, "text_des": "تقع منظمه الصحه العالمية في القاهرة، مصر. نوع المنطقة: مستشفى. البيانات من OpenStreetMap. تقع مستشفى الكبد د يس عبد الغفار الخيرية في القاهرة، مصر. نوع المنطقة: مستشفى. البيانات من OpenStreetMap. nan", "poi_categories": [ "Health", "Government" ] }, "geometry": { "type": "Polygon", "coordinates": [ [ [ 31.351313430304941, 30.061453893108126 ], [ 31.351313430304941, 30.065958397612629 ], [ 31.346808925800438, 30.065958397612629 ], [ 31.346808925800438, 30.061453893108126 ], [ 31.351313430304941, 30.061453893108126 ] ] ] } },
{ "type": "Feature", "properties": { "cell_id": 48, "node_count": 0.0, "total_length": 0.0, "avg_degree": 0.0, "poi_count": 0, "text_des": "", "poi_categories": [ ] }, "geometry": { "type": "Polygon", "coordinates": [ [ [ 31.351313430304941, 30.065958397612629 ], [ 31.351313430304941, 30.070462902117132 ], [ 31.346808925800438, 30.070462902117132 ], [ 31.346808925800438, 30.065958397612629 ], [ 31.351313430304941, 30.065958397612629 ] ] ] } },
{ "type": "Feature", "properties": { "cell_id": 49, "node_count": 0.0, "total_length": 0.0, "avg_degree": 0.0, "poi_count": 0, "text_des": "", "poi_categories": [ ] }, "geometry": { "type": "Polygon", "coordinates": [ [ [ 31.351313430304941, 30.070462902117136 ], [ 31.351313430304941, 30.074967406621639 ], [ 31.346808925800438, 30.074967406621639 ], [ 31.346808925800438, 30.070462902117136 ], [ 31.351313430304941, 30.070462902117136 ] ] ] } },
{ "type": "Feature", "properties": { "cell_id": 50, "node_count": 0.0, "total_length": 0.0, "avg_degree": 0.0, "poi_count": 2, "text_des": "تقع د. ملك نادر في القاهرة، مصر. نوع المنطقة: عام. البيانات من OpenStreetMap. تقع مدرسة مدينة نصر الثانوية الفنية التجارية بنات في القاهرة، مصر. نوع المنطقة: مدرسة. البيانات من OpenStreetMap.", "poi_categories": [ "Health", "Education" ] }, "geometry": { "type": "Polygon", "coordinates": [ [ [ 31.355817934809448, 30.052444884099117 ], [ 31.355817934809448, 30.05694938860362 ], [ 31.351313430304945, 30.05694938860362 ], [ 31.351313430304945, 30.052444884099117 ], [ 31.355817934809448, 30.052444884099117 ] ] ] } },
{ "type": "Feature", "properties": { "cell_id": 51, "node_count": 0.0, "total_length": 0.0, "avg_degree": 0.0, "poi_count": 1, "text_des": "تقع Hsbc bank في القاهرة، مصر. نوع المنطقة: بنك. البيانات من :contentReference[oaicite:1]{index=1}.", "poi_categories": [ "Bank" ] }, "geometry": { "type": "Polygon", "coordinates": [ [ [ 31.355817934809448, 30.05694938860362 ], [ 31.355817934809448, 30.061453893108123 ], [ 31.351313430304945, 30.061453893108123 ], [ 31.351313430304945, 30.05694938860362 ], [ 31.355817934809448, 30.05694938860362 ] ] ] } },
{ "type": "Feature", "properties": { "cell_id": 52, "node_count": 0.0, "total_length": 0.0, "avg_degree": 0.0, "poi_count": 0, "text_des": "", "poi_categories": [ ] }, "geometry": { "type": "Polygon", "coordinates": [ [ [ 31.355817934809448, 30.061453893108126 ], [ 31.355817934809448, 30.065958397612629 ], [ 31.351313430304945, 30.065958397612629 ], [ 31.351313430304945, 30.061453893108126 ], [ 31.355817934809448, 30.061453893108126 ] ] ] } },
{ "type": "Feature", "properties": { "cell_id": 53, "node_count": 0.0, "total_length": 0.0, "avg_degree": 0.0, "poi_count": 0, "text_des": "", "poi_categories": [ ] }, "geometry": { "type": "Polygon", "coordinates": [ [ [ 31.355817934809448, 30.065958397612629 ], [ 31.355817934809448, 30.070462902117132 ], [ 31.351313430304945, 30.070462902117132 ], [ 31.351313430304945, 30.065958397612629 ], [ 31.355817934809448, 30.065958397612629 ] ] ] } },
{ "type": "Feature", "properties": { "cell_id": 54, "node_count": 0.0, "total_length": 0.0, "avg_degree": 0.0, "poi_count": 0, "text_des": "", "poi_categories": [ ] }, "geometry": { "type": "Polygon", "coordinates": [ [ [ 31.355817934809448, 30.070462902117136 ], [ 31.355817934809448, 30.074967406621639 ], [ 31.351313430304945, 30.074967406621639 ], [ 31.351313430304945, 30.070462902117136 ], [ 31.355817934809448, 30.070462902117136 ] ] ] } }
]
}
