{
"type": "FeatureCollection",
"name": "grid_6d581e64",
"crs": { "type": "name", "properties": { "name": "urn:ogc:def:crs:OGC:1.3:CRS84" } },
"features": [
{ "type": "Feature", "properties": { "cell_id": 0, "node_count": 168.0, "total_length": 21115.87109375, "avg_degree": 3.1369047164916992, "poi_count": 0, "text_des": "" }, "geometry": { "type": "Polygon", "coordinates": [ [ [ 31.242373970778125, 30.025036304248104 ], [ 31.242373970778125, 30.029540808752607 ], [ 31.237869466273622, 30.029540808752607 ], [ 31.237869466273622, 30.025036304248104 ], [ 31.242373970778125, 30.025036304248104 ] ] ] } }
]
}
