{
"type": "FeatureCollection",
"name": "grid_a88f8c57",
"crs": { "type": "name", "properties": { "name": "urn:ogc:def:crs:OGC:1.3:CRS84" } },
"features": [
{ "type": "Feature", "properties": { "cell_id": 0, "node_count": 0.0, "total_length": 0.0, "avg_degree": 0.0, "poi_count": 2, "text_des": "تقع بنك الاسكندرية في القاهرة، مصر. نوع المنطقة: بنك. البيانات من :contentReference[oaicite:1]{index=1}. تقع Banque MISR في القاهرة، مصر. نوع المنطقة: بنك. البيانات من :contentReference[oaicite:1]{index=1}.", "poi_categories": [ "Bank" ] }, "geometry": { "type": "Polygon", "coordinates": [ [ [ 31.345345754008925, 30.070825176120735 ], [ 31.345345754008925, 30.075329680625238 ], [ 31.340841249504422, 30.075329680625238 ], [ 31.340841249504422, 30.070825176120735 ], [ 31.345345754008925, 30.070825176120735 ] ] ] } },
{ "type": "Feature", "properties": { "cell_id": 1, "node_count": 0.0, "total_length": 0.0, "avg_degree": 0.0, "poi_count": 2, "text_des": "تقع هذه المنشأة في القاهرة، مصر. نوع المنطقة: مول تجاري (Mall). البيانات من OpenStreetMap. تقع هذه المنشأة في القاهرة، مصر. نوع المنطقة: مول تجاري (Mall). البيانات من OpenStreetMap.", "poi_categories": [ "Mall" ] }, "geometry": { "type": "Polygon", "coordinates": [ [ [ 31.349850258513428, 30.070825176120735 ], [ 31.349850258513428, 30.075329680625238 ], [ 31.345345754008925, 30.075329680625238 ], [ 31.345345754008925, 30.070825176120735 ], [ 31.349850258513428, 30.070825176120735 ] ] ] } }
]
}
