{
"type": "FeatureCollection",
"name": "grid_b0a37428",
"crs": { "type": "name", "properties": { "name": "urn:ogc:def:crs:OGC:1.3:CRS84" } },
"features": [
{ "type": "Feature", "properties": { "cell_id": 0, "poi_count": 0, "text_des": "", "poi_categories": [ ] }, "geometry": { "type": "Polygon", "coordinates": [ [ [ 31.004504504504503, 30.0 ], [ 31.004504504504503, 30.004504504504503 ], [ 31.0, 30.004504504504503 ], [ 31.0, 30.0 ], [ 31.004504504504503, 30.0 ] ] ] } },
{ "type": "Feature", "properties": { "cell_id": 1, "poi_count": 0, "text_des": "", "poi_categories": [ ] }, "geometry": { "type": "Polygon", "coordinates": [ [ [ 31.004504504504503, 30.004504504504503 ], [ 31.004504504504503, 30.009009009009006 ], [ 31.0, 30.009009009009006 ], [ 31.0, 30.004504504504503 ], [ 31.004504504504503, 30.004504504504503 ] ] ] } },
{ "type": "Feature", "properties": { "cell_id": 2, "poi_count": 0, "text_des": "", "poi_categories": [ ] }, "geometry": { "type": "Polygon", "coordinates": [ [ [ 31.004504504504503, 30.009009009009009 ], [ 31.004504504504503, 30.013513513513512 ], [ 31.0, 30.013513513513512 ], [ 31.0, 30.009009009009009 ], [ 31.004504504504503, 30.009009009009009 ] ] ] } },
{ "type": "Feature", "properties": { "cell_id": 3, "poi_count": 0, "text_des": "", "poi_categories": [ ] }, "geometry": { "type": "Polygon", "coordinates": [ [ [ 31.004504504504503, 30.013513513513512 ], [ 31.004504504504503, 30.018018018018015 ], [ 31.0, 30.018018018018015 ], [ 31.0, 30.013513513513512 ], [ 31.004504504504503, 30.013513513513512 ] ] ] } },
{ "type": "Feature", "properties": { "cell_id": 4, "poi_count": 0, "text_des": "", "poi_categories": [ ] }, "geometry": { "type": "Polygon", "coordinates": [ [ [ 31.004504504504503, 30.018018018018019 ], [ 31.004504504504503, 30.022522522522522 ], [ 31.0, 30.022522522522522 ], [ 31.0, 30.018018018018019 ], [ 31.004504504504503, 30.018018018018019 ] ] ] } },
{ "type": "Feature", "properties": { "cell_id": 5, "poi_count": 0, "text_des": "", "poi_categories": [ ] }, "geometry": { "type": "Polygon", "coordinates": [ [ [ 31.004504504504503, 30.022522522522522 ], [ 31.004504504504503, 30.027027027027025 ], [ 31.0, 30.027027027027025 ], [ 31.0, 30.022522522522522 ], [ 31.004504504504503, 30.022522522522522 ] ] ] } },
{ "type": "Feature", "properties": { "cell_id": 6, "poi_count": 1, "text_des": "تقع Seniors Dental Clinic في القاهرة، مصر. نوع المنطقة: مستشفى. البيانات من OpenStreetMap.", "poi_categories": [ "Health" ] }, "geometry": { "type": "Polygon", "coordinates": [ [ [ 31.004504504504503, 30.027027027027028 ], [ 31.004504504504503, 30.031531531531531 ], [ 31.0, 30.031531531531531 ], [ 31.0, 30.027027027027028 ], [ 31.004504504504503, 30.027027027027028 ] ] ] } },
{ "type": "Feature", "properties": { "cell_id": 7, "poi_count": 0, "text_des": "", "poi_categories": [ ] }, "geometry": { "type": "Polygon", "coordinates": [ [ [ 31.004504504504503, 30.031531531531531 ], [ 31.004504504504503, 30.036036036036034 ], [ 31.0, 30.036036036036034 ], [ 31.0, 30.031531531531531 ], [ 31.004504504504503, 30.031531531531531 ] ] ] } },
{ "type": "Feature", "properties": { "cell_id": 8, "poi_count": 0, "text_des": "", "poi_categories": [ ] }, "geometry": { "type": "Polygon", "coordinates": [ [ [ 31.004504504504503, 30.036036036036037 ], [ 31.004504504504503, 30.04054054054054 ], [ 31.0, 30.04054054054054 ], [ 31.0, 30.036036036036037 ], [ 31.004504504504503, 30.036036036036037 ] ] ] } },
{ "type": "Feature", "properties": { "cell_id": 9, "poi_count": 0, "text_des": "", "poi_categories": [ ] }, "geometry": { "type": "Polygon", "coordinates": [ [ [ 31.004504504504503, 30.04054054054054 ], [ 31.004504504504503, 30.045045045045043 ], [ 31.0, 30.045045045045043 ], [ 31.0, 30.04054054054054 ], [ 31.004504504504503, 30.04054054054054 ] ] ] } },
{ "type": "Feature", "properties": { "cell_id": 10, "poi_count": 0, "text_des": "", "poi_categories": [ ] }, "geometry": { "type": "Polygon", "coordinates": [ [ [ 31.004504504504503, 30.045045045045047 ], [ 31.004504504504503, 30.04954954954955 ], [ 31.0, 30.04954954954955 ], [ 31.0, 30.045045045045047 ], [ 31.004504504504503, 30.045045045045047 ] ] ] } },
{ "type": "Feature", "properties": { "cell_id": 11, "poi_count": 0, "text_des": "", "poi_categories": [ ] }, "geometry": { "type": "Polygon", "coordinates": [ [ [ 31.004504504504503, 30.04954954954955 ], [ 31.004504504504503, 30.054054054054053 ], [ 31.0, 30.054054054054053 ], [ 31.0, 30.04954954954955 ], [ 31.004504504504503, 30.04954954954955 ] ] ] } },
{ "type": "Feature", "properties": { "cell_id": 12, "poi_count": 0, "text_des": "", "poi_categories": [ ] }, "geometry": { "type": "Polygon", "coordinates": [ [ [ 31.004504504504503, 30.054054054054053 ], [ 31.004504504504503, 30.058558558558556 ], [ 31.0, 30.058558558558556 ], [ 31.0, 30.054054054054053 ], [ 31.004504504504503, 30.054054054054053 ] ] ] } },
{ "type": "Feature", "properties": { "cell_id": 13, "poi_count": 0, "text_des": "", "poi_categories": [ ] }, "geometry": { "type": "Polygon", "coordinates": [ [ [ 31.004504504504503, 30.058558558558559 ], [ 31.004504504504503, 30.063063063063062 ], [ 31.0, 30.063063063063062 ], [ 31.0, 30.058558558558559 ], [ 31.004504504504503, 30.058558558558559 ] ] ] } },
{ "type": "Feature", "properties": { "cell_id": 14, "poi_count": 0, "text_des": "", "poi_categories": [ ] }, "geometry": { "type": "Polygon", "coordinates": [ [ [ 31.004504504504503, 30.063063063063062 ], [ 31.004504504504503, 30.067567567567565 ], [ 31.0, 30.067567567567565 ], [ 31.0, 30.063063063063062 ], [ 31.004504504504503, 30.063063063063062 ] ] ] } },
{ "type": "Feature", "properties": { "cell_id": 15, "poi_count": 0, "text_des": "", "poi_categories": [ ] }, "geometry": { "type": "Polygon", "coordinates": [ [ [ 31.004504504504503, 30.067567567567568 ], [ 31.004504504504503, 30.072072072072071 ], [ 31.0, 30.072072072072071 ], [ 31.0, 30.067567567567568 ], [ 31.004504504504503, 30.067567567567568 ] ] ] } },
{ "type": "Feature", "properties": { "cell_id": 16, "poi_count": 0, "text_des": "", "poi_categories": [ ] }, "geometry": { "type": "Polygon", "coordinates": [ [ [ 31.009009009009006, 30.0 ], [ 31.009009009009006, 30.004504504504503 ], [ 31.004504504504503, 30.004504504504503 ], [ 31.004504504504503, 30.0 ], [ 31.009009009009006, 30.0 ] ] ] } },
{ "type": "Feature", "properties": { "cell_id": 17, "poi_count": 0, "text_des": "", "poi_categories": [ ] }, "geometry": { "type": "Polygon", "coordinates": [ [ [ 31.009009009009006, 30.004504504504503 ], [ 31.009009009009006, 30.009009009009006 ], [ 31.004504504504503, 30.009009009009006 ], [ 31.004504504504503, 30.004504504504503 ], [ 31.009009009009006, 30.004504504504503 ] ] ] } },
{ "type": "Feature", "properties": { "cell_id": 18, "poi_count": 0, "text_des": "", "poi_categories": [ ] }, "geometry": { "type": "Polygon", "coordinates": [ [ [ 31.009009009009006, 30.009009009009009 ], [ 31.009009009009006, 30.013513513513512 ], [ 31.004504504504503, 30.013513513513512 ], [ 31.004504504504503, 30.009009009009009 ], [ 31.009009009009006, 30.009009009009009 ] ] ] } },
{ "type": "Feature", "properties": { "cell_id": 19, "poi_count": 0, "text_des": "", "poi_categories": [ ] }, "geometry": { "type": "Polygon", "coordinates": [ [ [ 31.009009009009006, 30.013513513513512 ], [ 31.009009009009006, 30.018018018018015 ], [ 31.004504504504503, 30.018018018018015 ], [ 31.004504504504503, 30.013513513513512 ], [ 31.009009009009006, 30.013513513513512 ] ] ] } },
{ "type": "Feature", "properties": { "cell_id": 20, "poi_count": 1, "text_des": "تقع Rofayda Maternity Hospital في القاهرة، مصر. نوع المنطقة: مستشفى. البيانات من OpenStreetMap.", "poi_categories": [ "Health" ] }, "geometry": { "type": "Polygon", "coordinates": [ [ [ 31.009009009009006, 30.018018018018019 ], [ 31.009009009009006, 30.022522522522522 ], [ 31.004504504504503, 30.022522522522522 ], [ 31.004504504504503, 30.018018018018019 ], [ 31.009009009009006, 30.018018018018019 ] ] ] } },
{ "type": "Feature", "properties": { "cell_id": 21, "poi_count": 0, "text_des": "", "poi_categories": [ ] }, "geometry": { "type": "Polygon", "coordinates": [ [ [ 31.009009009009006, 30.022522522522522 ], [ 31.009009009009006, 30.027027027027025 ], [ 31.004504504504503, 30.027027027027025 ], [ 31.004504504504503, 30.022522522522522 ], [ 31.009009009009006, 30.022522522522522 ] ] ] } },
{ "type": "Feature", "properties": { "cell_id": 22, "poi_count": 0, "text_des": "", "poi_categories": [ ] }, "geometry": { "type": "Polygon", "coordinates": [ [ [ 31.009009009009006, 30.027027027027028 ], [ 31.009009009009006, 30.031531531531531 ], [ 31.004504504504503, 30.031531531531531 ], [ 31.004504504504503, 30.027027027027028 ], [ 31.009009009009006, 30.027027027027028 ] ] ] } },
{ "type": "Feature", "properties": { "cell_id": 23, "poi_count": 0, "text_des": "", "poi_categories": [ ] }, "geometry": { "type": "Polygon", "coordinates": [ [ [ 31.009009009009006, 30.031531531531531 ], [ 31.009009009009006, 30.036036036036034 ], [ 31.004504504504503, 30.036036036036034 ], [ 31.004504504504503, 30.031531531531531 ], [ 31.009009009009006, 30.031531531531531 ] ] ] } },
{ "type": "Feature", "properties": { "cell_id": 24, "poi_count": 0, "text_des": "", "poi_categories": [ ] }, "geometry": { "type": "Polygon", "coordinates": [ [ [ 31.009009009009006, 30.036036036036037 ], [ 31.009009009009006, 30.04054054054054 ], [ 31.004504504504503, 30.04054054054054 ], [ 31.004504504504503, 30.036036036036037 ], [ 31.009009009009006, 30.036036036036037 ] ] ] } },
{ "type": "Feature", "properties": { "cell_id": 25, "poi_count": 0, "text_des": "", "poi_categories": [ ] }, "geometry": { "type": "Polygon", "coordinates": [ [ [ 31.009009009009006, 30.04054054054054 ], [ 31.009009009009006, 30.045045045045043 ], [ 31.004504504504503, 30.045045045045043 ], [ 31.004504504504503, 30.04054054054054 ], [ 31.009009009009006, 30.04054054054054 ] ] ] } },
{ "type": "Feature", "properties": { "cell_id": 26, "poi_count": 0, "text_des": "", "poi_categories": [ ] }, "geometry": { "type": "Polygon", "coordinates": [ [ [ 31.009009009009006, 30.045045045045047 ], [ 31.009009009009006, 30.04954954954955 ], [ 31.004504504504503, 30.04954954954955 ], [ 31.004504504504503, 30.045045045045047 ], [ 31.009009009009006, 30.045045045045047 ] ] ] } },
{ "type": "Feature", "properties": { "cell_id": 27, "poi_count": 0, "text_des": "", "poi_categories": [ ] }, "geometry": { "type": "Polygon", "coordinates": [ [ [ 31.009009009009006, 30.04954954954955 ], [ 31.009009009009006, 30.054054054054053 ], [ 31.004504504504503, 30.054054054054053 ], [ 31.004504504504503, 30.04954954954955 ], [ 31.009009009009006, 30.04954954954955 ] ] ] } },
{ "type": "Feature", "properties": { "cell_id": 28, "poi_count": 0, "text_des": "", "poi_categories": [ ] }, "geometry": { "type": "Polygon", "coordinates": [ [ [ 31.009009009009006, 30.054054054054053 ], [ 31.009009009009006, 30.058558558558556 ], [ 31.004504504504503, 30.058558558558556 ], [ 31.004504504504503, 30.054054054054053 ], [ 31.009009009009006, 30.054054054054053 ] ] ] } },
{ "type": "Feature", "properties": { "cell_id": 29, "poi_count": 0, "text_des": "", "poi_categories": [ ] }, "geometry": { "type": "Polygon", "coordinates": [ [ [ 31.009009009009006, 30.058558558558559 ], [ 31.009009009009006, 30.063063063063062 ], [ 31.004504504504503, 30.063063063063062 ], [ 31.004504504504503, 30.058558558558559 ], [ 31.009009009009006, 30.058558558558559 ] ] ] } },
{ "type": "Feature", "properties": { "cell_id": 30, "poi_count": 0, "text_des": "", "poi_categories": [ ] }, "geometry": { "type": "Polygon", "coordinates": [ [ [ 31.009009009009006, 30.063063063063062 ], [ 31.009009009009006, 30.067567567567565 ], [ 31.004504504504503, 30.067567567567565 ], [ 31.004504504504503, 30.063063063063062 ], [ 31.009009009009006, 30.063063063063062 ] ] ] } },
{ "type": "Feature", "properties": { "cell_id": 31, "poi_count": 0, "text_des": "", "poi_categories": [ ] }, "geometry": { "type": "Polygon", "coordinates": [ [ [ 31.009009009009006, 30.067567567567568 ], [ 31.009009009009006, 30.072072072072071 ], [ 31.004504504504503, 30.072072072072071 ], [ 31.004504504504503, 30.067567567567568 ], [ 31.009009009009006, 30.067567567567568 ] ] ] } },
{ "type": "Feature", "properties": { "cell_id": 32, "poi_count": 0, "text_des": "", "poi_categories": [ ] }, "geometry": { "type": "Polygon", "coordinates": [ [ [ 31.013513513513512, 30.0 ], [ 31.013513513513512, 30.004504504504503 ], [ 31.009009009009009, 30.004504504504503 ], [ 31.009009009009009, 30.0 ], [ 31.013513513513512, 30.0 ] ] ] } },
{ "type": "Feature", "properties": { "cell_id": 33, "poi_count": 0, "text_des": "", "poi_categories": [ ] }, "geometry": { "type": "Polygon", "coordinates": [ [ [ 31.013513513513512, 30.004504504504503 ], [ 31.013513513513512, 30.009009009009006 ], [ 31.009009009009009, 30.009009009009006 ], [ 31.009009009009009, 30.004504504504503 ], [ 31.013513513513512, 30.004504504504503 ] ] ] } },
{ "type": "Feature", "properties": { "cell_id": 34, "poi_count": 0, "text_des": "", "poi_categories": [ ] }, "geometry": { "type": "Polygon", "coordinates": [ [ [ 31.013513513513512, 30.009009009009009 ], [ 31.013513513513512, 30.013513513513512 ], [ 31.009009009009009, 30.013513513513512 ], [ 31.009009009009009, 30.009009009009009 ], [ 31.013513513513512, 30.009009009009009 ] ] ] } },
{ "type": "Feature", "properties": { "cell_id": 35, "poi_count": 0, "text_des": "", "poi_categories": [ ] }, "geometry": { "type": "Polygon", "coordinates": [ [ [ 31.013513513513512, 30.013513513513512 ], [ 31.013513513513512, 30.018018018018015 ], [ 31.009009009009009, 30.018018018018015 ], [ 31.009009009009009, 30.013513513513512 ], [ 31.013513513513512, 30.013513513513512 ] ] ] } },
{ "type": "Feature", "properties": { "cell_id": 36, "poi_count": 0, "text_des": "", "poi_categories": [ ] }, "geometry": { "type": "Polygon", "coordinates": [ [ [ 31.013513513513512, 30.018018018018019 ], [ 31.013513513513512, 30.022522522522522 ], [ 31.009009009009009, 30.022522522522522 ], [ 31.009009009009009, 30.018018018018019 ], [ 31.013513513513512, 30.018018018018019 ] ] ] } },
{ "type": "Feature", "properties": { "cell_id": 37, "poi_count": 0, "text_des": "", "poi_categories": [ ] }, "geometry": { "type": "Polygon", "coordinates": [ [ [ 31.013513513513512, 30.022522522522522 ], [ 31.013513513513512, 30.027027027027025 ], [ 31.009009009009009, 30.027027027027025 ], [ 31.009009009009009, 30.022522522522522 ], [ 31.013513513513512, 30.022522522522522 ] ] ] } },
{ "type": "Feature", "properties": { "cell_id": 38, "poi_count": 0, "text_des": "", "poi_categories": [ ] }, "geometry": { "type": "Polygon", "coordinates": [ [ [ 31.013513513513512, 30.027027027027028 ], [ 31.013513513513512, 30.031531531531531 ], [ 31.009009009009009, 30.031531531531531 ], [ 31.009009009009009, 30.027027027027028 ], [ 31.013513513513512, 30.027027027027028 ] ] ] } },
{ "type": "Feature", "properties": { "cell_id": 39, "poi_count": 1, "text_des": "تقع GERMAN VETERINARY HOSPITAL EGYPT في القاهرة، مصر. نوع المنطقة: مستشفى. البيانات من OpenStreetMap.", "poi_categories": [ "Health" ] }, "geometry": { "type": "Polygon", "coordinates": [ [ [ 31.013513513513512, 30.031531531531531 ], [ 31.013513513513512, 30.036036036036034 ], [ 31.009009009009009, 30.036036036036034 ], [ 31.009009009009009, 30.031531531531531 ], [ 31.013513513513512, 30.031531531531531 ] ] ] } },
{ "type": "Feature", "properties": { "cell_id": 40, "poi_count": 1, "text_des": "تقع M.S.G International British School of Egypt في القاهرة، مصر. نوع المنطقة: مدرسة. البيانات من OpenStreetMap.", "poi_categories": [ "Education" ] }, "geometry": { "type": "Polygon", "coordinates": [ [ [ 31.013513513513512, 30.036036036036037 ], [ 31.013513513513512, 30.04054054054054 ], [ 31.009009009009009, 30.04054054054054 ], [ 31.009009009009009, 30.036036036036037 ], [ 31.013513513513512, 30.036036036036037 ] ] ] } },
{ "type": "Feature", "properties": { "cell_id": 41, "poi_count": 0, "text_des": "", "poi_categories": [ ] }, "geometry": { "type": "Polygon", "coordinates": [ [ [ 31.013513513513512, 30.04054054054054 ], [ 31.013513513513512, 30.045045045045043 ], [ 31.009009009009009, 30.045045045045043 ], [ 31.009009009009009, 30.04054054054054 ], [ 31.013513513513512, 30.04054054054054 ] ] ] } },
{ "type": "Feature", "properties": { "cell_id": 42, "poi_count": 0, "text_des": "", "poi_categories": [ ] }, "geometry": { "type": "Polygon", "coordinates": [ [ [ 31.013513513513512, 30.045045045045047 ], [ 31.013513513513512, 30.04954954954955 ], [ 31.009009009009009, 30.04954954954955 ], [ 31.009009009009009, 30.045045045045047 ], [ 31.013513513513512, 30.045045045045047 ] ] ] } },
{ "type": "Feature", "properties": { "cell_id": 43, "poi_count": 0, "text_des": "", "poi_categories": [ ] }, "geometry": { "type": "Polygon", "coordinates": [ [ [ 31.013513513513512, 30.04954954954955 ], [ 31.013513513513512, 30.054054054054053 ], [ 31.009009009009009, 30.054054054054053 ], [ 31.009009009009009, 30.04954954954955 ], [ 31.013513513513512, 30.04954954954955 ] ] ] } },
{ "type": "Feature", "properties": { "cell_id": 44, "poi_count": 0, "text_des": "", "poi_categories": [ ] }, "geometry": { "type": "Polygon", "coordinates": [ [ [ 31.013513513513512, 30.054054054054053 ], [ 31.013513513513512, 30.058558558558556 ], [ 31.009009009009009, 30.058558558558556 ], [ 31.009009009009009, 30.054054054054053 ], [ 31.013513513513512, 30.054054054054053 ] ] ] } },
{ "type": "Feature", "properties": { "cell_id": 45, "poi_count": 0, "text_des": "", "poi_categories": [ ] }, "geometry": { "type": "Polygon", "coordinates": [ [ [ 31.013513513513512, 30.058558558558559 ], [ 31.013513513513512, 30.063063063063062 ], [ 31.009009009009009, 30.063063063063062 ], [ 31.009009009009009, 30.058558558558559 ], [ 31.013513513513512, 30.058558558558559 ] ] ] } },
{ "type": "Feature", "properties": { "cell_id": 46, "poi_count": 0, "text_des": "", "poi_categories": [ ] }, "geometry": { "type": "Polygon", "coordinates": [ [ [ 31.013513513513512, 30.063063063063062 ], [ 31.013513513513512, 30.067567567567565 ], [ 31.009009009009009, 30.067567567567565 ], [ 31.009009009009009, 30.063063063063062 ], [ 31.013513513513512, 30.063063063063062 ] ] ] } },
{ "type": "Feature", "properties": { "cell_id": 47, "poi_count": 0, "text_des": "", "poi_categories": [ ] }, "geometry": { "type": "Polygon", "coordinates": [ [ [ 31.013513513513512, 30.067567567567568 ], [ 31.013513513513512, 30.072072072072071 ], [ 31.009009009009009, 30.072072072072071 ], [ 31.009009009009009, 30.067567567567568 ], [ 31.013513513513512, 30.067567567567568 ] ] ] } },
{ "type": "Feature", "properties": { "cell_id": 48, "poi_count": 0, "text_des": "", "poi_categories": [ ] }, "geometry": { "type": "Polygon", "coordinates": [ [ [ 31.018018018018015, 30.0 ], [ 31.018018018018015, 30.004504504504503 ], [ 31.013513513513512, 30.004504504504503 ], [ 31.013513513513512, 30.0 ], [ 31.018018018018015, 30.0 ] ] ] } },
{ "type": "Feature", "properties": { "cell_id": 49, "poi_count": 0, "text_des": "", "poi_categories": [ ] }, "geometry": { "type": "Polygon", "coordinates": [ [ [ 31.018018018018015, 30.004504504504503 ], [ 31.018018018018015, 30.009009009009006 ], [ 31.013513513513512, 30.009009009009006 ], [ 31.013513513513512, 30.004504504504503 ], [ 31.018018018018015, 30.004504504504503 ] ] ] } },
{ "type": "Feature", "properties": { "cell_id": 50, "poi_count": 0, "text_des": "", "poi_categories": [ ] }, "geometry": { "type": "Polygon", "coordinates": [ [ [ 31.018018018018015, 30.009009009009009 ], [ 31.018018018018015, 30.013513513513512 ], [ 31.013513513513512, 30.013513513513512 ], [ 31.013513513513512, 30.009009009009009 ], [ 31.018018018018015, 30.009009009009009 ] ] ] } },
{ "type": "Feature", "properties": { "cell_id": 51, "poi_count": 0, "text_des": "", "poi_categories": [ ] }, "geometry": { "type": "Polygon", "coordinates": [ [ [ 31.018018018018015, 30.013513513513512 ], [ 31.018018018018015, 30.018018018018015 ], [ 31.013513513513512, 30.018018018018015 ], [ 31.013513513513512, 30.013513513513512 ], [ 31.018018018018015, 30.013513513513512 ] ] ] } },
{ "type": "Feature", "properties": { "cell_id": 52, "poi_count": 0, "text_des": "", "poi_categories": [ ] }, "geometry": { "type": "Polygon", "coordinates": [ [ [ 31.018018018018015, 30.018018018018019 ], [ 31.018018018018015, 30.022522522522522 ], [ 31.013513513513512, 30.022522522522522 ], [ 31.013513513513512, 30.018018018018019 ], [ 31.018018018018015, 30.018018018018019 ] ] ] } },
{ "type": "Feature", "properties": { "cell_id": 53, "poi_count": 0, "text_des": "", "poi_categories": [ ] }, "geometry": { "type": "Polygon", "coordinates": [ [ [ 31.018018018018015, 30.022522522522522 ], [ 31.018018018018015, 30.027027027027025 ], [ 31.013513513513512, 30.027027027027025 ], [ 31.013513513513512, 30.022522522522522 ], [ 31.018018018018015, 30.022522522522522 ] ] ] } },
{ "type": "Feature", "properties": { "cell_id": 54, "poi_count": 0, "text_des": "", "poi_categories": [ ] }, "geometry": { "type": "Polygon", "coordinates": [ [ [ 31.018018018018015, 30.027027027027028 ], [ 31.018018018018015, 30.031531531531531 ], [ 31.013513513513512, 30.031531531531531 ], [ 31.013513513513512, 30.027027027027028 ], [ 31.018018018018015, 30.027027027027028 ] ] ] } },
{ "type": "Feature", "properties": { "cell_id": 55, "poi_count": 0, "text_des": "", "poi_categories": [ ] }, "geometry": { "type": "Polygon", "coordinates": [ [ [ 31.018018018018015, 30.031531531531531 ], [ 31.018018018018015, 30.036036036036034 ], [ 31.013513513513512, 30.036036036036034 ], [ 31.013513513513512, 30.031531531531531 ], [ 31.018018018018015, 30.031531531531531 ] ] ] } },
{ "type": "Feature", "properties": { "cell_id": 56, "poi_count": 0, "text_des": "", "poi_categories": [ ] }, "geometry": { "type": "Polygon", "coordinates": [ [ [ 31.018018018018015, 30.036036036036037 ], [ 31.018018018018015, 30.04054054054054 ], [ 31.013513513513512, 30.04054054054054 ], [ 31.013513513513512, 30.036036036036037 ], [ 31.018018018018015, 30.036036036036037 ] ] ] } },
{ "type": "Feature", "properties": { "cell_id": 57, "poi_count": 0, "text_des": "", "poi_categories": [ ] }, "geometry": { "type": "Polygon", "coordinates": [ [ [ 31.018018018018015, 30.04054054054054 ], [ 31.018018018018015, 30.045045045045043 ], [ 31.013513513513512, 30.045045045045043 ], [ 31.013513513513512, 30.04054054054054 ], [ 31.018018018018015, 30.04054054054054 ] ] ] } },
{ "type": "Feature", "properties": { "cell_id": 58, "poi_count": 0, "text_des": "", "poi_categories": [ ] }, "geometry": { "type": "Polygon", "coordinates": [ [ [ 31.018018018018015, 30.045045045045047 ], [ 31.018018018018015, 30.04954954954955 ], [ 31.013513513513512, 30.04954954954955 ], [ 31.013513513513512, 30.045045045045047 ], [ 31.018018018018015, 30.045045045045047 ] ] ] } },
{ "type": "Feature", "properties": { "cell_id": 59, "poi_count": 0, "text_des": "", "poi_categories": [ ] }, "geometry": { "type": "Polygon", "coordinates": [ [ [ 31.018018018018015, 30.04954954954955 ], [ 31.018018018018015, 30.054054054054053 ], [ 31.013513513513512, 30.054054054054053 ], [ 31.013513513513512, 30.04954954954955 ], [ 31.018018018018015, 30.04954954954955 ] ] ] } },
{ "type": "Feature", "properties": { "cell_id": 60, "poi_count": 0, "text_des": "", "poi_categories": [ ] }, "geometry": { "type": "Polygon", "coordinates": [ [ [ 31.018018018018015, 30.054054054054053 ], [ 31.018018018018015, 30.058558558558556 ], [ 31.013513513513512, 30.058558558558556 ], [ 31.013513513513512, 30.054054054054053 ], [ 31.018018018018015, 30.054054054054053 ] ] ] } },
{ "type": "Feature", "properties": { "cell_id": 61, "poi_count": 0, "text_des": "", "poi_categories": [ ] }, "geometry": { "type": "Polygon", "coordinates": [ [ [ 31.018018018018015, 30.058558558558559 ], [ 31.018018018018015, 30.063063063063062 ], [ 31.013513513513512, 30.063063063063062 ], [ 31.013513513513512, 30.058558558558559 ], [ 31.018018018018015, 30.058558558558559 ] ] ] } },
{ "type": "Feature", "properties": { "cell_id": 62, "poi_count": 0, "text_des": "", "poi_categories": [ ] }, "geometry": { "type": "Polygon", "coordinates": [ [ [ 31.018018018018015, 30.063063063063062 ], [ 31.018018018018015, 30.067567567567565 ], [ 31.013513513513512, 30.067567567567565 ], [ 31.013513513513512, 30.063063063063062 ], [ 31.018018018018015, 30.063063063063062 ] ] ] } },
{ "type": "Feature", "properties": { "cell_id": 63, "poi_count": 0, "text_des": "", "poi_categories": [ ] }, "geometry": { "type": "Polygon", "coordinates": [ [ [ 31.018018018018015, 30.067567567567568 ], [ 31.018018018018015, 30.072072072072071 ], [ 31.013513513513512, 30.072072072072071 ], [ 31.013513513513512, 30.067567567567568 ], [ 31.018018018018015, 30.067567567567568 ] ] ] } },
{ "type": "Feature", "properties": { "cell_id": 64, "poi_count": 0, "text_des": "", "poi_categories": [ ] }, "geometry": { "type": "Polygon", "coordinates": [ [ [ 31.022522522522522, 30.0 ], [ 31.022522522522522, 30.004504504504503 ], [ 31.018018018018019, 30.004504504504503 ], [ 31.018018018018019, 30.0 ], [ 31.022522522522522, 30.0 ] ] ] } },
{ "type": "Feature", "properties": { "cell_id": 65, "poi_count": 0, "text_des": "", "poi_categories": [ ] }, "geometry": { "type": "Polygon", "coordinates": [ [ [ 31.022522522522522, 30.004504504504503 ], [ 31.022522522522522, 30.009009009009006 ], [ 31.018018018018019, 30.009009009009006 ], [ 31.018018018018019, 30.004504504504503 ], [ 31.022522522522522, 30.004504504504503 ] ] ] } },
{ "type": "Feature", "properties": { "cell_id": 66, "poi_count": 0, "text_des": "", "poi_categories": [ ] }, "geometry": { "type": "Polygon", "coordinates": [ [ [ 31.022522522522522, 30.009009009009009 ], [ 31.022522522522522, 30.013513513513512 ], [ 31.018018018018019, 30.013513513513512 ], [ 31.018018018018019, 30.009009009009009 ], [ 31.022522522522522, 30.009009009009009 ] ] ] } },
{ "type": "Feature", "properties": { "cell_id": 67, "poi_count": 0, "text_des": "", "poi_categories": [ ] }, "geometry": { "type": "Polygon", "coordinates": [ [ [ 31.022522522522522, 30.013513513513512 ], [ 31.022522522522522, 30.018018018018015 ], [ 31.018018018018019, 30.018018018018015 ], [ 31.018018018018019, 30.013513513513512 ], [ 31.022522522522522, 30.013513513513512 ] ] ] } },
{ "type": "Feature", "properties": { "cell_id": 68, "poi_count": 0, "text_des": "", "poi_categories": [ ] }, "geometry": { "type": "Polygon", "coordinates": [ [ [ 31.022522522522522, 30.018018018018019 ], [ 31.022522522522522, 30.022522522522522 ], [ 31.018018018018019, 30.022522522522522 ], [ 31.018018018018019, 30.018018018018019 ], [ 31.022522522522522, 30.018018018018019 ] ] ] } },
{ "type": "Feature", "properties": { "cell_id": 69, "poi_count": 0, "text_des": "", "poi_categories": [ ] }, "geometry": { "type": "Polygon", "coordinates": [ [ [ 31.022522522522522, 30.022522522522522 ], [ 31.022522522522522, 30.027027027027025 ], [ 31.018018018018019, 30.027027027027025 ], [ 31.018018018018019, 30.022522522522522 ], [ 31.022522522522522, 30.022522522522522 ] ] ] } },
{ "type": "Feature", "properties": { "cell_id": 70, "poi_count": 0, "text_des": "", "poi_categories": [ ] }, "geometry": { "type": "Polygon", "coordinates": [ [ [ 31.022522522522522, 30.027027027027028 ], [ 31.022522522522522, 30.031531531531531 ], [ 31.018018018018019, 30.031531531531531 ], [ 31.018018018018019, 30.027027027027028 ], [ 31.022522522522522, 30.027027027027028 ] ] ] } },
{ "type": "Feature", "properties": { "cell_id": 71, "poi_count": 0, "text_des": "", "poi_categories": [ ] }, "geometry": { "type": "Polygon", "coordinates": [ [ [ 31.022522522522522, 30.031531531531531 ], [ 31.022522522522522, 30.036036036036034 ], [ 31.018018018018019, 30.036036036036034 ], [ 31.018018018018019, 30.031531531531531 ], [ 31.022522522522522, 30.031531531531531 ] ] ] } },
{ "type": "Feature", "properties": { "cell_id": 72, "poi_count": 0, "text_des": "", "poi_categories": [ ] }, "geometry": { "type": "Polygon", "coordinates": [ [ [ 31.022522522522522, 30.036036036036037 ], [ 31.022522522522522, 30.04054054054054 ], [ 31.018018018018019, 30.04054054054054 ], [ 31.018018018018019, 30.036036036036037 ], [ 31.022522522522522, 30.036036036036037 ] ] ] } },
{ "type": "Feature", "properties": { "cell_id": 73, "poi_count": 0, "text_des": "", "poi_categories": [ ] }, "geometry": { "type": "Polygon", "coordinates": [ [ [ 31.022522522522522, 30.04054054054054 ], [ 31.022522522522522, 30.045045045045043 ], [ 31.018018018018019, 30.045045045045043 ], [ 31.018018018018019, 30.04054054054054 ], [ 31.022522522522522, 30.04054054054054 ] ] ] } },
{ "type": "Feature", "properties": { "cell_id": 74, "poi_count": 0, "text_des": "", "poi_categories": [ ] }, "geometry": { "type": "Polygon", "coordinates": [ [ [ 31.022522522522522, 30.045045045045047 ], [ 31.022522522522522, 30.04954954954955 ], [ 31.018018018018019, 30.04954954954955 ], [ 31.018018018018019, 30.045045045045047 ], [ 31.022522522522522, 30.045045045045047 ] ] ] } },
{ "type": "Feature", "properties": { "cell_id": 75, "poi_count": 0, "text_des": "", "poi_categories": [ ] }, "geometry": { "type": "Polygon", "coordinates": [ [ [ 31.022522522522522, 30.04954954954955 ], [ 31.022522522522522, 30.054054054054053 ], [ 31.018018018018019, 30.054054054054053 ], [ 31.018018018018019, 30.04954954954955 ], [ 31.022522522522522, 30.04954954954955 ] ] ] } },
{ "type": "Feature", "properties": { "cell_id": 76, "poi_count": 0, "text_des": "", "poi_categories": [ ] }, "geometry": { "type": "Polygon", "coordinates": [ [ [ 31.022522522522522, 30.054054054054053 ], [ 31.022522522522522, 30.058558558558556 ], [ 31.018018018018019, 30.058558558558556 ], [ 31.018018018018019, 30.054054054054053 ], [ 31.022522522522522, 30.054054054054053 ] ] ] } },
{ "type": "Feature", "properties": { "cell_id": 77, "poi_count": 0, "text_des": "", "poi_categories": [ ] }, "geometry": { "type": "Polygon", "coordinates": [ [ [ 31.022522522522522, 30.058558558558559 ], [ 31.022522522522522, 30.063063063063062 ], [ 31.018018018018019, 30.063063063063062 ], [ 31.018018018018019, 30.058558558558559 ], [ 31.022522522522522, 30.058558558558559 ] ] ] } },
{ "type": "Feature", "properties": { "cell_id": 78, "poi_count": 0, "text_des": "", "poi_categories": [ ] }, "geometry": { "type": "Polygon", "coordinates": [ [ [ 31.022522522522522, 30.063063063063062 ], [ 31.022522522522522, 30.067567567567565 ], [ 31.018018018018019, 30.067567567567565 ], [ 31.018018018018019, 30.063063063063062 ], [ 31.022522522522522, 30.063063063063062 ] ] ] } },
{ "type": "Feature", "properties": { "cell_id": 79, "poi_count": 0, "text_des": "", "poi_categories": [ ] }, "geometry": { "type": "Polygon", "coordinates": [ [ [ 31.022522522522522, 30.067567567567568 ], [ 31.022522522522522, 30.072072072072071 ], [ 31.018018018018019, 30.072072072072071 ], [ 31.018018018018019, 30.067567567567568 ], [ 31.022522522522522, 30.067567567567568 ] ] ] } },
{ "type": "Feature", "properties": { "cell_id": 80, "poi_count": 0, "text_des": "", "poi_categories": [ ] }, "geometry": { "type": "Polygon", "coordinates": [ [ [ 31.027027027027025, 30.0 ], [ 31.027027027027025, 30.004504504504503 ], [ 31.022522522522522, 30.004504504504503 ], [ 31.022522522522522, 30.0 ], [ 31.027027027027025, 30.0 ] ] ] } },
{ "type": "Feature", "properties": { "cell_id": 81, "poi_count": 0, "text_des": "", "poi_categories": [ ] }, "geometry": { "type": "Polygon", "coordinates": [ [ [ 31.027027027027025, 30.004504504504503 ], [ 31.027027027027025, 30.009009009009006 ], [ 31.022522522522522, 30.009009009009006 ], [ 31.022522522522522, 30.004504504504503 ], [ 31.027027027027025, 30.004504504504503 ] ] ] } },
{ "type": "Feature", "properties": { "cell_id": 82, "poi_count": 0, "text_des": "", "poi_categories": [ ] }, "geometry": { "type": "Polygon", "coordinates": [ [ [ 31.027027027027025, 30.009009009009009 ], [ 31.027027027027025, 30.013513513513512 ], [ 31.022522522522522, 30.013513513513512 ], [ 31.022522522522522, 30.009009009009009 ], [ 31.027027027027025, 30.009009009009009 ] ] ] } },
{ "type": "Feature", "properties": { "cell_id": 83, "poi_count": 0, "text_des": "", "poi_categories": [ ] }, "geometry": { "type": "Polygon", "coordinates": [ [ [ 31.027027027027025, 30.013513513513512 ], [ 31.027027027027025, 30.018018018018015 ], [ 31.022522522522522, 30.018018018018015 ], [ 31.022522522522522, 30.013513513513512 ], [ 31.027027027027025, 30.013513513513512 ] ] ] } },
{ "type": "Feature", "properties": { "cell_id": 84, "poi_count": 0, "text_des": "", "poi_categories": [ ] }, "geometry": { "type": "Polygon", "coordinates": [ [ [ 31.027027027027025, 30.018018018018019 ], [ 31.027027027027025, 30.022522522522522 ], [ 31.022522522522522, 30.022522522522522 ], [ 31.022522522522522, 30.018018018018019 ], [ 31.027027027027025, 30.018018018018019 ] ] ] } },
{ "type": "Feature", "properties": { "cell_id": 85, "poi_count": 0, "text_des": "", "poi_categories": [ ] }, "geometry": { "type": "Polygon", "coordinates": [ [ [ 31.027027027027025, 30.022522522522522 ], [ 31.027027027027025, 30.027027027027025 ], [ 31.022522522522522, 30.027027027027025 ], [ 31.022522522522522, 30.022522522522522 ], [ 31.027027027027025, 30.022522522522522 ] ] ] } },
{ "type": "Feature", "properties": { "cell_id": 86, "poi_count": 0, "text_des": "", "poi_categories": [ ] }, "geometry": { "type": "Polygon", "coordinates": [ [ [ 31.027027027027025, 30.027027027027028 ], [ 31.027027027027025, 30.031531531531531 ], [ 31.022522522522522, 30.031531531531531 ], [ 31.022522522522522, 30.027027027027028 ], [ 31.027027027027025, 30.027027027027028 ] ] ] } },
{ "type": "Feature", "properties": { "cell_id": 87, "poi_count": 0, "text_des": "", "poi_categories": [ ] }, "geometry": { "type": "Polygon", "coordinates": [ [ [ 31.027027027027025, 30.031531531531531 ], [ 31.027027027027025, 30.036036036036034 ], [ 31.022522522522522, 30.036036036036034 ], [ 31.022522522522522, 30.031531531531531 ], [ 31.027027027027025, 30.031531531531531 ] ] ] } },
{ "type": "Feature", "properties": { "cell_id": 88, "poi_count": 0, "text_des": "", "poi_categories": [ ] }, "geometry": { "type": "Polygon", "coordinates": [ [ [ 31.027027027027025, 30.036036036036037 ], [ 31.027027027027025, 30.04054054054054 ], [ 31.022522522522522, 30.04054054054054 ], [ 31.022522522522522, 30.036036036036037 ], [ 31.027027027027025, 30.036036036036037 ] ] ] } },
{ "type": "Feature", "properties": { "cell_id": 89, "poi_count": 0, "text_des": "", "poi_categories": [ ] }, "geometry": { "type": "Polygon", "coordinates": [ [ [ 31.027027027027025, 30.04054054054054 ], [ 31.027027027027025, 30.045045045045043 ], [ 31.022522522522522, 30.045045045045043 ], [ 31.022522522522522, 30.04054054054054 ], [ 31.027027027027025, 30.04054054054054 ] ] ] } },
{ "type": "Feature", "properties": { "cell_id": 90, "poi_count": 0, "text_des": "", "poi_categories": [ ] }, "geometry": { "type": "Polygon", "coordinates": [ [ [ 31.027027027027025, 30.045045045045047 ], [ 31.027027027027025, 30.04954954954955 ], [ 31.022522522522522, 30.04954954954955 ], [ 31.022522522522522, 30.045045045045047 ], [ 31.027027027027025, 30.045045045045047 ] ] ] } },
{ "type": "Feature", "properties": { "cell_id": 91, "poi_count": 0, "text_des": "", "poi_categories": [ ] }, "geometry": { "type": "Polygon", "coordinates": [ [ [ 31.027027027027025, 30.04954954954955 ], [ 31.027027027027025, 30.054054054054053 ], [ 31.022522522522522, 30.054054054054053 ], [ 31.022522522522522, 30.04954954954955 ], [ 31.027027027027025, 30.04954954954955 ] ] ] } },
{ "type": "Feature", "properties": { "cell_id": 92, "poi_count": 0, "text_des": "", "poi_categories": [ ] }, "geometry": { "type": "Polygon", "coordinates": [ [ [ 31.027027027027025, 30.054054054054053 ], [ 31.027027027027025, 30.058558558558556 ], [ 31.022522522522522, 30.058558558558556 ], [ 31.022522522522522, 30.054054054054053 ], [ 31.027027027027025, 30.054054054054053 ] ] ] } },
{ "type": "Feature", "properties": { "cell_id": 93, "poi_count": 0, "text_des": "", "poi_categories": [ ] }, "geometry": { "type": "Polygon", "coordinates": [ [ [ 31.027027027027025, 30.058558558558559 ], [ 31.027027027027025, 30.063063063063062 ], [ 31.022522522522522, 30.063063063063062 ], [ 31.022522522522522, 30.058558558558559 ], [ 31.027027027027025, 30.058558558558559 ] ] ] } },
{ "type": "Feature", "properties": { "cell_id": 94, "poi_count": 0, "text_des": "", "poi_categories": [ ] }, "geometry": { "type": "Polygon", "coordinates": [ [ [ 31.027027027027025, 30.063063063063062 ], [ 31.027027027027025, 30.067567567567565 ], [ 31.022522522522522, 30.067567567567565 ], [ 31.022522522522522, 30.063063063063062 ], [ 31.027027027027025, 30.063063063063062 ] ] ] } },
{ "type": "Feature", "properties": { "cell_id": 95, "poi_count": 0, "text_des": "", "poi_categories": [ ] }, "geometry": { "type": "Polygon", "coordinates": [ [ [ 31.027027027027025, 30.067567567567568 ], [ 31.027027027027025, 30.072072072072071 ], [ 31.022522522522522, 30.072072072072071 ], [ 31.022522522522522, 30.067567567567568 ], [ 31.027027027027025, 30.067567567567568 ] ] ] } },
{ "type": "Feature", "properties": { "cell_id": 96, "poi_count": 0, "text_des": "", "poi_categories": [ ] }, "geometry": { "type": "Polygon", "coordinates": [ [ [ 31.031531531531531, 30.0 ], [ 31.031531531531531, 30.004504504504503 ], [ 31.027027027027028, 30.004504504504503 ], [ 31.027027027027028, 30.0 ], [ 31.031531531531531, 30.0 ] ] ] } },
{ "type": "Feature", "properties": { "cell_id": 97, "poi_count": 0, "text_des": "", "poi_categories": [ ] }, "geometry": { "type": "Polygon", "coordinates": [ [ [ 31.031531531531531, 30.004504504504503 ], [ 31.031531531531531, 30.009009009009006 ], [ 31.027027027027028, 30.009009009009006 ], [ 31.027027027027028, 30.004504504504503 ], [ 31.031531531531531, 30.004504504504503 ] ] ] } },
{ "type": "Feature", "properties": { "cell_id": 98, "poi_count": 0, "text_des": "", "poi_categories": [ ] }, "geometry": { "type": "Polygon", "coordinates": [ [ [ 31.031531531531531, 30.009009009009009 ], [ 31.031531531531531, 30.013513513513512 ], [ 31.027027027027028, 30.013513513513512 ], [ 31.027027027027028, 30.009009009009009 ], [ 31.031531531531531, 30.009009009009009 ] ] ] } },
{ "type": "Feature", "properties": { "cell_id": 99, "poi_count": 0, "text_des": "", "poi_categories": [ ] }, "geometry": { "type": "Polygon", "coordinates": [ [ [ 31.031531531531531, 30.013513513513512 ], [ 31.031531531531531, 30.018018018018015 ], [ 31.027027027027028, 30.018018018018015 ], [ 31.027027027027028, 30.013513513513512 ], [ 31.031531531531531, 30.013513513513512 ] ] ] } },
{ "type": "Feature", "properties": { "cell_id": 100, "poi_count": 0, "text_des": "", "poi_categories": [ ] }, "geometry": { "type": "Polygon", "coordinates": [ [ [ 31.031531531531531, 30.018018018018019 ], [ 31.031531531531531, 30.022522522522522 ], [ 31.027027027027028, 30.022522522522522 ], [ 31.027027027027028, 30.018018018018019 ], [ 31.031531531531531, 30.018018018018019 ] ] ] } },
{ "type": "Feature", "properties": { "cell_id": 101, "poi_count": 0, "text_des": "", "poi_categories": [ ] }, "geometry": { "type": "Polygon", "coordinates": [ [ [ 31.031531531531531, 30.022522522522522 ], [ 31.031531531531531, 30.027027027027025 ], [ 31.027027027027028, 30.027027027027025 ], [ 31.027027027027028, 30.022522522522522 ], [ 31.031531531531531, 30.022522522522522 ] ] ] } },
{ "type": "Feature", "properties": { "cell_id": 102, "poi_count": 0, "text_des": "", "poi_categories": [ ] }, "geometry": { "type": "Polygon", "coordinates": [ [ [ 31.031531531531531, 30.027027027027028 ], [ 31.031531531531531, 30.031531531531531 ], [ 31.027027027027028, 30.031531531531531 ], [ 31.027027027027028, 30.027027027027028 ], [ 31.031531531531531, 30.027027027027028 ] ] ] } },
{ "type": "Feature", "properties": { "cell_id": 103, "poi_count": 0, "text_des": "", "poi_categories": [ ] }, "geometry": { "type": "Polygon", "coordinates": [ [ [ 31.031531531531531, 30.031531531531531 ], [ 31.031531531531531, 30.036036036036034 ], [ 31.027027027027028, 30.036036036036034 ], [ 31.027027027027028, 30.031531531531531 ], [ 31.031531531531531, 30.031531531531531 ] ] ] } },
{ "type": "Feature", "properties": { "cell_id": 104, "poi_count": 0, "text_des": "", "poi_categories": [ ] }, "geometry": { "type": "Polygon", "coordinates": [ [ [ 31.031531531531531, 30.036036036036037 ], [ 31.031531531531531, 30.04054054054054 ], [ 31.027027027027028, 30.04054054054054 ], [ 31.027027027027028, 30.036036036036037 ], [ 31.031531531531531, 30.036036036036037 ] ] ] } },
{ "type": "Feature", "properties": { "cell_id": 105, "poi_count": 0, "text_des": "", "poi_categories": [ ] }, "geometry": { "type": "Polygon", "coordinates": [ [ [ 31.031531531531531, 30.04054054054054 ], [ 31.031531531531531, 30.045045045045043 ], [ 31.027027027027028, 30.045045045045043 ], [ 31.027027027027028, 30.04054054054054 ], [ 31.031531531531531, 30.04054054054054 ] ] ] } },
{ "type": "Feature", "properties": { "cell_id": 106, "poi_count": 0, "text_des": "", "poi_categories": [ ] }, "geometry": { "type": "Polygon", "coordinates": [ [ [ 31.031531531531531, 30.045045045045047 ], [ 31.031531531531531, 30.04954954954955 ], [ 31.027027027027028, 30.04954954954955 ], [ 31.027027027027028, 30.045045045045047 ], [ 31.031531531531531, 30.045045045045047 ] ] ] } },
{ "type": "Feature", "properties": { "cell_id": 107, "poi_count": 0, "text_des": "", "poi_categories": [ ] }, "geometry": { "type": "Polygon", "coordinates": [ [ [ 31.031531531531531, 30.04954954954955 ], [ 31.031531531531531, 30.054054054054053 ], [ 31.027027027027028, 30.054054054054053 ], [ 31.027027027027028, 30.04954954954955 ], [ 31.031531531531531, 30.04954954954955 ] ] ] } },
{ "type": "Feature", "properties": { "cell_id": 108, "poi_count": 0, "text_des": "", "poi_categories": [ ] }, "geometry": { "type": "Polygon", "coordinates": [ [ [ 31.031531531531531, 30.054054054054053 ], [ 31.031531531531531, 30.058558558558556 ], [ 31.027027027027028, 30.058558558558556 ], [ 31.027027027027028, 30.054054054054053 ], [ 31.031531531531531, 30.054054054054053 ] ] ] } },
{ "type": "Feature", "properties": { "cell_id": 109, "poi_count": 0, "text_des": "", "poi_categories": [ ] }, "geometry": { "type": "Polygon", "coordinates": [ [ [ 31.031531531531531, 30.058558558558559 ], [ 31.031531531531531, 30.063063063063062 ], [ 31.027027027027028, 30.063063063063062 ], [ 31.027027027027028, 30.058558558558559 ], [ 31.031531531531531, 30.058558558558559 ] ] ] } },
{ "type": "Feature", "properties": { "cell_id": 110, "poi_count": 0, "text_des": "", "poi_categories": [ ] }, "geometry": { "type": "Polygon", "coordinates": [ [ [ 31.031531531531531, 30.063063063063062 ], [ 31.031531531531531, 30.067567567567565 ], [ 31.027027027027028, 30.067567567567565 ], [ 31.027027027027028, 30.063063063063062 ], [ 31.031531531531531, 30.063063063063062 ] ] ] } },
{ "type": "Feature", "properties": { "cell_id": 111, "poi_count": 0, "text_des": "", "poi_categories": [ ] }, "geometry": { "type": "Polygon", "coordinates": [ [ [ 31.031531531531531, 30.067567567567568 ], [ 31.031531531531531, 30.072072072072071 ], [ 31.027027027027028, 30.072072072072071 ], [ 31.027027027027028, 30.067567567567568 ], [ 31.031531531531531, 30.067567567567568 ] ] ] } },
{ "type": "Feature", "properties": { "cell_id": 112, "poi_count": 0, "text_des": "", "poi_categories": [ ] }, "geometry": { "type": "Polygon", "coordinates": [ [ [ 31.036036036036034, 30.0 ], [ 31.036036036036034, 30.004504504504503 ], [ 31.031531531531531, 30.004504504504503 ], [ 31.031531531531531, 30.0 ], [ 31.036036036036034, 30.0 ] ] ] } },
{ "type": "Feature", "properties": { "cell_id": 113, "poi_count": 0, "text_des": "", "poi_categories": [ ] }, "geometry": { "type": "Polygon", "coordinates": [ [ [ 31.036036036036034, 30.004504504504503 ], [ 31.036036036036034, 30.009009009009006 ], [ 31.031531531531531, 30.009009009009006 ], [ 31.031531531531531, 30.004504504504503 ], [ 31.036036036036034, 30.004504504504503 ] ] ] } },
{ "type": "Feature", "properties": { "cell_id": 114, "poi_count": 0, "text_des": "", "poi_categories": [ ] }, "geometry": { "type": "Polygon", "coordinates": [ [ [ 31.036036036036034, 30.009009009009009 ], [ 31.036036036036034, 30.013513513513512 ], [ 31.031531531531531, 30.013513513513512 ], [ 31.031531531531531, 30.009009009009009 ], [ 31.036036036036034, 30.009009009009009 ] ] ] } },
{ "type": "Feature", "properties": { "cell_id": 115, "poi_count": 0, "text_des": "", "poi_categories": [ ] }, "geometry": { "type": "Polygon", "coordinates": [ [ [ 31.036036036036034, 30.013513513513512 ], [ 31.036036036036034, 30.018018018018015 ], [ 31.031531531531531, 30.018018018018015 ], [ 31.031531531531531, 30.013513513513512 ], [ 31.036036036036034, 30.013513513513512 ] ] ] } },
{ "type": "Feature", "properties": { "cell_id": 116, "poi_count": 0, "text_des": "", "poi_categories": [ ] }, "geometry": { "type": "Polygon", "coordinates": [ [ [ 31.036036036036034, 30.018018018018019 ], [ 31.036036036036034, 30.022522522522522 ], [ 31.031531531531531, 30.022522522522522 ], [ 31.031531531531531, 30.018018018018019 ], [ 31.036036036036034, 30.018018018018019 ] ] ] } },
{ "type": "Feature", "properties": { "cell_id": 117, "poi_count": 0, "text_des": "", "poi_categories": [ ] }, "geometry": { "type": "Polygon", "coordinates": [ [ [ 31.036036036036034, 30.022522522522522 ], [ 31.036036036036034, 30.027027027027025 ], [ 31.031531531531531, 30.027027027027025 ], [ 31.031531531531531, 30.022522522522522 ], [ 31.036036036036034, 30.022522522522522 ] ] ] } },
{ "type": "Feature", "properties": { "cell_id": 118, "poi_count": 0, "text_des": "", "poi_categories": [ ] }, "geometry": { "type": "Polygon", "coordinates": [ [ [ 31.036036036036034, 30.027027027027028 ], [ 31.036036036036034, 30.031531531531531 ], [ 31.031531531531531, 30.031531531531531 ], [ 31.031531531531531, 30.027027027027028 ], [ 31.036036036036034, 30.027027027027028 ] ] ] } },
{ "type": "Feature", "properties": { "cell_id": 119, "poi_count": 0, "text_des": "", "poi_categories": [ ] }, "geometry": { "type": "Polygon", "coordinates": [ [ [ 31.036036036036034, 30.031531531531531 ], [ 31.036036036036034, 30.036036036036034 ], [ 31.031531531531531, 30.036036036036034 ], [ 31.031531531531531, 30.031531531531531 ], [ 31.036036036036034, 30.031531531531531 ] ] ] } },
{ "type": "Feature", "properties": { "cell_id": 120, "poi_count": 0, "text_des": "", "poi_categories": [ ] }, "geometry": { "type": "Polygon", "coordinates": [ [ [ 31.036036036036034, 30.036036036036037 ], [ 31.036036036036034, 30.04054054054054 ], [ 31.031531531531531, 30.04054054054054 ], [ 31.031531531531531, 30.036036036036037 ], [ 31.036036036036034, 30.036036036036037 ] ] ] } },
{ "type": "Feature", "properties": { "cell_id": 121, "poi_count": 0, "text_des": "", "poi_categories": [ ] }, "geometry": { "type": "Polygon", "coordinates": [ [ [ 31.036036036036034, 30.04054054054054 ], [ 31.036036036036034, 30.045045045045043 ], [ 31.031531531531531, 30.045045045045043 ], [ 31.031531531531531, 30.04054054054054 ], [ 31.036036036036034, 30.04054054054054 ] ] ] } },
{ "type": "Feature", "properties": { "cell_id": 122, "poi_count": 0, "text_des": "", "poi_categories": [ ] }, "geometry": { "type": "Polygon", "coordinates": [ [ [ 31.036036036036034, 30.045045045045047 ], [ 31.036036036036034, 30.04954954954955 ], [ 31.031531531531531, 30.04954954954955 ], [ 31.031531531531531, 30.045045045045047 ], [ 31.036036036036034, 30.045045045045047 ] ] ] } },
{ "type": "Feature", "properties": { "cell_id": 123, "poi_count": 0, "text_des": "", "poi_categories": [ ] }, "geometry": { "type": "Polygon", "coordinates": [ [ [ 31.036036036036034, 30.04954954954955 ], [ 31.036036036036034, 30.054054054054053 ], [ 31.031531531531531, 30.054054054054053 ], [ 31.031531531531531, 30.04954954954955 ], [ 31.036036036036034, 30.04954954954955 ] ] ] } },
{ "type": "Feature", "properties": { "cell_id": 124, "poi_count": 0, "text_des": "", "poi_categories": [ ] }, "geometry": { "type": "Polygon", "coordinates": [ [ [ 31.036036036036034, 30.054054054054053 ], [ 31.036036036036034, 30.058558558558556 ], [ 31.031531531531531, 30.058558558558556 ], [ 31.031531531531531, 30.054054054054053 ], [ 31.036036036036034, 30.054054054054053 ] ] ] } },
{ "type": "Feature", "properties": { "cell_id": 125, "poi_count": 0, "text_des": "", "poi_categories": [ ] }, "geometry": { "type": "Polygon", "coordinates": [ [ [ 31.036036036036034, 30.058558558558559 ], [ 31.036036036036034, 30.063063063063062 ], [ 31.031531531531531, 30.063063063063062 ], [ 31.031531531531531, 30.058558558558559 ], [ 31.036036036036034, 30.058558558558559 ] ] ] } },
{ "type": "Feature", "properties": { "cell_id": 126, "poi_count": 0, "text_des": "", "poi_categories": [ ] }, "geometry": { "type": "Polygon", "coordinates": [ [ [ 31.036036036036034, 30.063063063063062 ], [ 31.036036036036034, 30.067567567567565 ], [ 31.031531531531531, 30.067567567567565 ], [ 31.031531531531531, 30.063063063063062 ], [ 31.036036036036034, 30.063063063063062 ] ] ] } },
{ "type": "Feature", "properties": { "cell_id": 127, "poi_count": 0, "text_des": "", "poi_categories": [ ] }, "geometry": { "type": "Polygon", "coordinates": [ [ [ 31.036036036036034, 30.067567567567568 ], [ 31.036036036036034, 30.072072072072071 ], [ 31.031531531531531, 30.072072072072071 ], [ 31.031531531531531, 30.067567567567568 ], [ 31.036036036036034, 30.067567567567568 ] ] ] } },
{ "type": "Feature", "properties": { "cell_id": 128, "poi_count": 0, "text_des": "", "poi_categories": [ ] }, "geometry": { "type": "Polygon", "coordinates": [ [ [ 31.04054054054054, 30.0 ], [ 31.04054054054054, 30.004504504504503 ], [ 31.036036036036037, 30.004504504504503 ], [ 31.036036036036037, 30.0 ], [ 31.04054054054054, 30.0 ] ] ] } },
{ "type": "Feature", "properties": { "cell_id": 129, "poi_count": 0, "text_des": "", "poi_categories": [ ] }, "geometry": { "type": "Polygon", "coordinates": [ [ [ 31.04054054054054, 30.004504504504503 ], [ 31.04054054054054, 30.009009009009006 ], [ 31.036036036036037, 30.009009009009006 ], [ 31.036036036036037, 30.004504504504503 ], [ 31.04054054054054, 30.004504504504503 ] ] ] } },
{ "type": "Feature", "properties": { "cell_id": 130, "poi_count": 0, "text_des": "", "poi_categories": [ ] }, "geometry": { "type": "Polygon", "coordinates": [ [ [ 31.04054054054054, 30.009009009009009 ], [ 31.04054054054054, 30.013513513513512 ], [ 31.036036036036037, 30.013513513513512 ], [ 31.036036036036037, 30.009009009009009 ], [ 31.04054054054054, 30.009009009009009 ] ] ] } },
{ "type": "Feature", "properties": { "cell_id": 131, "poi_count": 0, "text_des": "", "poi_categories": [ ] }, "geometry": { "type": "Polygon", "coordinates": [ [ [ 31.04054054054054, 30.013513513513512 ], [ 31.04054054054054, 30.018018018018015 ], [ 31.036036036036037, 30.018018018018015 ], [ 31.036036036036037, 30.013513513513512 ], [ 31.04054054054054, 30.013513513513512 ] ] ] } },
{ "type": "Feature", "properties": { "cell_id": 132, "poi_count": 0, "text_des": "", "poi_categories": [ ] }, "geometry": { "type": "Polygon", "coordinates": [ [ [ 31.04054054054054, 30.018018018018019 ], [ 31.04054054054054, 30.022522522522522 ], [ 31.036036036036037, 30.022522522522522 ], [ 31.036036036036037, 30.018018018018019 ], [ 31.04054054054054, 30.018018018018019 ] ] ] } },
{ "type": "Feature", "properties": { "cell_id": 133, "poi_count": 0, "text_des": "", "poi_categories": [ ] }, "geometry": { "type": "Polygon", "coordinates": [ [ [ 31.04054054054054, 30.022522522522522 ], [ 31.04054054054054, 30.027027027027025 ], [ 31.036036036036037, 30.027027027027025 ], [ 31.036036036036037, 30.022522522522522 ], [ 31.04054054054054, 30.022522522522522 ] ] ] } },
{ "type": "Feature", "properties": { "cell_id": 134, "poi_count": 0, "text_des": "", "poi_categories": [ ] }, "geometry": { "type": "Polygon", "coordinates": [ [ [ 31.04054054054054, 30.027027027027028 ], [ 31.04054054054054, 30.031531531531531 ], [ 31.036036036036037, 30.031531531531531 ], [ 31.036036036036037, 30.027027027027028 ], [ 31.04054054054054, 30.027027027027028 ] ] ] } },
{ "type": "Feature", "properties": { "cell_id": 135, "poi_count": 0, "text_des": "", "poi_categories": [ ] }, "geometry": { "type": "Polygon", "coordinates": [ [ [ 31.04054054054054, 30.031531531531531 ], [ 31.04054054054054, 30.036036036036034 ], [ 31.036036036036037, 30.036036036036034 ], [ 31.036036036036037, 30.031531531531531 ], [ 31.04054054054054, 30.031531531531531 ] ] ] } },
{ "type": "Feature", "properties": { "cell_id": 136, "poi_count": 0, "text_des": "", "poi_categories": [ ] }, "geometry": { "type": "Polygon", "coordinates": [ [ [ 31.04054054054054, 30.036036036036037 ], [ 31.04054054054054, 30.04054054054054 ], [ 31.036036036036037, 30.04054054054054 ], [ 31.036036036036037, 30.036036036036037 ], [ 31.04054054054054, 30.036036036036037 ] ] ] } },
{ "type": "Feature", "properties": { "cell_id": 137, "poi_count": 0, "text_des": "", "poi_categories": [ ] }, "geometry": { "type": "Polygon", "coordinates": [ [ [ 31.04054054054054, 30.04054054054054 ], [ 31.04054054054054, 30.045045045045043 ], [ 31.036036036036037, 30.045045045045043 ], [ 31.036036036036037, 30.04054054054054 ], [ 31.04054054054054, 30.04054054054054 ] ] ] } },
{ "type": "Feature", "properties": { "cell_id": 138, "poi_count": 0, "text_des": "", "poi_categories": [ ] }, "geometry": { "type": "Polygon", "coordinates": [ [ [ 31.04054054054054, 30.045045045045047 ], [ 31.04054054054054, 30.04954954954955 ], [ 31.036036036036037, 30.04954954954955 ], [ 31.036036036036037, 30.045045045045047 ], [ 31.04054054054054, 30.045045045045047 ] ] ] } },
{ "type": "Feature", "properties": { "cell_id": 139, "poi_count": 0, "text_des": "", "poi_categories": [ ] }, "geometry": { "type": "Polygon", "coordinates": [ [ [ 31.04054054054054, 30.04954954954955 ], [ 31.04054054054054, 30.054054054054053 ], [ 31.036036036036037, 30.054054054054053 ], [ 31.036036036036037, 30.04954954954955 ], [ 31.04054054054054, 30.04954954954955 ] ] ] } },
{ "type": "Feature", "properties": { "cell_id": 140, "poi_count": 0, "text_des": "", "poi_categories": [ ] }, "geometry": { "type": "Polygon", "coordinates": [ [ [ 31.04054054054054, 30.054054054054053 ], [ 31.04054054054054, 30.058558558558556 ], [ 31.036036036036037, 30.058558558558556 ], [ 31.036036036036037, 30.054054054054053 ], [ 31.04054054054054, 30.054054054054053 ] ] ] } },
{ "type": "Feature", "properties": { "cell_id": 141, "poi_count": 0, "text_des": "", "poi_categories": [ ] }, "geometry": { "type": "Polygon", "coordinates": [ [ [ 31.04054054054054, 30.058558558558559 ], [ 31.04054054054054, 30.063063063063062 ], [ 31.036036036036037, 30.063063063063062 ], [ 31.036036036036037, 30.058558558558559 ], [ 31.04054054054054, 30.058558558558559 ] ] ] } },
{ "type": "Feature", "properties": { "cell_id": 142, "poi_count": 0, "text_des": "", "poi_categories": [ ] }, "geometry": { "type": "Polygon", "coordinates": [ [ [ 31.04054054054054, 30.063063063063062 ], [ 31.04054054054054, 30.067567567567565 ], [ 31.036036036036037, 30.067567567567565 ], [ 31.036036036036037, 30.063063063063062 ], [ 31.04054054054054, 30.063063063063062 ] ] ] } },
{ "type": "Feature", "properties": { "cell_id": 143, "poi_count": 0, "text_des": "", "poi_categories": [ ] }, "geometry": { "type": "Polygon", "coordinates": [ [ [ 31.04054054054054, 30.067567567567568 ], [ 31.04054054054054, 30.072072072072071 ], [ 31.036036036036037, 30.072072072072071 ], [ 31.036036036036037, 30.067567567567568 ], [ 31.04054054054054, 30.067567567567568 ] ] ] } },
{ "type": "Feature", "properties": { "cell_id": 144, "poi_count": 0, "text_des": "", "poi_categories": [ ] }, "geometry": { "type": "Polygon", "coordinates": [ [ [ 31.045045045045043, 30.0 ], [ 31.045045045045043, 30.004504504504503 ], [ 31.04054054054054, 30.004504504504503 ], [ 31.04054054054054, 30.0 ], [ 31.045045045045043, 30.0 ] ] ] } },
{ "type": "Feature", "properties": { "cell_id": 145, "poi_count": 0, "text_des": "", "poi_categories": [ ] }, "geometry": { "type": "Polygon", "coordinates": [ [ [ 31.045045045045043, 30.004504504504503 ], [ 31.045045045045043, 30.009009009009006 ], [ 31.04054054054054, 30.009009009009006 ], [ 31.04054054054054, 30.004504504504503 ], [ 31.045045045045043, 30.004504504504503 ] ] ] } },
{ "type": "Feature", "properties": { "cell_id": 146, "poi_count": 0, "text_des": "", "poi_categories": [ ] }, "geometry": { "type": "Polygon", "coordinates": [ [ [ 31.045045045045043, 30.009009009009009 ], [ 31.045045045045043, 30.013513513513512 ], [ 31.04054054054054, 30.013513513513512 ], [ 31.04054054054054, 30.009009009009009 ], [ 31.045045045045043, 30.009009009009009 ] ] ] } },
{ "type": "Feature", "properties": { "cell_id": 147, "poi_count": 0, "text_des": "", "poi_categories": [ ] }, "geometry": { "type": "Polygon", "coordinates": [ [ [ 31.045045045045043, 30.013513513513512 ], [ 31.045045045045043, 30.018018018018015 ], [ 31.04054054054054, 30.018018018018015 ], [ 31.04054054054054, 30.013513513513512 ], [ 31.045045045045043, 30.013513513513512 ] ] ] } },
{ "type": "Feature", "properties": { "cell_id": 148, "poi_count": 0, "text_des": "", "poi_categories": [ ] }, "geometry": { "type": "Polygon", "coordinates": [ [ [ 31.045045045045043, 30.018018018018019 ], [ 31.045045045045043, 30.022522522522522 ], [ 31.04054054054054, 30.022522522522522 ], [ 31.04054054054054, 30.018018018018019 ], [ 31.045045045045043, 30.018018018018019 ] ] ] } },
{ "type": "Feature", "properties": { "cell_id": 149, "poi_count": 0, "text_des": "", "poi_categories": [ ] }, "geometry": { "type": "Polygon", "coordinates": [ [ [ 31.045045045045043, 30.022522522522522 ], [ 31.045045045045043, 30.027027027027025 ], [ 31.04054054054054, 30.027027027027025 ], [ 31.04054054054054, 30.022522522522522 ], [ 31.045045045045043, 30.022522522522522 ] ] ] } },
{ "type": "Feature", "properties": { "cell_id": 150, "poi_count": 0, "text_des": "", "poi_categories": [ ] }, "geometry": { "type": "Polygon", "coordinates": [ [ [ 31.045045045045043, 30.027027027027028 ], [ 31.045045045045043, 30.031531531531531 ], [ 31.04054054054054, 30.031531531531531 ], [ 31.04054054054054, 30.027027027027028 ], [ 31.045045045045043, 30.027027027027028 ] ] ] } },
{ "type": "Feature", "properties": { "cell_id": 151, "poi_count": 0, "text_des": "", "poi_categories": [ ] }, "geometry": { "type": "Polygon", "coordinates": [ [ [ 31.045045045045043, 30.031531531531531 ], [ 31.045045045045043, 30.036036036036034 ], [ 31.04054054054054, 30.036036036036034 ], [ 31.04054054054054, 30.031531531531531 ], [ 31.045045045045043, 30.031531531531531 ] ] ] } },
{ "type": "Feature", "properties": { "cell_id": 152, "poi_count": 0, "text_des": "", "poi_categories": [ ] }, "geometry": { "type": "Polygon", "coordinates": [ [ [ 31.045045045045043, 30.036036036036037 ], [ 31.045045045045043, 30.04054054054054 ], [ 31.04054054054054, 30.04054054054054 ], [ 31.04054054054054, 30.036036036036037 ], [ 31.045045045045043, 30.036036036036037 ] ] ] } },
{ "type": "Feature", "properties": { "cell_id": 153, "poi_count": 0, "text_des": "", "poi_categories": [ ] }, "geometry": { "type": "Polygon", "coordinates": [ [ [ 31.045045045045043, 30.04054054054054 ], [ 31.045045045045043, 30.045045045045043 ], [ 31.04054054054054, 30.045045045045043 ], [ 31.04054054054054, 30.04054054054054 ], [ 31.045045045045043, 30.04054054054054 ] ] ] } },
{ "type": "Feature", "properties": { "cell_id": 154, "poi_count": 0, "text_des": "", "poi_categories": [ ] }, "geometry": { "type": "Polygon", "coordinates": [ [ [ 31.045045045045043, 30.045045045045047 ], [ 31.045045045045043, 30.04954954954955 ], [ 31.04054054054054, 30.04954954954955 ], [ 31.04054054054054, 30.045045045045047 ], [ 31.045045045045043, 30.045045045045047 ] ] ] } },
{ "type": "Feature", "properties": { "cell_id": 155, "poi_count": 0, "text_des": "", "poi_categories": [ ] }, "geometry": { "type": "Polygon", "coordinates": [ [ [ 31.045045045045043, 30.04954954954955 ], [ 31.045045045045043, 30.054054054054053 ], [ 31.04054054054054, 30.054054054054053 ], [ 31.04054054054054, 30.04954954954955 ], [ 31.045045045045043, 30.04954954954955 ] ] ] } },
{ "type": "Feature", "properties": { "cell_id": 156, "poi_count": 0, "text_des": "", "poi_categories": [ ] }, "geometry": { "type": "Polygon", "coordinates": [ [ [ 31.045045045045043, 30.054054054054053 ], [ 31.045045045045043, 30.058558558558556 ], [ 31.04054054054054, 30.058558558558556 ], [ 31.04054054054054, 30.054054054054053 ], [ 31.045045045045043, 30.054054054054053 ] ] ] } },
{ "type": "Feature", "properties": { "cell_id": 157, "poi_count": 0, "text_des": "", "poi_categories": [ ] }, "geometry": { "type": "Polygon", "coordinates": [ [ [ 31.045045045045043, 30.058558558558559 ], [ 31.045045045045043, 30.063063063063062 ], [ 31.04054054054054, 30.063063063063062 ], [ 31.04054054054054, 30.058558558558559 ], [ 31.045045045045043, 30.058558558558559 ] ] ] } },
{ "type": "Feature", "properties": { "cell_id": 158, "poi_count": 0, "text_des": "", "poi_categories": [ ] }, "geometry": { "type": "Polygon", "coordinates": [ [ [ 31.045045045045043, 30.063063063063062 ], [ 31.045045045045043, 30.067567567567565 ], [ 31.04054054054054, 30.067567567567565 ], [ 31.04054054054054, 30.063063063063062 ], [ 31.045045045045043, 30.063063063063062 ] ] ] } },
{ "type": "Feature", "properties": { "cell_id": 159, "poi_count": 0, "text_des": "", "poi_categories": [ ] }, "geometry": { "type": "Polygon", "coordinates": [ [ [ 31.045045045045043, 30.067567567567568 ], [ 31.045045045045043, 30.072072072072071 ], [ 31.04054054054054, 30.072072072072071 ], [ 31.04054054054054, 30.067567567567568 ], [ 31.045045045045043, 30.067567567567568 ] ] ] } },
{ "type": "Feature", "properties": { "cell_id": 160, "poi_count": 0, "text_des": "", "poi_categories": [ ] }, "geometry": { "type": "Polygon", "coordinates": [ [ [ 31.04954954954955, 30.0 ], [ 31.04954954954955, 30.004504504504503 ], [ 31.045045045045047, 30.004504504504503 ], [ 31.045045045045047, 30.0 ], [ 31.04954954954955, 30.0 ] ] ] } },
{ "type": "Feature", "properties": { "cell_id": 161, "poi_count": 0, "text_des": "", "poi_categories": [ ] }, "geometry": { "type": "Polygon", "coordinates": [ [ [ 31.04954954954955, 30.004504504504503 ], [ 31.04954954954955, 30.009009009009006 ], [ 31.045045045045047, 30.009009009009006 ], [ 31.045045045045047, 30.004504504504503 ], [ 31.04954954954955, 30.004504504504503 ] ] ] } },
{ "type": "Feature", "properties": { "cell_id": 162, "poi_count": 0, "text_des": "", "poi_categories": [ ] }, "geometry": { "type": "Polygon", "coordinates": [ [ [ 31.04954954954955, 30.009009009009009 ], [ 31.04954954954955, 30.013513513513512 ], [ 31.045045045045047, 30.013513513513512 ], [ 31.045045045045047, 30.009009009009009 ], [ 31.04954954954955, 30.009009009009009 ] ] ] } },
{ "type": "Feature", "properties": { "cell_id": 163, "poi_count": 0, "text_des": "", "poi_categories": [ ] }, "geometry": { "type": "Polygon", "coordinates": [ [ [ 31.04954954954955, 30.013513513513512 ], [ 31.04954954954955, 30.018018018018015 ], [ 31.045045045045047, 30.018018018018015 ], [ 31.045045045045047, 30.013513513513512 ], [ 31.04954954954955, 30.013513513513512 ] ] ] } },
{ "type": "Feature", "properties": { "cell_id": 164, "poi_count": 0, "text_des": "", "poi_categories": [ ] }, "geometry": { "type": "Polygon", "coordinates": [ [ [ 31.04954954954955, 30.018018018018019 ], [ 31.04954954954955, 30.022522522522522 ], [ 31.045045045045047, 30.022522522522522 ], [ 31.045045045045047, 30.018018018018019 ], [ 31.04954954954955, 30.018018018018019 ] ] ] } },
{ "type": "Feature", "properties": { "cell_id": 165, "poi_count": 0, "text_des": "", "poi_categories": [ ] }, "geometry": { "type": "Polygon", "coordinates": [ [ [ 31.04954954954955, 30.022522522522522 ], [ 31.04954954954955, 30.027027027027025 ], [ 31.045045045045047, 30.027027027027025 ], [ 31.045045045045047, 30.022522522522522 ], [ 31.04954954954955, 30.022522522522522 ] ] ] } },
{ "type": "Feature", "properties": { "cell_id": 166, "poi_count": 0, "text_des": "", "poi_categories": [ ] }, "geometry": { "type": "Polygon", "coordinates": [ [ [ 31.04954954954955, 30.027027027027028 ], [ 31.04954954954955, 30.031531531531531 ], [ 31.045045045045047, 30.031531531531531 ], [ 31.045045045045047, 30.027027027027028 ], [ 31.04954954954955, 30.027027027027028 ] ] ] } },
{ "type": "Feature", "properties": { "cell_id": 167, "poi_count": 0, "text_des": "", "poi_categories": [ ] }, "geometry": { "type": "Polygon", "coordinates": [ [ [ 31.04954954954955, 30.031531531531531 ], [ 31.04954954954955, 30.036036036036034 ], [ 31.045045045045047, 30.036036036036034 ], [ 31.045045045045047, 30.031531531531531 ], [ 31.04954954954955, 30.031531531531531 ] ] ] } },
{ "type": "Feature", "properties": { "cell_id": 168, "poi_count": 0, "text_des": "", "poi_categories": [ ] }, "geometry": { "type": "Polygon", "coordinates": [ [ [ 31.04954954954955, 30.036036036036037 ], [ 31.04954954954955, 30.04054054054054 ], [ 31.045045045045047, 30.04054054054054 ], [ 31.045045045045047, 30.036036036036037 ], [ 31.04954954954955, 30.036036036036037 ] ] ] } },
{ "type": "Feature", "properties": { "cell_id": 169, "poi_count": 0, "text_des": "", "poi_categories": [ ] }, "geometry": { "type": "Polygon", "coordinates": [ [ [ 31.04954954954955, 30.04054054054054 ], [ 31.04954954954955, 30.045045045045043 ], [ 31.045045045045047, 30.045045045045043 ], [ 31.045045045045047, 30.04054054054054 ], [ 31.04954954954955, 30.04054054054054 ] ] ] } },
{ "type": "Feature", "properties": { "cell_id": 170, "poi_count": 0, "text_des": "", "poi_categories": [ ] }, "geometry": { "type": "Polygon", "coordinates": [ [ [ 31.04954954954955, 30.045045045045047 ], [ 31.04954954954955, 30.04954954954955 ], [ 31.045045045045047, 30.04954954954955 ], [ 31.045045045045047, 30.045045045045047 ], [ 31.04954954954955, 30.045045045045047 ] ] ] } },
{ "type": "Feature", "properties": { "cell_id": 171, "poi_count": 0, "text_des": "", "poi_categories": [ ] }, "geometry": { "type": "Polygon", "coordinates": [ [ [ 31.04954954954955, 30.04954954954955 ], [ 31.04954954954955, 30.054054054054053 ], [ 31.045045045045047, 30.054054054054053 ], [ 31.045045045045047, 30.04954954954955 ], [ 31.04954954954955, 30.04954954954955 ] ] ] } },
{ "type": "Feature", "properties": { "cell_id": 172, "poi_count": 0, "text_des": "", "poi_categories": [ ] }, "geometry": { "type": "Polygon", "coordinates": [ [ [ 31.04954954954955, 30.054054054054053 ], [ 31.04954954954955, 30.058558558558556 ], [ 31.045045045045047, 30.058558558558556 ], [ 31.045045045045047, 30.054054054054053 ], [ 31.04954954954955, 30.054054054054053 ] ] ] } },
{ "type": "Feature", "properties": { "cell_id": 173, "poi_count": 0, "text_des": "", "poi_categories": [ ] }, "geometry": { "type": "Polygon", "coordinates": [ [ [ 31.04954954954955, 30.058558558558559 ], [ 31.04954954954955, 30.063063063063062 ], [ 31.045045045045047, 30.063063063063062 ], [ 31.045045045045047, 30.058558558558559 ], [ 31.04954954954955, 30.058558558558559 ] ] ] } },
{ "type": "Feature", "properties": { "cell_id": 174, "poi_count": 0, "text_des": "", "poi_categories": [ ] }, "geometry": { "type": "Polygon", "coordinates": [ [ [ 31.04954954954955, 30.063063063063062 ], [ 31.04954954954955, 30.067567567567565 ], [ 31.045045045045047, 30.067567567567565 ], [ 31.045045045045047, 30.063063063063062 ], [ 31.04954954954955, 30.063063063063062 ] ] ] } },
{ "type": "Feature", "properties": { "cell_id": 175, "poi_count": 0, "text_des": "", "poi_categories": [ ] }, "geometry": { "type": "Polygon", "coordinates": [ [ [ 31.04954954954955, 30.067567567567568 ], [ 31.04954954954955, 30.072072072072071 ], [ 31.045045045045047, 30.072072072072071 ], [ 31.045045045045047, 30.067567567567568 ], [ 31.04954954954955, 30.067567567567568 ] ] ] } },
{ "type": "Feature", "properties": { "cell_id": 176, "poi_count": 0, "text_des": "", "poi_categories": [ ] }, "geometry": { "type": "Polygon", "coordinates": [ [ [ 31.054054054054053, 30.0 ], [ 31.054054054054053, 30.004504504504503 ], [ 31.04954954954955, 30.004504504504503 ], [ 31.04954954954955, 30.0 ], [ 31.054054054054053, 30.0 ] ] ] } },
{ "type": "Feature", "properties": { "cell_id": 177, "poi_count": 0, "text_des": "", "poi_categories": [ ] }, "geometry": { "type": "Polygon", "coordinates": [ [ [ 31.054054054054053, 30.004504504504503 ], [ 31.054054054054053, 30.009009009009006 ], [ 31.04954954954955, 30.009009009009006 ], [ 31.04954954954955, 30.004504504504503 ], [ 31.054054054054053, 30.004504504504503 ] ] ] } },
{ "type": "Feature", "properties": { "cell_id": 178, "poi_count": 0, "text_des": "", "poi_categories": [ ] }, "geometry": { "type": "Polygon", "coordinates": [ [ [ 31.054054054054053, 30.009009009009009 ], [ 31.054054054054053, 30.013513513513512 ], [ 31.04954954954955, 30.013513513513512 ], [ 31.04954954954955, 30.009009009009009 ], [ 31.054054054054053, 30.009009009009009 ] ] ] } },
{ "type": "Feature", "properties": { "cell_id": 179, "poi_count": 0, "text_des": "", "poi_categories": [ ] }, "geometry": { "type": "Polygon", "coordinates": [ [ [ 31.054054054054053, 30.013513513513512 ], [ 31.054054054054053, 30.018018018018015 ], [ 31.04954954954955, 30.018018018018015 ], [ 31.04954954954955, 30.013513513513512 ], [ 31.054054054054053, 30.013513513513512 ] ] ] } },
{ "type": "Feature", "properties": { "cell_id": 180, "poi_count": 0, "text_des": "", "poi_categories": [ ] }, "geometry": { "type": "Polygon", "coordinates": [ [ [ 31.054054054054053, 30.018018018018019 ], [ 31.054054054054053, 30.022522522522522 ], [ 31.04954954954955, 30.022522522522522 ], [ 31.04954954954955, 30.018018018018019 ], [ 31.054054054054053, 30.018018018018019 ] ] ] } },
{ "type": "Feature", "properties": { "cell_id": 181, "poi_count": 0, "text_des": "", "poi_categories": [ ] }, "geometry": { "type": "Polygon", "coordinates": [ [ [ 31.054054054054053, 30.022522522522522 ], [ 31.054054054054053, 30.027027027027025 ], [ 31.04954954954955, 30.027027027027025 ], [ 31.04954954954955, 30.022522522522522 ], [ 31.054054054054053, 30.022522522522522 ] ] ] } },
{ "type": "Feature", "properties": { "cell_id": 182, "poi_count": 0, "text_des": "", "poi_categories": [ ] }, "geometry": { "type": "Polygon", "coordinates": [ [ [ 31.054054054054053, 30.027027027027028 ], [ 31.054054054054053, 30.031531531531531 ], [ 31.04954954954955, 30.031531531531531 ], [ 31.04954954954955, 30.027027027027028 ], [ 31.054054054054053, 30.027027027027028 ] ] ] } },
{ "type": "Feature", "properties": { "cell_id": 183, "poi_count": 0, "text_des": "", "poi_categories": [ ] }, "geometry": { "type": "Polygon", "coordinates": [ [ [ 31.054054054054053, 30.031531531531531 ], [ 31.054054054054053, 30.036036036036034 ], [ 31.04954954954955, 30.036036036036034 ], [ 31.04954954954955, 30.031531531531531 ], [ 31.054054054054053, 30.031531531531531 ] ] ] } },
{ "type": "Feature", "properties": { "cell_id": 184, "poi_count": 0, "text_des": "", "poi_categories": [ ] }, "geometry": { "type": "Polygon", "coordinates": [ [ [ 31.054054054054053, 30.036036036036037 ], [ 31.054054054054053, 30.04054054054054 ], [ 31.04954954954955, 30.04054054054054 ], [ 31.04954954954955, 30.036036036036037 ], [ 31.054054054054053, 30.036036036036037 ] ] ] } },
{ "type": "Feature", "properties": { "cell_id": 185, "poi_count": 0, "text_des": "", "poi_categories": [ ] }, "geometry": { "type": "Polygon", "coordinates": [ [ [ 31.054054054054053, 30.04054054054054 ], [ 31.054054054054053, 30.045045045045043 ], [ 31.04954954954955, 30.045045045045043 ], [ 31.04954954954955, 30.04054054054054 ], [ 31.054054054054053, 30.04054054054054 ] ] ] } },
{ "type": "Feature", "properties": { "cell_id": 186, "poi_count": 0, "text_des": "", "poi_categories": [ ] }, "geometry": { "type": "Polygon", "coordinates": [ [ [ 31.054054054054053, 30.045045045045047 ], [ 31.054054054054053, 30.04954954954955 ], [ 31.04954954954955, 30.04954954954955 ], [ 31.04954954954955, 30.045045045045047 ], [ 31.054054054054053, 30.045045045045047 ] ] ] } },
{ "type": "Feature", "properties": { "cell_id": 187, "poi_count": 0, "text_des": "", "poi_categories": [ ] }, "geometry": { "type": "Polygon", "coordinates": [ [ [ 31.054054054054053, 30.04954954954955 ], [ 31.054054054054053, 30.054054054054053 ], [ 31.04954954954955, 30.054054054054053 ], [ 31.04954954954955, 30.04954954954955 ], [ 31.054054054054053, 30.04954954954955 ] ] ] } },
{ "type": "Feature", "properties": { "cell_id": 188, "poi_count": 0, "text_des": "", "poi_categories": [ ] }, "geometry": { "type": "Polygon", "coordinates": [ [ [ 31.054054054054053, 30.054054054054053 ], [ 31.054054054054053, 30.058558558558556 ], [ 31.04954954954955, 30.058558558558556 ], [ 31.04954954954955, 30.054054054054053 ], [ 31.054054054054053, 30.054054054054053 ] ] ] } },
{ "type": "Feature", "properties": { "cell_id": 189, "poi_count": 0, "text_des": "", "poi_categories": [ ] }, "geometry": { "type": "Polygon", "coordinates": [ [ [ 31.054054054054053, 30.058558558558559 ], [ 31.054054054054053, 30.063063063063062 ], [ 31.04954954954955, 30.063063063063062 ], [ 31.04954954954955, 30.058558558558559 ], [ 31.054054054054053, 30.058558558558559 ] ] ] } },
{ "type": "Feature", "properties": { "cell_id": 190, "poi_count": 0, "text_des": "", "poi_categories": [ ] }, "geometry": { "type": "Polygon", "coordinates": [ [ [ 31.054054054054053, 30.063063063063062 ], [ 31.054054054054053, 30.067567567567565 ], [ 31.04954954954955, 30.067567567567565 ], [ 31.04954954954955, 30.063063063063062 ], [ 31.054054054054053, 30.063063063063062 ] ] ] } },
{ "type": "Feature", "properties": { "cell_id": 191, "poi_count": 0, "text_des": "", "poi_categories": [ ] }, "geometry": { "type": "Polygon", "coordinates": [ [ [ 31.054054054054053, 30.067567567567568 ], [ 31.054054054054053, 30.072072072072071 ], [ 31.04954954954955, 30.072072072072071 ], [ 31.04954954954955, 30.067567567567568 ], [ 31.054054054054053, 30.067567567567568 ] ] ] } },
{ "type": "Feature", "properties": { "cell_id": 192, "poi_count": 0, "text_des": "", "poi_categories": [ ] }, "geometry": { "type": "Polygon", "coordinates": [ [ [ 31.058558558558556, 30.0 ], [ 31.058558558558556, 30.004504504504503 ], [ 31.054054054054053, 30.004504504504503 ], [ 31.054054054054053, 30.0 ], [ 31.058558558558556, 30.0 ] ] ] } },
{ "type": "Feature", "properties": { "cell_id": 193, "poi_count": 0, "text_des": "", "poi_categories": [ ] }, "geometry": { "type": "Polygon", "coordinates": [ [ [ 31.058558558558556, 30.004504504504503 ], [ 31.058558558558556, 30.009009009009006 ], [ 31.054054054054053, 30.009009009009006 ], [ 31.054054054054053, 30.004504504504503 ], [ 31.058558558558556, 30.004504504504503 ] ] ] } },
{ "type": "Feature", "properties": { "cell_id": 194, "poi_count": 0, "text_des": "", "poi_categories": [ ] }, "geometry": { "type": "Polygon", "coordinates": [ [ [ 31.058558558558556, 30.009009009009009 ], [ 31.058558558558556, 30.013513513513512 ], [ 31.054054054054053, 30.013513513513512 ], [ 31.054054054054053, 30.009009009009009 ], [ 31.058558558558556, 30.009009009009009 ] ] ] } },
{ "type": "Feature", "properties": { "cell_id": 195, "poi_count": 0, "text_des": "", "poi_categories": [ ] }, "geometry": { "type": "Polygon", "coordinates": [ [ [ 31.058558558558556, 30.013513513513512 ], [ 31.058558558558556, 30.018018018018015 ], [ 31.054054054054053, 30.018018018018015 ], [ 31.054054054054053, 30.013513513513512 ], [ 31.058558558558556, 30.013513513513512 ] ] ] } },
{ "type": "Feature", "properties": { "cell_id": 196, "poi_count": 0, "text_des": "", "poi_categories": [ ] }, "geometry": { "type": "Polygon", "coordinates": [ [ [ 31.058558558558556, 30.018018018018019 ], [ 31.058558558558556, 30.022522522522522 ], [ 31.054054054054053, 30.022522522522522 ], [ 31.054054054054053, 30.018018018018019 ], [ 31.058558558558556, 30.018018018018019 ] ] ] } },
{ "type": "Feature", "properties": { "cell_id": 197, "poi_count": 0, "text_des": "", "poi_categories": [ ] }, "geometry": { "type": "Polygon", "coordinates": [ [ [ 31.058558558558556, 30.022522522522522 ], [ 31.058558558558556, 30.027027027027025 ], [ 31.054054054054053, 30.027027027027025 ], [ 31.054054054054053, 30.022522522522522 ], [ 31.058558558558556, 30.022522522522522 ] ] ] } },
{ "type": "Feature", "properties": { "cell_id": 198, "poi_count": 0, "text_des": "", "poi_categories": [ ] }, "geometry": { "type": "Polygon", "coordinates": [ [ [ 31.058558558558556, 30.027027027027028 ], [ 31.058558558558556, 30.031531531531531 ], [ 31.054054054054053, 30.031531531531531 ], [ 31.054054054054053, 30.027027027027028 ], [ 31.058558558558556, 30.027027027027028 ] ] ] } },
{ "type": "Feature", "properties": { "cell_id": 199, "poi_count": 0, "text_des": "", "poi_categories": [ ] }, "geometry": { "type": "Polygon", "coordinates": [ [ [ 31.058558558558556, 30.031531531531531 ], [ 31.058558558558556, 30.036036036036034 ], [ 31.054054054054053, 30.036036036036034 ], [ 31.054054054054053, 30.031531531531531 ], [ 31.058558558558556, 30.031531531531531 ] ] ] } },
{ "type": "Feature", "properties": { "cell_id": 200, "poi_count": 0, "text_des": "", "poi_categories": [ ] }, "geometry": { "type": "Polygon", "coordinates": [ [ [ 31.058558558558556, 30.036036036036037 ], [ 31.058558558558556, 30.04054054054054 ], [ 31.054054054054053, 30.04054054054054 ], [ 31.054054054054053, 30.036036036036037 ], [ 31.058558558558556, 30.036036036036037 ] ] ] } },
{ "type": "Feature", "properties": { "cell_id": 201, "poi_count": 0, "text_des": "", "poi_categories": [ ] }, "geometry": { "type": "Polygon", "coordinates": [ [ [ 31.058558558558556, 30.04054054054054 ], [ 31.058558558558556, 30.045045045045043 ], [ 31.054054054054053, 30.045045045045043 ], [ 31.054054054054053, 30.04054054054054 ], [ 31.058558558558556, 30.04054054054054 ] ] ] } },
{ "type": "Feature", "properties": { "cell_id": 202, "poi_count": 0, "text_des": "", "poi_categories": [ ] }, "geometry": { "type": "Polygon", "coordinates": [ [ [ 31.058558558558556, 30.045045045045047 ], [ 31.058558558558556, 30.04954954954955 ], [ 31.054054054054053, 30.04954954954955 ], [ 31.054054054054053, 30.045045045045047 ], [ 31.058558558558556, 30.045045045045047 ] ] ] } },
{ "type": "Feature", "properties": { "cell_id": 203, "poi_count": 0, "text_des": "", "poi_categories": [ ] }, "geometry": { "type": "Polygon", "coordinates": [ [ [ 31.058558558558556, 30.04954954954955 ], [ 31.058558558558556, 30.054054054054053 ], [ 31.054054054054053, 30.054054054054053 ], [ 31.054054054054053, 30.04954954954955 ], [ 31.058558558558556, 30.04954954954955 ] ] ] } },
{ "type": "Feature", "properties": { "cell_id": 204, "poi_count": 0, "text_des": "", "poi_categories": [ ] }, "geometry": { "type": "Polygon", "coordinates": [ [ [ 31.058558558558556, 30.054054054054053 ], [ 31.058558558558556, 30.058558558558556 ], [ 31.054054054054053, 30.058558558558556 ], [ 31.054054054054053, 30.054054054054053 ], [ 31.058558558558556, 30.054054054054053 ] ] ] } },
{ "type": "Feature", "properties": { "cell_id": 205, "poi_count": 0, "text_des": "", "poi_categories": [ ] }, "geometry": { "type": "Polygon", "coordinates": [ [ [ 31.058558558558556, 30.058558558558559 ], [ 31.058558558558556, 30.063063063063062 ], [ 31.054054054054053, 30.063063063063062 ], [ 31.054054054054053, 30.058558558558559 ], [ 31.058558558558556, 30.058558558558559 ] ] ] } },
{ "type": "Feature", "properties": { "cell_id": 206, "poi_count": 0, "text_des": "", "poi_categories": [ ] }, "geometry": { "type": "Polygon", "coordinates": [ [ [ 31.058558558558556, 30.063063063063062 ], [ 31.058558558558556, 30.067567567567565 ], [ 31.054054054054053, 30.067567567567565 ], [ 31.054054054054053, 30.063063063063062 ], [ 31.058558558558556, 30.063063063063062 ] ] ] } },
{ "type": "Feature", "properties": { "cell_id": 207, "poi_count": 0, "text_des": "", "poi_categories": [ ] }, "geometry": { "type": "Polygon", "coordinates": [ [ [ 31.058558558558556, 30.067567567567568 ], [ 31.058558558558556, 30.072072072072071 ], [ 31.054054054054053, 30.072072072072071 ], [ 31.054054054054053, 30.067567567567568 ], [ 31.058558558558556, 30.067567567567568 ] ] ] } },
{ "type": "Feature", "properties": { "cell_id": 208, "poi_count": 0, "text_des": "", "poi_categories": [ ] }, "geometry": { "type": "Polygon", "coordinates": [ [ [ 31.063063063063062, 30.0 ], [ 31.063063063063062, 30.004504504504503 ], [ 31.058558558558559, 30.004504504504503 ], [ 31.058558558558559, 30.0 ], [ 31.063063063063062, 30.0 ] ] ] } },
{ "type": "Feature", "properties": { "cell_id": 209, "poi_count": 0, "text_des": "", "poi_categories": [ ] }, "geometry": { "type": "Polygon", "coordinates": [ [ [ 31.063063063063062, 30.004504504504503 ], [ 31.063063063063062, 30.009009009009006 ], [ 31.058558558558559, 30.009009009009006 ], [ 31.058558558558559, 30.004504504504503 ], [ 31.063063063063062, 30.004504504504503 ] ] ] } },
{ "type": "Feature", "properties": { "cell_id": 210, "poi_count": 0, "text_des": "", "poi_categories": [ ] }, "geometry": { "type": "Polygon", "coordinates": [ [ [ 31.063063063063062, 30.009009009009009 ], [ 31.063063063063062, 30.013513513513512 ], [ 31.058558558558559, 30.013513513513512 ], [ 31.058558558558559, 30.009009009009009 ], [ 31.063063063063062, 30.009009009009009 ] ] ] } },
{ "type": "Feature", "properties": { "cell_id": 211, "poi_count": 0, "text_des": "", "poi_categories": [ ] }, "geometry": { "type": "Polygon", "coordinates": [ [ [ 31.063063063063062, 30.013513513513512 ], [ 31.063063063063062, 30.018018018018015 ], [ 31.058558558558559, 30.018018018018015 ], [ 31.058558558558559, 30.013513513513512 ], [ 31.063063063063062, 30.013513513513512 ] ] ] } },
{ "type": "Feature", "properties": { "cell_id": 212, "poi_count": 0, "text_des": "", "poi_categories": [ ] }, "geometry": { "type": "Polygon", "coordinates": [ [ [ 31.063063063063062, 30.018018018018019 ], [ 31.063063063063062, 30.022522522522522 ], [ 31.058558558558559, 30.022522522522522 ], [ 31.058558558558559, 30.018018018018019 ], [ 31.063063063063062, 30.018018018018019 ] ] ] } },
{ "type": "Feature", "properties": { "cell_id": 213, "poi_count": 0, "text_des": "", "poi_categories": [ ] }, "geometry": { "type": "Polygon", "coordinates": [ [ [ 31.063063063063062, 30.022522522522522 ], [ 31.063063063063062, 30.027027027027025 ], [ 31.058558558558559, 30.027027027027025 ], [ 31.058558558558559, 30.022522522522522 ], [ 31.063063063063062, 30.022522522522522 ] ] ] } },
{ "type": "Feature", "properties": { "cell_id": 214, "poi_count": 0, "text_des": "", "poi_categories": [ ] }, "geometry": { "type": "Polygon", "coordinates": [ [ [ 31.063063063063062, 30.027027027027028 ], [ 31.063063063063062, 30.031531531531531 ], [ 31.058558558558559, 30.031531531531531 ], [ 31.058558558558559, 30.027027027027028 ], [ 31.063063063063062, 30.027027027027028 ] ] ] } },
{ "type": "Feature", "properties": { "cell_id": 215, "poi_count": 0, "text_des": "", "poi_categories": [ ] }, "geometry": { "type": "Polygon", "coordinates": [ [ [ 31.063063063063062, 30.031531531531531 ], [ 31.063063063063062, 30.036036036036034 ], [ 31.058558558558559, 30.036036036036034 ], [ 31.058558558558559, 30.031531531531531 ], [ 31.063063063063062, 30.031531531531531 ] ] ] } },
{ "type": "Feature", "properties": { "cell_id": 216, "poi_count": 0, "text_des": "", "poi_categories": [ ] }, "geometry": { "type": "Polygon", "coordinates": [ [ [ 31.063063063063062, 30.036036036036037 ], [ 31.063063063063062, 30.04054054054054 ], [ 31.058558558558559, 30.04054054054054 ], [ 31.058558558558559, 30.036036036036037 ], [ 31.063063063063062, 30.036036036036037 ] ] ] } },
{ "type": "Feature", "properties": { "cell_id": 217, "poi_count": 0, "text_des": "", "poi_categories": [ ] }, "geometry": { "type": "Polygon", "coordinates": [ [ [ 31.063063063063062, 30.04054054054054 ], [ 31.063063063063062, 30.045045045045043 ], [ 31.058558558558559, 30.045045045045043 ], [ 31.058558558558559, 30.04054054054054 ], [ 31.063063063063062, 30.04054054054054 ] ] ] } },
{ "type": "Feature", "properties": { "cell_id": 218, "poi_count": 0, "text_des": "", "poi_categories": [ ] }, "geometry": { "type": "Polygon", "coordinates": [ [ [ 31.063063063063062, 30.045045045045047 ], [ 31.063063063063062, 30.04954954954955 ], [ 31.058558558558559, 30.04954954954955 ], [ 31.058558558558559, 30.045045045045047 ], [ 31.063063063063062, 30.045045045045047 ] ] ] } },
{ "type": "Feature", "properties": { "cell_id": 219, "poi_count": 0, "text_des": "", "poi_categories": [ ] }, "geometry": { "type": "Polygon", "coordinates": [ [ [ 31.063063063063062, 30.04954954954955 ], [ 31.063063063063062, 30.054054054054053 ], [ 31.058558558558559, 30.054054054054053 ], [ 31.058558558558559, 30.04954954954955 ], [ 31.063063063063062, 30.04954954954955 ] ] ] } },
{ "type": "Feature", "properties": { "cell_id": 220, "poi_count": 0, "text_des": "", "poi_categories": [ ] }, "geometry": { "type": "Polygon", "coordinates": [ [ [ 31.063063063063062, 30.054054054054053 ], [ 31.063063063063062, 30.058558558558556 ], [ 31.058558558558559, 30.058558558558556 ], [ 31.058558558558559, 30.054054054054053 ], [ 31.063063063063062, 30.054054054054053 ] ] ] } },
{ "type": "Feature", "properties": { "cell_id": 221, "poi_count": 0, "text_des": "", "poi_categories": [ ] }, "geometry": { "type": "Polygon", "coordinates": [ [ [ 31.063063063063062, 30.058558558558559 ], [ 31.063063063063062, 30.063063063063062 ], [ 31.058558558558559, 30.063063063063062 ], [ 31.058558558558559, 30.058558558558559 ], [ 31.063063063063062, 30.058558558558559 ] ] ] } },
{ "type": "Feature", "properties": { "cell_id": 222, "poi_count": 0, "text_des": "", "poi_categories": [ ] }, "geometry": { "type": "Polygon", "coordinates": [ [ [ 31.063063063063062, 30.063063063063062 ], [ 31.063063063063062, 30.067567567567565 ], [ 31.058558558558559, 30.067567567567565 ], [ 31.058558558558559, 30.063063063063062 ], [ 31.063063063063062, 30.063063063063062 ] ] ] } },
{ "type": "Feature", "properties": { "cell_id": 223, "poi_count": 0, "text_des": "", "poi_categories": [ ] }, "geometry": { "type": "Polygon", "coordinates": [ [ [ 31.063063063063062, 30.067567567567568 ], [ 31.063063063063062, 30.072072072072071 ], [ 31.058558558558559, 30.072072072072071 ], [ 31.058558558558559, 30.067567567567568 ], [ 31.063063063063062, 30.067567567567568 ] ] ] } },
{ "type": "Feature", "properties": { "cell_id": 224, "poi_count": 0, "text_des": "", "poi_categories": [ ] }, "geometry": { "type": "Polygon", "coordinates": [ [ [ 31.067567567567565, 30.0 ], [ 31.067567567567565, 30.004504504504503 ], [ 31.063063063063062, 30.004504504504503 ], [ 31.063063063063062, 30.0 ], [ 31.067567567567565, 30.0 ] ] ] } },
{ "type": "Feature", "properties": { "cell_id": 225, "poi_count": 0, "text_des": "", "poi_categories": [ ] }, "geometry": { "type": "Polygon", "coordinates": [ [ [ 31.067567567567565, 30.004504504504503 ], [ 31.067567567567565, 30.009009009009006 ], [ 31.063063063063062, 30.009009009009006 ], [ 31.063063063063062, 30.004504504504503 ], [ 31.067567567567565, 30.004504504504503 ] ] ] } },
{ "type": "Feature", "properties": { "cell_id": 226, "poi_count": 0, "text_des": "", "poi_categories": [ ] }, "geometry": { "type": "Polygon", "coordinates": [ [ [ 31.067567567567565, 30.009009009009009 ], [ 31.067567567567565, 30.013513513513512 ], [ 31.063063063063062, 30.013513513513512 ], [ 31.063063063063062, 30.009009009009009 ], [ 31.067567567567565, 30.009009009009009 ] ] ] } },
{ "type": "Feature", "properties": { "cell_id": 227, "poi_count": 0, "text_des": "", "poi_categories": [ ] }, "geometry": { "type": "Polygon", "coordinates": [ [ [ 31.067567567567565, 30.013513513513512 ], [ 31.067567567567565, 30.018018018018015 ], [ 31.063063063063062, 30.018018018018015 ], [ 31.063063063063062, 30.013513513513512 ], [ 31.067567567567565, 30.013513513513512 ] ] ] } },
{ "type": "Feature", "properties": { "cell_id": 228, "poi_count": 0, "text_des": "", "poi_categories": [ ] }, "geometry": { "type": "Polygon", "coordinates": [ [ [ 31.067567567567565, 30.018018018018019 ], [ 31.067567567567565, 30.022522522522522 ], [ 31.063063063063062, 30.022522522522522 ], [ 31.063063063063062, 30.018018018018019 ], [ 31.067567567567565, 30.018018018018019 ] ] ] } },
{ "type": "Feature", "properties": { "cell_id": 229, "poi_count": 0, "text_des": "", "poi_categories": [ ] }, "geometry": { "type": "Polygon", "coordinates": [ [ [ 31.067567567567565, 30.022522522522522 ], [ 31.067567567567565, 30.027027027027025 ], [ 31.063063063063062, 30.027027027027025 ], [ 31.063063063063062, 30.022522522522522 ], [ 31.067567567567565, 30.022522522522522 ] ] ] } },
{ "type": "Feature", "properties": { "cell_id": 230, "poi_count": 0, "text_des": "", "poi_categories": [ ] }, "geometry": { "type": "Polygon", "coordinates": [ [ [ 31.067567567567565, 30.027027027027028 ], [ 31.067567567567565, 30.031531531531531 ], [ 31.063063063063062, 30.031531531531531 ], [ 31.063063063063062, 30.027027027027028 ], [ 31.067567567567565, 30.027027027027028 ] ] ] } },
{ "type": "Feature", "properties": { "cell_id": 231, "poi_count": 0, "text_des": "", "poi_categories": [ ] }, "geometry": { "type": "Polygon", "coordinates": [ [ [ 31.067567567567565, 30.031531531531531 ], [ 31.067567567567565, 30.036036036036034 ], [ 31.063063063063062, 30.036036036036034 ], [ 31.063063063063062, 30.031531531531531 ], [ 31.067567567567565, 30.031531531531531 ] ] ] } },
{ "type": "Feature", "properties": { "cell_id": 232, "poi_count": 0, "text_des": "", "poi_categories": [ ] }, "geometry": { "type": "Polygon", "coordinates": [ [ [ 31.067567567567565, 30.036036036036037 ], [ 31.067567567567565, 30.04054054054054 ], [ 31.063063063063062, 30.04054054054054 ], [ 31.063063063063062, 30.036036036036037 ], [ 31.067567567567565, 30.036036036036037 ] ] ] } },
{ "type": "Feature", "properties": { "cell_id": 233, "poi_count": 0, "text_des": "", "poi_categories": [ ] }, "geometry": { "type": "Polygon", "coordinates": [ [ [ 31.067567567567565, 30.04054054054054 ], [ 31.067567567567565, 30.045045045045043 ], [ 31.063063063063062, 30.045045045045043 ], [ 31.063063063063062, 30.04054054054054 ], [ 31.067567567567565, 30.04054054054054 ] ] ] } },
{ "type": "Feature", "properties": { "cell_id": 234, "poi_count": 0, "text_des": "", "poi_categories": [ ] }, "geometry": { "type": "Polygon", "coordinates": [ [ [ 31.067567567567565, 30.045045045045047 ], [ 31.067567567567565, 30.04954954954955 ], [ 31.063063063063062, 30.04954954954955 ], [ 31.063063063063062, 30.045045045045047 ], [ 31.067567567567565, 30.045045045045047 ] ] ] } },
{ "type": "Feature", "properties": { "cell_id": 235, "poi_count": 0, "text_des": "", "poi_categories": [ ] }, "geometry": { "type": "Polygon", "coordinates": [ [ [ 31.067567567567565, 30.04954954954955 ], [ 31.067567567567565, 30.054054054054053 ], [ 31.063063063063062, 30.054054054054053 ], [ 31.063063063063062, 30.04954954954955 ], [ 31.067567567567565, 30.04954954954955 ] ] ] } },
{ "type": "Feature", "properties": { "cell_id": 236, "poi_count": 0, "text_des": "", "poi_categories": [ ] }, "geometry": { "type": "Polygon", "coordinates": [ [ [ 31.067567567567565, 30.054054054054053 ], [ 31.067567567567565, 30.058558558558556 ], [ 31.063063063063062, 30.058558558558556 ], [ 31.063063063063062, 30.054054054054053 ], [ 31.067567567567565, 30.054054054054053 ] ] ] } },
{ "type": "Feature", "properties": { "cell_id": 237, "poi_count": 0, "text_des": "", "poi_categories": [ ] }, "geometry": { "type": "Polygon", "coordinates": [ [ [ 31.067567567567565, 30.058558558558559 ], [ 31.067567567567565, 30.063063063063062 ], [ 31.063063063063062, 30.063063063063062 ], [ 31.063063063063062, 30.058558558558559 ], [ 31.067567567567565, 30.058558558558559 ] ] ] } },
{ "type": "Feature", "properties": { "cell_id": 238, "poi_count": 0, "text_des": "", "poi_categories": [ ] }, "geometry": { "type": "Polygon", "coordinates": [ [ [ 31.067567567567565, 30.063063063063062 ], [ 31.067567567567565, 30.067567567567565 ], [ 31.063063063063062, 30.067567567567565 ], [ 31.063063063063062, 30.063063063063062 ], [ 31.067567567567565, 30.063063063063062 ] ] ] } },
{ "type": "Feature", "properties": { "cell_id": 239, "poi_count": 0, "text_des": "", "poi_categories": [ ] }, "geometry": { "type": "Polygon", "coordinates": [ [ [ 31.067567567567565, 30.067567567567568 ], [ 31.067567567567565, 30.072072072072071 ], [ 31.063063063063062, 30.072072072072071 ], [ 31.063063063063062, 30.067567567567568 ], [ 31.067567567567565, 30.067567567567568 ] ] ] } },
{ "type": "Feature", "properties": { "cell_id": 240, "poi_count": 0, "text_des": "", "poi_categories": [ ] }, "geometry": { "type": "Polygon", "coordinates": [ [ [ 31.072072072072071, 30.0 ], [ 31.072072072072071, 30.004504504504503 ], [ 31.067567567567568, 30.004504504504503 ], [ 31.067567567567568, 30.0 ], [ 31.072072072072071, 30.0 ] ] ] } },
{ "type": "Feature", "properties": { "cell_id": 241, "poi_count": 0, "text_des": "", "poi_categories": [ ] }, "geometry": { "type": "Polygon", "coordinates": [ [ [ 31.072072072072071, 30.004504504504503 ], [ 31.072072072072071, 30.009009009009006 ], [ 31.067567567567568, 30.009009009009006 ], [ 31.067567567567568, 30.004504504504503 ], [ 31.072072072072071, 30.004504504504503 ] ] ] } },
{ "type": "Feature", "properties": { "cell_id": 242, "poi_count": 0, "text_des": "", "poi_categories": [ ] }, "geometry": { "type": "Polygon", "coordinates": [ [ [ 31.072072072072071, 30.009009009009009 ], [ 31.072072072072071, 30.013513513513512 ], [ 31.067567567567568, 30.013513513513512 ], [ 31.067567567567568, 30.009009009009009 ], [ 31.072072072072071, 30.009009009009009 ] ] ] } },
{ "type": "Feature", "properties": { "cell_id": 243, "poi_count": 0, "text_des": "", "poi_categories": [ ] }, "geometry": { "type": "Polygon", "coordinates": [ [ [ 31.072072072072071, 30.013513513513512 ], [ 31.072072072072071, 30.018018018018015 ], [ 31.067567567567568, 30.018018018018015 ], [ 31.067567567567568, 30.013513513513512 ], [ 31.072072072072071, 30.013513513513512 ] ] ] } },
{ "type": "Feature", "properties": { "cell_id": 244, "poi_count": 0, "text_des": "", "poi_categories": [ ] }, "geometry": { "type": "Polygon", "coordinates": [ [ [ 31.072072072072071, 30.018018018018019 ], [ 31.072072072072071, 30.022522522522522 ], [ 31.067567567567568, 30.022522522522522 ], [ 31.067567567567568, 30.018018018018019 ], [ 31.072072072072071, 30.018018018018019 ] ] ] } },
{ "type": "Feature", "properties": { "cell_id": 245, "poi_count": 0, "text_des": "", "poi_categories": [ ] }, "geometry": { "type": "Polygon", "coordinates": [ [ [ 31.072072072072071, 30.022522522522522 ], [ 31.072072072072071, 30.027027027027025 ], [ 31.067567567567568, 30.027027027027025 ], [ 31.067567567567568, 30.022522522522522 ], [ 31.072072072072071, 30.022522522522522 ] ] ] } },
{ "type": "Feature", "properties": { "cell_id": 246, "poi_count": 0, "text_des": "", "poi_categories": [ ] }, "geometry": { "type": "Polygon", "coordinates": [ [ [ 31.072072072072071, 30.027027027027028 ], [ 31.072072072072071, 30.031531531531531 ], [ 31.067567567567568, 30.031531531531531 ], [ 31.067567567567568, 30.027027027027028 ], [ 31.072072072072071, 30.027027027027028 ] ] ] } },
{ "type": "Feature", "properties": { "cell_id": 247, "poi_count": 0, "text_des": "", "poi_categories": [ ] }, "geometry": { "type": "Polygon", "coordinates": [ [ [ 31.072072072072071, 30.031531531531531 ], [ 31.072072072072071, 30.036036036036034 ], [ 31.067567567567568, 30.036036036036034 ], [ 31.067567567567568, 30.031531531531531 ], [ 31.072072072072071, 30.031531531531531 ] ] ] } },
{ "type": "Feature", "properties": { "cell_id": 248, "poi_count": 0, "text_des": "", "poi_categories": [ ] }, "geometry": { "type": "Polygon", "coordinates": [ [ [ 31.072072072072071, 30.036036036036037 ], [ 31.072072072072071, 30.04054054054054 ], [ 31.067567567567568, 30.04054054054054 ], [ 31.067567567567568, 30.036036036036037 ], [ 31.072072072072071, 30.036036036036037 ] ] ] } },
{ "type": "Feature", "properties": { "cell_id": 249, "poi_count": 0, "text_des": "", "poi_categories": [ ] }, "geometry": { "type": "Polygon", "coordinates": [ [ [ 31.072072072072071, 30.04054054054054 ], [ 31.072072072072071, 30.045045045045043 ], [ 31.067567567567568, 30.045045045045043 ], [ 31.067567567567568, 30.04054054054054 ], [ 31.072072072072071, 30.04054054054054 ] ] ] } },
{ "type": "Feature", "properties": { "cell_id": 250, "poi_count": 0, "text_des": "", "poi_categories": [ ] }, "geometry": { "type": "Polygon", "coordinates": [ [ [ 31.072072072072071, 30.045045045045047 ], [ 31.072072072072071, 30.04954954954955 ], [ 31.067567567567568, 30.04954954954955 ], [ 31.067567567567568, 30.045045045045047 ], [ 31.072072072072071, 30.045045045045047 ] ] ] } },
{ "type": "Feature", "properties": { "cell_id": 251, "poi_count": 0, "text_des": "", "poi_categories": [ ] }, "geometry": { "type": "Polygon", "coordinates": [ [ [ 31.072072072072071, 30.04954954954955 ], [ 31.072072072072071, 30.054054054054053 ], [ 31.067567567567568, 30.054054054054053 ], [ 31.067567567567568, 30.04954954954955 ], [ 31.072072072072071, 30.04954954954955 ] ] ] } },
{ "type": "Feature", "properties": { "cell_id": 252, "poi_count": 0, "text_des": "", "poi_categories": [ ] }, "geometry": { "type": "Polygon", "coordinates": [ [ [ 31.072072072072071, 30.054054054054053 ], [ 31.072072072072071, 30.058558558558556 ], [ 31.067567567567568, 30.058558558558556 ], [ 31.067567567567568, 30.054054054054053 ], [ 31.072072072072071, 30.054054054054053 ] ] ] } },
{ "type": "Feature", "properties": { "cell_id": 253, "poi_count": 0, "text_des": "", "poi_categories": [ ] }, "geometry": { "type": "Polygon", "coordinates": [ [ [ 31.072072072072071, 30.058558558558559 ], [ 31.072072072072071, 30.063063063063062 ], [ 31.067567567567568, 30.063063063063062 ], [ 31.067567567567568, 30.058558558558559 ], [ 31.072072072072071, 30.058558558558559 ] ] ] } },
{ "type": "Feature", "properties": { "cell_id": 254, "poi_count": 0, "text_des": "", "poi_categories": [ ] }, "geometry": { "type": "Polygon", "coordinates": [ [ [ 31.072072072072071, 30.063063063063062 ], [ 31.072072072072071, 30.067567567567565 ], [ 31.067567567567568, 30.067567567567565 ], [ 31.067567567567568, 30.063063063063062 ], [ 31.072072072072071, 30.063063063063062 ] ] ] } },
{ "type": "Feature", "properties": { "cell_id": 255, "poi_count": 0, "text_des": "", "poi_categories": [ ] }, "geometry": { "type": "Polygon", "coordinates": [ [ [ 31.072072072072071, 30.067567567567568 ], [ 31.072072072072071, 30.072072072072071 ], [ 31.067567567567568, 30.072072072072071 ], [ 31.067567567567568, 30.067567567567568 ], [ 31.072072072072071, 30.067567567567568 ] ] ] } }
]
}
