{
"type": "FeatureCollection",
"name": "grid_cc523a60",
"crs": { "type": "name", "properties": { "name": "urn:ogc:def:crs:OGC:1.3:CRS84" } },
"features": [
{ "type": "Feature", "properties": { "cell_id": 0, "node_count": 0.0, "total_length": 0.0, "avg_degree": 0.0, "poi_count": 0, "text_des": "", "poi_categories": [ ] }, "geometry": { "type": "Polygon", "coordinates": [ [ [ 31.321960333317953, 30.046165731401516 ], [ 31.321960333317953, 30.050670235906018 ], [ 31.317455828813451, 30.050670235906018 ], [ 31.317455828813451, 30.046165731401516 ], [ 31.321960333317953, 30.046165731401516 ] ] ] } },
{ "type": "Feature", "properties": { "cell_id": 1, "node_count": 0.0, "total_length": 0.0, "avg_degree": 0.0, "poi_count": 0, "text_des": "", "poi_categories": [ ] }, "geometry": { "type": "Polygon", "coordinates": [ [ [ 31.321960333317953, 30.050670235906018 ], [ 31.321960333317953, 30.055174740410521 ], [ 31.317455828813451, 30.055174740410521 ], [ 31.317455828813451, 30.050670235906018 ], [ 31.321960333317953, 30.050670235906018 ] ] ] } },
{ "type": "Feature", "properties": { "cell_id": 2, "node_count": 0.0, "total_length": 0.0, "avg_degree": 0.0, "poi_count": 1, "text_des": "nan", "poi_categories": [ "Government" ] }, "geometry": { "type": "Polygon", "coordinates": [ [ [ 31.321960333317953, 30.055174740410525 ], [ 31.321960333317953, 30.059679244915028 ], [ 31.317455828813451, 30.059679244915028 ], [ 31.317455828813451, 30.055174740410525 ], [ 31.321960333317953, 30.055174740410525 ] ] ] } },
{ "type": "Feature", "properties": { "cell_id": 3, "node_count": 0.0, "total_length": 0.0, "avg_degree": 0.0, "poi_count": 1, "text_des": "nan", "poi_categories": [ "Commercial" ] }, "geometry": { "type": "Polygon", "coordinates": [ [ [ 31.321960333317953, 30.059679244915028 ], [ 31.321960333317953, 30.064183749419531 ], [ 31.317455828813451, 30.064183749419531 ], [ 31.317455828813451, 30.059679244915028 ], [ 31.321960333317953, 30.059679244915028 ] ] ] } },
{ "type": "Feature", "properties": { "cell_id": 4, "node_count": 0.0, "total_length": 0.0, "avg_degree": 0.0, "poi_count": 0, "text_des": "", "poi_categories": [ ] }, "geometry": { "type": "Polygon", "coordinates": [ [ [ 31.321960333317953, 30.064183749419534 ], [ 31.321960333317953, 30.068688253924037 ], [ 31.317455828813451, 30.068688253924037 ], [ 31.317455828813451, 30.064183749419534 ], [ 31.321960333317953, 30.064183749419534 ] ] ] } },
{ "type": "Feature", "properties": { "cell_id": 5, "node_count": 0.0, "total_length": 0.0, "avg_degree": 0.0, "poi_count": 1, "text_des": "تقع Al Sayida Aisha School في القاهرة، مصر. نوع المنطقة: مدرسة. البيانات من OpenStreetMap.", "poi_categories": [ "Education" ] }, "geometry": { "type": "Polygon", "coordinates": [ [ [ 31.326464837822456, 30.046165731401516 ], [ 31.326464837822456, 30.050670235906018 ], [ 31.321960333317953, 30.050670235906018 ], [ 31.321960333317953, 30.046165731401516 ], [ 31.326464837822456, 30.046165731401516 ] ] ] } },
{ "type": "Feature", "properties": { "cell_id": 6, "node_count": 0.0, "total_length": 0.0, "avg_degree": 0.0, "poi_count": 1, "text_des": "تقع مجمع الملك فهد الرسمي للغات في القاهرة، مصر. نوع المنطقة: مدرسة. البيانات من OpenStreetMap.", "poi_categories": [ "Education" ] }, "geometry": { "type": "Polygon", "coordinates": [ [ [ 31.326464837822456, 30.050670235906018 ], [ 31.326464837822456, 30.055174740410521 ], [ 31.321960333317953, 30.055174740410521 ], [ 31.321960333317953, 30.050670235906018 ], [ 31.326464837822456, 30.050670235906018 ] ] ] } },
{ "type": "Feature", "properties": { "cell_id": 7, "node_count": 0.0, "total_length": 0.0, "avg_degree": 0.0, "poi_count": 0, "text_des": "", "poi_categories": [ ] }, "geometry": { "type": "Polygon", "coordinates": [ [ [ 31.326464837822456, 30.055174740410525 ], [ 31.326464837822456, 30.059679244915028 ], [ 31.321960333317953, 30.059679244915028 ], [ 31.321960333317953, 30.055174740410525 ], [ 31.326464837822456, 30.055174740410525 ] ] ] } },
{ "type": "Feature", "properties": { "cell_id": 8, "node_count": 0.0, "total_length": 0.0, "avg_degree": 0.0, "poi_count": 1, "text_des": "تقع أن أس جي بي في القاهرة، مصر. نوع المنطقة: بنك. البيانات من :contentReference[oaicite:1]{index=1}.", "poi_categories": [ "Bank" ] }, "geometry": { "type": "Polygon", "coordinates": [ [ [ 31.326464837822456, 30.059679244915028 ], [ 31.326464837822456, 30.064183749419531 ], [ 31.321960333317953, 30.064183749419531 ], [ 31.321960333317953, 30.059679244915028 ], [ 31.326464837822456, 30.059679244915028 ] ] ] } },
{ "type": "Feature", "properties": { "cell_id": 9, "node_count": 0.0, "total_length": 0.0, "avg_degree": 0.0, "poi_count": 0, "text_des": "", "poi_categories": [ ] }, "geometry": { "type": "Polygon", "coordinates": [ [ [ 31.326464837822456, 30.064183749419534 ], [ 31.326464837822456, 30.068688253924037 ], [ 31.321960333317953, 30.068688253924037 ], [ 31.321960333317953, 30.064183749419534 ], [ 31.326464837822456, 30.064183749419534 ] ] ] } },
{ "type": "Feature", "properties": { "cell_id": 10, "node_count": 0.0, "total_length": 0.0, "avg_degree": 0.0, "poi_count": 0, "text_des": "", "poi_categories": [ ] }, "geometry": { "type": "Polygon", "coordinates": [ [ [ 31.330969342326963, 30.046165731401516 ], [ 31.330969342326963, 30.050670235906018 ], [ 31.32646483782246, 30.050670235906018 ], [ 31.32646483782246, 30.046165731401516 ], [ 31.330969342326963, 30.046165731401516 ] ] ] } },
{ "type": "Feature", "properties": { "cell_id": 11, "node_count": 0.0, "total_length": 0.0, "avg_degree": 0.0, "poi_count": 2, "text_des": "تقع مركز نيروكير في القاهرة، مصر. نوع المنطقة: عام. البيانات من OpenStreetMap. nan", "poi_categories": [ "Health", "Commercial" ] }, "geometry": { "type": "Polygon", "coordinates": [ [ [ 31.330969342326963, 30.050670235906018 ], [ 31.330969342326963, 30.055174740410521 ], [ 31.32646483782246, 30.055174740410521 ], [ 31.32646483782246, 30.050670235906018 ], [ 31.330969342326963, 30.050670235906018 ] ] ] } },
{ "type": "Feature", "properties": { "cell_id": 12, "node_count": 0.0, "total_length": 0.0, "avg_degree": 0.0, "poi_count": 2, "text_des": "تقع مستشفي جمال ابو العزايم في القاهرة، مصر. نوع المنطقة: مستشفى. البيانات من OpenStreetMap. nan", "poi_categories": [ "Health", "Commercial" ] }, "geometry": { "type": "Polygon", "coordinates": [ [ [ 31.330969342326963, 30.055174740410525 ], [ 31.330969342326963, 30.059679244915028 ], [ 31.32646483782246, 30.059679244915028 ], [ 31.32646483782246, 30.055174740410525 ], [ 31.330969342326963, 30.055174740410525 ] ] ] } },
{ "type": "Feature", "properties": { "cell_id": 13, "node_count": 0.0, "total_length": 0.0, "avg_degree": 0.0, "poi_count": 0, "text_des": "", "poi_categories": [ ] }, "geometry": { "type": "Polygon", "coordinates": [ [ [ 31.330969342326963, 30.059679244915028 ], [ 31.330969342326963, 30.064183749419531 ], [ 31.32646483782246, 30.064183749419531 ], [ 31.32646483782246, 30.059679244915028 ], [ 31.330969342326963, 30.059679244915028 ] ] ] } },
{ "type": "Feature", "properties": { "cell_id": 14, "node_count": 0.0, "total_length": 0.0, "avg_degree": 0.0, "poi_count": 0, "text_des": "", "poi_categories": [ ] }, "geometry": { "type": "Polygon", "coordinates": [ [ [ 31.330969342326963, 30.064183749419534 ], [ 31.330969342326963, 30.068688253924037 ], [ 31.32646483782246, 30.068688253924037 ], [ 31.32646483782246, 30.064183749419534 ], [ 31.330969342326963, 30.064183749419534 ] ] ] } },
{ "type": "Feature", "properties": { "cell_id": 15, "node_count": 0.0, "total_length": 0.0, "avg_degree": 0.0, "poi_count": 0, "text_des": "", "poi_categories": [ ] }, "geometry": { "type": "Polygon", "coordinates": [ [ [ 31.335473846831466, 30.046165731401516 ], [ 31.335473846831466, 30.050670235906018 ], [ 31.330969342326963, 30.050670235906018 ], [ 31.330969342326963, 30.046165731401516 ], [ 31.335473846831466, 30.046165731401516 ] ] ] } },
{ "type": "Feature", "properties": { "cell_id": 16, "node_count": 0.0, "total_length": 0.0, "avg_degree": 0.0, "poi_count": 1, "text_des": "nan", "poi_categories": [ "Commercial" ] }, "geometry": { "type": "Polygon", "coordinates": [ [ [ 31.335473846831466, 30.050670235906018 ], [ 31.335473846831466, 30.055174740410521 ], [ 31.330969342326963, 30.055174740410521 ], [ 31.330969342326963, 30.050670235906018 ], [ 31.335473846831466, 30.050670235906018 ] ] ] } },
{ "type": "Feature", "properties": { "cell_id": 17, "node_count": 0.0, "total_length": 0.0, "avg_degree": 0.0, "poi_count": 2, "text_des": "تقع مدينة نصر الثانوية الصناعية في القاهرة، مصر. نوع المنطقة: مدرسة. البيانات من OpenStreetMap. nan", "poi_categories": [ "Education", "Government" ] }, "geometry": { "type": "Polygon", "coordinates": [ [ [ 31.335473846831466, 30.055174740410525 ], [ 31.335473846831466, 30.059679244915028 ], [ 31.330969342326963, 30.059679244915028 ], [ 31.330969342326963, 30.055174740410525 ], [ 31.335473846831466, 30.055174740410525 ] ] ] } },
{ "type": "Feature", "properties": { "cell_id": 18, "node_count": 0.0, "total_length": 0.0, "avg_degree": 0.0, "poi_count": 2, "text_des": "nan nan", "poi_categories": [ "Commercial", "Government" ] }, "geometry": { "type": "Polygon", "coordinates": [ [ [ 31.335473846831466, 30.059679244915028 ], [ 31.335473846831466, 30.064183749419531 ], [ 31.330969342326963, 30.064183749419531 ], [ 31.330969342326963, 30.059679244915028 ], [ 31.335473846831466, 30.059679244915028 ] ] ] } },
{ "type": "Feature", "properties": { "cell_id": 19, "node_count": 0.0, "total_length": 0.0, "avg_degree": 0.0, "poi_count": 0, "text_des": "", "poi_categories": [ ] }, "geometry": { "type": "Polygon", "coordinates": [ [ [ 31.335473846831466, 30.064183749419534 ], [ 31.335473846831466, 30.068688253924037 ], [ 31.330969342326963, 30.068688253924037 ], [ 31.330969342326963, 30.064183749419534 ], [ 31.335473846831466, 30.064183749419534 ] ] ] } },
{ "type": "Feature", "properties": { "cell_id": 20, "node_count": 0.0, "total_length": 0.0, "avg_degree": 0.0, "poi_count": 1, "text_des": "تقع عيادة د. احمد العساف في القاهرة، مصر. نوع المنطقة: عام. البيانات من OpenStreetMap.", "poi_categories": [ "Health" ] }, "geometry": { "type": "Polygon", "coordinates": [ [ [ 31.339978351335972, 30.046165731401516 ], [ 31.339978351335972, 30.050670235906018 ], [ 31.335473846831469, 30.050670235906018 ], [ 31.335473846831469, 30.046165731401516 ], [ 31.339978351335972, 30.046165731401516 ] ] ] } },
{ "type": "Feature", "properties": { "cell_id": 21, "node_count": 0.0, "total_length": 0.0, "avg_degree": 0.0, "poi_count": 3, "text_des": "تقع بنك الاستثمار العربي في القاهرة، مصر. نوع المنطقة: بنك. البيانات من :contentReference[oaicite:1]{index=1}. تقع CIB في القاهرة، مصر. نوع المنطقة: بنك. البيانات من :contentReference[oaicite:1]{index=1}. nan", "poi_categories": [ "Bank", "Commercial" ] }, "geometry": { "type": "Polygon", "coordinates": [ [ [ 31.339978351335972, 30.050670235906018 ], [ 31.339978351335972, 30.055174740410521 ], [ 31.335473846831469, 30.055174740410521 ], [ 31.335473846831469, 30.050670235906018 ], [ 31.339978351335972, 30.050670235906018 ] ] ] } },
{ "type": "Feature", "properties": { "cell_id": 22, "node_count": 0.0, "total_length": 0.0, "avg_degree": 0.0, "poi_count": 3, "text_des": "تقع COMMERCIAL INTERNATIONAL BANK في القاهرة، مصر. نوع المنطقة: بنك. البيانات من :contentReference[oaicite:1]{index=1}. تقع بنك عودة - فرع عباس العقاد في القاهرة، مصر. نوع المنطقة: بنك. البيانات من :contentReference[oaicite:1]{index=1}. nan", "poi_categories": [ "Bank", "Commercial" ] }, "geometry": { "type": "Polygon", "coordinates": [ [ [ 31.339978351335972, 30.055174740410525 ], [ 31.339978351335972, 30.059679244915028 ], [ 31.335473846831469, 30.059679244915028 ], [ 31.335473846831469, 30.055174740410525 ], [ 31.339978351335972, 30.055174740410525 ] ] ] } },
{ "type": "Feature", "properties": { "cell_id": 23, "node_count": 0.0, "total_length": 0.0, "avg_degree": 0.0, "poi_count": 1, "text_des": "تقع Crédit Agricole في القاهرة، مصر. نوع المنطقة: بنك. البيانات من :contentReference[oaicite:1]{index=1}.", "poi_categories": [ "Bank" ] }, "geometry": { "type": "Polygon", "coordinates": [ [ [ 31.339978351335972, 30.059679244915028 ], [ 31.339978351335972, 30.064183749419531 ], [ 31.335473846831469, 30.064183749419531 ], [ 31.335473846831469, 30.059679244915028 ], [ 31.339978351335972, 30.059679244915028 ] ] ] } },
{ "type": "Feature", "properties": { "cell_id": 24, "node_count": 0.0, "total_length": 0.0, "avg_degree": 0.0, "poi_count": 0, "text_des": "", "poi_categories": [ ] }, "geometry": { "type": "Polygon", "coordinates": [ [ [ 31.339978351335972, 30.064183749419534 ], [ 31.339978351335972, 30.068688253924037 ], [ 31.335473846831469, 30.068688253924037 ], [ 31.335473846831469, 30.064183749419534 ], [ 31.339978351335972, 30.064183749419534 ] ] ] } },
{ "type": "Feature", "properties": { "cell_id": 25, "node_count": 0.0, "total_length": 0.0, "avg_degree": 0.0, "poi_count": 1, "text_des": "تقع الملك فهد في القاهرة، مصر. نوع المنطقة: مدرسة. البيانات من OpenStreetMap.", "poi_categories": [ "Education" ] }, "geometry": { "type": "Polygon", "coordinates": [ [ [ 31.344482855840475, 30.046165731401516 ], [ 31.344482855840475, 30.050670235906018 ], [ 31.339978351335972, 30.050670235906018 ], [ 31.339978351335972, 30.046165731401516 ], [ 31.344482855840475, 30.046165731401516 ] ] ] } },
{ "type": "Feature", "properties": { "cell_id": 26, "node_count": 0.0, "total_length": 0.0, "avg_degree": 0.0, "poi_count": 2, "text_des": "تقع البنك الاهلي المصرى في القاهرة، مصر. نوع المنطقة: بنك. البيانات من :contentReference[oaicite:1]{index=1}. nan", "poi_categories": [ "Bank", "Government" ] }, "geometry": { "type": "Polygon", "coordinates": [ [ [ 31.344482855840475, 30.050670235906018 ], [ 31.344482855840475, 30.055174740410521 ], [ 31.339978351335972, 30.055174740410521 ], [ 31.339978351335972, 30.050670235906018 ], [ 31.344482855840475, 30.050670235906018 ] ] ] } },
{ "type": "Feature", "properties": { "cell_id": 27, "node_count": 0.0, "total_length": 0.0, "avg_degree": 0.0, "poi_count": 0, "text_des": "", "poi_categories": [ ] }, "geometry": { "type": "Polygon", "coordinates": [ [ [ 31.344482855840475, 30.055174740410525 ], [ 31.344482855840475, 30.059679244915028 ], [ 31.339978351335972, 30.059679244915028 ], [ 31.339978351335972, 30.055174740410525 ], [ 31.344482855840475, 30.055174740410525 ] ] ] } },
{ "type": "Feature", "properties": { "cell_id": 28, "node_count": 0.0, "total_length": 0.0, "avg_degree": 0.0, "poi_count": 2, "text_des": "تقع سي أي بي في القاهرة، مصر. نوع المنطقة: بنك. البيانات من :contentReference[oaicite:1]{index=1}. nan", "poi_categories": [ "Bank", "Commercial" ] }, "geometry": { "type": "Polygon", "coordinates": [ [ [ 31.344482855840475, 30.059679244915028 ], [ 31.344482855840475, 30.064183749419531 ], [ 31.339978351335972, 30.064183749419531 ], [ 31.339978351335972, 30.059679244915028 ], [ 31.344482855840475, 30.059679244915028 ] ] ] } },
{ "type": "Feature", "properties": { "cell_id": 29, "node_count": 0.0, "total_length": 0.0, "avg_degree": 0.0, "poi_count": 1, "text_des": "تقع أن أس جي بي في القاهرة، مصر. نوع المنطقة: بنك. البيانات من :contentReference[oaicite:1]{index=1}.", "poi_categories": [ "Bank" ] }, "geometry": { "type": "Polygon", "coordinates": [ [ [ 31.344482855840475, 30.064183749419534 ], [ 31.344482855840475, 30.068688253924037 ], [ 31.339978351335972, 30.068688253924037 ], [ 31.339978351335972, 30.064183749419534 ], [ 31.344482855840475, 30.064183749419534 ] ] ] } },
{ "type": "Feature", "properties": { "cell_id": 30, "node_count": 0.0, "total_length": 0.0, "avg_degree": 0.0, "poi_count": 2, "text_des": "تقع مدرسه الالسن للغات في القاهرة، مصر. نوع المنطقة: مدرسة. البيانات من OpenStreetMap. nan", "poi_categories": [ "Education", "Commercial" ] }, "geometry": { "type": "Polygon", "coordinates": [ [ [ 31.348987360344982, 30.046165731401516 ], [ 31.348987360344982, 30.050670235906018 ], [ 31.344482855840479, 30.050670235906018 ], [ 31.344482855840479, 30.046165731401516 ], [ 31.348987360344982, 30.046165731401516 ] ] ] } },
{ "type": "Feature", "properties": { "cell_id": 31, "node_count": 0.0, "total_length": 0.0, "avg_degree": 0.0, "poi_count": 4, "text_des": "تقع بنك الكويت الوطنى في القاهرة، مصر. نوع المنطقة: بنك. البيانات من :contentReference[oaicite:1]{index=1}. تقع بنك باركليز في القاهرة، مصر. نوع المنطقة: بنك. البيانات من :contentReference[oaicite:1]{index=1}. تقع هذه المنشأة في القاهرة، مصر. نوع المنطقة: مول تجاري (Mall). البيانات من OpenStreetMap. nan", "poi_categories": [ "Bank", "Mall", "Commercial" ] }, "geometry": { "type": "Polygon", "coordinates": [ [ [ 31.348987360344982, 30.050670235906018 ], [ 31.348987360344982, 30.055174740410521 ], [ 31.344482855840479, 30.055174740410521 ], [ 31.344482855840479, 30.050670235906018 ], [ 31.348987360344982, 30.050670235906018 ] ] ] } },
{ "type": "Feature", "properties": { "cell_id": 32, "node_count": 0.0, "total_length": 0.0, "avg_degree": 0.0, "poi_count": 3, "text_des": "تقع Kibeida Academy في القاهرة، مصر. نوع المنطقة: مدرسة. البيانات من OpenStreetMap. nan nan", "poi_categories": [ "Education", "Commercial" ] }, "geometry": { "type": "Polygon", "coordinates": [ [ [ 31.348987360344982, 30.055174740410525 ], [ 31.348987360344982, 30.059679244915028 ], [ 31.344482855840479, 30.059679244915028 ], [ 31.344482855840479, 30.055174740410525 ], [ 31.348987360344982, 30.055174740410525 ] ] ] } },
{ "type": "Feature", "properties": { "cell_id": 33, "node_count": 0.0, "total_length": 0.0, "avg_degree": 0.0, "poi_count": 2, "text_des": "تقع منظمه الصحه العالمية في القاهرة، مصر. نوع المنطقة: مستشفى. البيانات من OpenStreetMap. nan", "poi_categories": [ "Health", "Government" ] }, "geometry": { "type": "Polygon", "coordinates": [ [ [ 31.348987360344982, 30.059679244915028 ], [ 31.348987360344982, 30.064183749419531 ], [ 31.344482855840479, 30.064183749419531 ], [ 31.344482855840479, 30.059679244915028 ], [ 31.348987360344982, 30.059679244915028 ] ] ] } },
{ "type": "Feature", "properties": { "cell_id": 34, "node_count": 0.0, "total_length": 0.0, "avg_degree": 0.0, "poi_count": 3, "text_des": "تقع مركز الإيمان الطبي في القاهرة، مصر. نوع المنطقة: مستشفى. البيانات من OpenStreetMap. تقع مستشفى العاملين بقطاع البترول في القاهرة، مصر. نوع المنطقة: مستشفى. البيانات من OpenStreetMap. تقع مستشفى الكبد د يس عبد الغفار الخيرية في القاهرة، مصر. نوع المنطقة: مستشفى. البيانات من OpenStreetMap.", "poi_categories": [ "Health" ] }, "geometry": { "type": "Polygon", "coordinates": [ [ [ 31.348987360344982, 30.064183749419534 ], [ 31.348987360344982, 30.068688253924037 ], [ 31.344482855840479, 30.068688253924037 ], [ 31.344482855840479, 30.064183749419534 ], [ 31.348987360344982, 30.064183749419534 ] ] ] } },
{ "type": "Feature", "properties": { "cell_id": 35, "node_count": 0.0, "total_length": 0.0, "avg_degree": 0.0, "poi_count": 0, "text_des": "", "poi_categories": [ ] }, "geometry": { "type": "Polygon", "coordinates": [ [ [ 31.353491864849484, 30.046165731401516 ], [ 31.353491864849484, 30.050670235906018 ], [ 31.348987360344982, 30.050670235906018 ], [ 31.348987360344982, 30.046165731401516 ], [ 31.353491864849484, 30.046165731401516 ] ] ] } },
{ "type": "Feature", "properties": { "cell_id": 36, "node_count": 0.0, "total_length": 0.0, "avg_degree": 0.0, "poi_count": 2, "text_des": "nan nan", "poi_categories": [ "Commercial" ] }, "geometry": { "type": "Polygon", "coordinates": [ [ [ 31.353491864849484, 30.050670235906018 ], [ 31.353491864849484, 30.055174740410521 ], [ 31.348987360344982, 30.055174740410521 ], [ 31.348987360344982, 30.050670235906018 ], [ 31.353491864849484, 30.050670235906018 ] ] ] } },
{ "type": "Feature", "properties": { "cell_id": 37, "node_count": 0.0, "total_length": 0.0, "avg_degree": 0.0, "poi_count": 2, "text_des": "تقع د. ملك نادر في القاهرة، مصر. نوع المنطقة: عام. البيانات من OpenStreetMap. nan", "poi_categories": [ "Health", "Commercial" ] }, "geometry": { "type": "Polygon", "coordinates": [ [ [ 31.353491864849484, 30.055174740410525 ], [ 31.353491864849484, 30.059679244915028 ], [ 31.348987360344982, 30.059679244915028 ], [ 31.348987360344982, 30.055174740410525 ], [ 31.353491864849484, 30.055174740410525 ] ] ] } },
{ "type": "Feature", "properties": { "cell_id": 38, "node_count": 0.0, "total_length": 0.0, "avg_degree": 0.0, "poi_count": 0, "text_des": "", "poi_categories": [ ] }, "geometry": { "type": "Polygon", "coordinates": [ [ [ 31.353491864849484, 30.059679244915028 ], [ 31.353491864849484, 30.064183749419531 ], [ 31.348987360344982, 30.064183749419531 ], [ 31.348987360344982, 30.059679244915028 ], [ 31.353491864849484, 30.059679244915028 ] ] ] } },
{ "type": "Feature", "properties": { "cell_id": 39, "node_count": 0.0, "total_length": 0.0, "avg_degree": 0.0, "poi_count": 0, "text_des": "", "poi_categories": [ ] }, "geometry": { "type": "Polygon", "coordinates": [ [ [ 31.353491864849484, 30.064183749419534 ], [ 31.353491864849484, 30.068688253924037 ], [ 31.348987360344982, 30.068688253924037 ], [ 31.348987360344982, 30.064183749419534 ], [ 31.353491864849484, 30.064183749419534 ] ] ] } },
{ "type": "Feature", "properties": { "cell_id": 40, "node_count": 0.0, "total_length": 0.0, "avg_degree": 0.0, "poi_count": 1, "text_des": "تقع الصديق في القاهرة، مصر. نوع المنطقة: مدرسة. البيانات من OpenStreetMap.", "poi_categories": [ "Education" ] }, "geometry": { "type": "Polygon", "coordinates": [ [ [ 31.357996369353991, 30.046165731401516 ], [ 31.357996369353991, 30.050670235906018 ], [ 31.353491864849488, 30.050670235906018 ], [ 31.353491864849488, 30.046165731401516 ], [ 31.357996369353991, 30.046165731401516 ] ] ] } },
{ "type": "Feature", "properties": { "cell_id": 41, "node_count": 0.0, "total_length": 0.0, "avg_degree": 0.0, "poi_count": 1, "text_des": "تقع مدرسة مدينة نصر الثانوية الفنية التجارية بنات في القاهرة، مصر. نوع المنطقة: مدرسة. البيانات من OpenStreetMap.", "poi_categories": [ "Education" ] }, "geometry": { "type": "Polygon", "coordinates": [ [ [ 31.357996369353991, 30.050670235906018 ], [ 31.357996369353991, 30.055174740410521 ], [ 31.353491864849488, 30.055174740410521 ], [ 31.353491864849488, 30.050670235906018 ], [ 31.357996369353991, 30.050670235906018 ] ] ] } },
{ "type": "Feature", "properties": { "cell_id": 42, "node_count": 0.0, "total_length": 0.0, "avg_degree": 0.0, "poi_count": 3, "text_des": "تقع مدرسة المنهل الخاصة في القاهرة، مصر. نوع المنطقة: مدرسة. البيانات من OpenStreetMap. تقع مركز طبي الحى الثامن في القاهرة، مصر. نوع المنطقة: مستشفى. البيانات من OpenStreetMap. تقع مركز طبي الحى الثامن في القاهرة، مصر. نوع المنطقة: مستشفى. البيانات من OpenStreetMap.", "poi_categories": [ "Education", "Health" ] }, "geometry": { "type": "Polygon", "coordinates": [ [ [ 31.357996369353991, 30.055174740410525 ], [ 31.357996369353991, 30.059679244915028 ], [ 31.353491864849488, 30.059679244915028 ], [ 31.353491864849488, 30.055174740410525 ], [ 31.357996369353991, 30.055174740410525 ] ] ] } },
{ "type": "Feature", "properties": { "cell_id": 43, "node_count": 0.0, "total_length": 0.0, "avg_degree": 0.0, "poi_count": 1, "text_des": "تقع Hsbc bank في القاهرة، مصر. نوع المنطقة: بنك. البيانات من :contentReference[oaicite:1]{index=1}.", "poi_categories": [ "Bank" ] }, "geometry": { "type": "Polygon", "coordinates": [ [ [ 31.357996369353991, 30.059679244915028 ], [ 31.357996369353991, 30.064183749419531 ], [ 31.353491864849488, 30.064183749419531 ], [ 31.353491864849488, 30.059679244915028 ], [ 31.357996369353991, 30.059679244915028 ] ] ] } },
{ "type": "Feature", "properties": { "cell_id": 44, "node_count": 0.0, "total_length": 0.0, "avg_degree": 0.0, "poi_count": 0, "text_des": "", "poi_categories": [ ] }, "geometry": { "type": "Polygon", "coordinates": [ [ [ 31.357996369353991, 30.064183749419534 ], [ 31.357996369353991, 30.068688253924037 ], [ 31.353491864849488, 30.068688253924037 ], [ 31.353491864849488, 30.064183749419534 ], [ 31.357996369353991, 30.064183749419534 ] ] ] } },
{ "type": "Feature", "properties": { "cell_id": 45, "node_count": 0.0, "total_length": 0.0, "avg_degree": 0.0, "poi_count": 0, "text_des": "", "poi_categories": [ ] }, "geometry": { "type": "Polygon", "coordinates": [ [ [ 31.362500873858494, 30.046165731401516 ], [ 31.362500873858494, 30.050670235906018 ], [ 31.357996369353991, 30.050670235906018 ], [ 31.357996369353991, 30.046165731401516 ], [ 31.362500873858494, 30.046165731401516 ] ] ] } },
{ "type": "Feature", "properties": { "cell_id": 46, "node_count": 0.0, "total_length": 0.0, "avg_degree": 0.0, "poi_count": 1, "text_des": "nan", "poi_categories": [ "Government" ] }, "geometry": { "type": "Polygon", "coordinates": [ [ [ 31.362500873858494, 30.050670235906018 ], [ 31.362500873858494, 30.055174740410521 ], [ 31.357996369353991, 30.055174740410521 ], [ 31.357996369353991, 30.050670235906018 ], [ 31.362500873858494, 30.050670235906018 ] ] ] } },
{ "type": "Feature", "properties": { "cell_id": 47, "node_count": 0.0, "total_length": 0.0, "avg_degree": 0.0, "poi_count": 0, "text_des": "", "poi_categories": [ ] }, "geometry": { "type": "Polygon", "coordinates": [ [ [ 31.362500873858494, 30.055174740410525 ], [ 31.362500873858494, 30.059679244915028 ], [ 31.357996369353991, 30.059679244915028 ], [ 31.357996369353991, 30.055174740410525 ], [ 31.362500873858494, 30.055174740410525 ] ] ] } },
{ "type": "Feature", "properties": { "cell_id": 48, "node_count": 0.0, "total_length": 0.0, "avg_degree": 0.0, "poi_count": 1, "text_des": "تقع ايجيكير في القاهرة، مصر. نوع المنطقة: مستشفى. البيانات من OpenStreetMap.", "poi_categories": [ "Health" ] }, "geometry": { "type": "Polygon", "coordinates": [ [ [ 31.362500873858494, 30.059679244915028 ], [ 31.362500873858494, 30.064183749419531 ], [ 31.357996369353991, 30.064183749419531 ], [ 31.357996369353991, 30.059679244915028 ], [ 31.362500873858494, 30.059679244915028 ] ] ] } },
{ "type": "Feature", "properties": { "cell_id": 49, "node_count": 0.0, "total_length": 0.0, "avg_degree": 0.0, "poi_count": 1, "text_des": "تقع Advanced Technical School في القاهرة، مصر. نوع المنطقة: مدرسة. البيانات من OpenStreetMap.", "poi_categories": [ "Education" ] }, "geometry": { "type": "Polygon", "coordinates": [ [ [ 31.362500873858494, 30.064183749419534 ], [ 31.362500873858494, 30.068688253924037 ], [ 31.357996369353991, 30.068688253924037 ], [ 31.357996369353991, 30.064183749419534 ], [ 31.362500873858494, 30.064183749419534 ] ] ] } },
{ "type": "Feature", "properties": { "cell_id": 50, "node_count": 0.0, "total_length": 0.0, "avg_degree": 0.0, "poi_count": 1, "text_des": "تقع مدرسة سمبيات ابيولا في القاهرة، مصر. نوع المنطقة: مدرسة. البيانات من OpenStreetMap.", "poi_categories": [ "Education" ] }, "geometry": { "type": "Polygon", "coordinates": [ [ [ 31.367005378363, 30.046165731401516 ], [ 31.367005378363, 30.050670235906018 ], [ 31.362500873858497, 30.050670235906018 ], [ 31.362500873858497, 30.046165731401516 ], [ 31.367005378363, 30.046165731401516 ] ] ] } },
{ "type": "Feature", "properties": { "cell_id": 51, "node_count": 0.0, "total_length": 0.0, "avg_degree": 0.0, "poi_count": 3, "text_des": "تقع Bayan في القاهرة، مصر. نوع المنطقة: مدرسة. البيانات من OpenStreetMap. تقع مدرسه حسان بن ثابت الابتدائيه في القاهرة، مصر. نوع المنطقة: مدرسة. البيانات من OpenStreetMap. تقع منارة هليوبوليس المتكاملة للغات في القاهرة، مصر. نوع المنطقة: مدرسة. البيانات من OpenStreetMap.", "poi_categories": [ "Education" ] }, "geometry": { "type": "Polygon", "coordinates": [ [ [ 31.367005378363, 30.050670235906018 ], [ 31.367005378363, 30.055174740410521 ], [ 31.362500873858497, 30.055174740410521 ], [ 31.362500873858497, 30.050670235906018 ], [ 31.367005378363, 30.050670235906018 ] ] ] } },
{ "type": "Feature", "properties": { "cell_id": 52, "node_count": 0.0, "total_length": 0.0, "avg_degree": 0.0, "poi_count": 0, "text_des": "", "poi_categories": [ ] }, "geometry": { "type": "Polygon", "coordinates": [ [ [ 31.367005378363, 30.055174740410525 ], [ 31.367005378363, 30.059679244915028 ], [ 31.362500873858497, 30.059679244915028 ], [ 31.362500873858497, 30.055174740410525 ], [ 31.367005378363, 30.055174740410525 ] ] ] } },
{ "type": "Feature", "properties": { "cell_id": 53, "node_count": 0.0, "total_length": 0.0, "avg_degree": 0.0, "poi_count": 0, "text_des": "", "poi_categories": [ ] }, "geometry": { "type": "Polygon", "coordinates": [ [ [ 31.367005378363, 30.059679244915028 ], [ 31.367005378363, 30.064183749419531 ], [ 31.362500873858497, 30.064183749419531 ], [ 31.362500873858497, 30.059679244915028 ], [ 31.367005378363, 30.059679244915028 ] ] ] } },
{ "type": "Feature", "properties": { "cell_id": 54, "node_count": 0.0, "total_length": 0.0, "avg_degree": 0.0, "poi_count": 0, "text_des": "", "poi_categories": [ ] }, "geometry": { "type": "Polygon", "coordinates": [ [ [ 31.367005378363, 30.064183749419534 ], [ 31.367005378363, 30.068688253924037 ], [ 31.362500873858497, 30.068688253924037 ], [ 31.362500873858497, 30.064183749419534 ], [ 31.367005378363, 30.064183749419534 ] ] ] } },
{ "type": "Feature", "properties": { "cell_id": 55, "node_count": 0.0, "total_length": 0.0, "avg_degree": 0.0, "poi_count": 0, "text_des": "", "poi_categories": [ ] }, "geometry": { "type": "Polygon", "coordinates": [ [ [ 31.371509882867503, 30.046165731401516 ], [ 31.371509882867503, 30.050670235906018 ], [ 31.367005378363, 30.050670235906018 ], [ 31.367005378363, 30.046165731401516 ], [ 31.371509882867503, 30.046165731401516 ] ] ] } },
{ "type": "Feature", "properties": { "cell_id": 56, "node_count": 0.0, "total_length": 0.0, "avg_degree": 0.0, "poi_count": 0, "text_des": "", "poi_categories": [ ] }, "geometry": { "type": "Polygon", "coordinates": [ [ [ 31.371509882867503, 30.050670235906018 ], [ 31.371509882867503, 30.055174740410521 ], [ 31.367005378363, 30.055174740410521 ], [ 31.367005378363, 30.050670235906018 ], [ 31.371509882867503, 30.050670235906018 ] ] ] } },
{ "type": "Feature", "properties": { "cell_id": 57, "node_count": 0.0, "total_length": 0.0, "avg_degree": 0.0, "poi_count": 1, "text_des": "تقع مدرسة الراية في القاهرة، مصر. نوع المنطقة: مدرسة. البيانات من OpenStreetMap.", "poi_categories": [ "Education" ] }, "geometry": { "type": "Polygon", "coordinates": [ [ [ 31.371509882867503, 30.055174740410525 ], [ 31.371509882867503, 30.059679244915028 ], [ 31.367005378363, 30.059679244915028 ], [ 31.367005378363, 30.055174740410525 ], [ 31.371509882867503, 30.055174740410525 ] ] ] } },
{ "type": "Feature", "properties": { "cell_id": 58, "node_count": 0.0, "total_length": 0.0, "avg_degree": 0.0, "poi_count": 0, "text_des": "", "poi_categories": [ ] }, "geometry": { "type": "Polygon", "coordinates": [ [ [ 31.371509882867503, 30.059679244915028 ], [ 31.371509882867503, 30.064183749419531 ], [ 31.367005378363, 30.064183749419531 ], [ 31.367005378363, 30.059679244915028 ], [ 31.371509882867503, 30.059679244915028 ] ] ] } },
{ "type": "Feature", "properties": { "cell_id": 59, "node_count": 0.0, "total_length": 0.0, "avg_degree": 0.0, "poi_count": 0, "text_des": "", "poi_categories": [ ] }, "geometry": { "type": "Polygon", "coordinates": [ [ [ 31.371509882867503, 30.064183749419534 ], [ 31.371509882867503, 30.068688253924037 ], [ 31.367005378363, 30.068688253924037 ], [ 31.367005378363, 30.064183749419534 ], [ 31.371509882867503, 30.064183749419534 ] ] ] } },
{ "type": "Feature", "properties": { "cell_id": 60, "node_count": 0.0, "total_length": 0.0, "avg_degree": 0.0, "poi_count": 0, "text_des": "", "poi_categories": [ ] }, "geometry": { "type": "Polygon", "coordinates": [ [ [ 31.376014387372006, 30.046165731401516 ], [ 31.376014387372006, 30.050670235906018 ], [ 31.371509882867503, 30.050670235906018 ], [ 31.371509882867503, 30.046165731401516 ], [ 31.376014387372006, 30.046165731401516 ] ] ] } },
{ "type": "Feature", "properties": { "cell_id": 61, "node_count": 0.0, "total_length": 0.0, "avg_degree": 0.0, "poi_count": 0, "text_des": "", "poi_categories": [ ] }, "geometry": { "type": "Polygon", "coordinates": [ [ [ 31.376014387372006, 30.050670235906018 ], [ 31.376014387372006, 30.055174740410521 ], [ 31.371509882867503, 30.055174740410521 ], [ 31.371509882867503, 30.050670235906018 ], [ 31.376014387372006, 30.050670235906018 ] ] ] } },
{ "type": "Feature", "properties": { "cell_id": 62, "node_count": 0.0, "total_length": 0.0, "avg_degree": 0.0, "poi_count": 0, "text_des": "", "poi_categories": [ ] }, "geometry": { "type": "Polygon", "coordinates": [ [ [ 31.376014387372006, 30.055174740410525 ], [ 31.376014387372006, 30.059679244915028 ], [ 31.371509882867503, 30.059679244915028 ], [ 31.371509882867503, 30.055174740410525 ], [ 31.376014387372006, 30.055174740410525 ] ] ] } },
{ "type": "Feature", "properties": { "cell_id": 63, "node_count": 0.0, "total_length": 0.0, "avg_degree": 0.0, "poi_count": 0, "text_des": "", "poi_categories": [ ] }, "geometry": { "type": "Polygon", "coordinates": [ [ [ 31.376014387372006, 30.059679244915028 ], [ 31.376014387372006, 30.064183749419531 ], [ 31.371509882867503, 30.064183749419531 ], [ 31.371509882867503, 30.059679244915028 ], [ 31.376014387372006, 30.059679244915028 ] ] ] } },
{ "type": "Feature", "properties": { "cell_id": 64, "node_count": 0.0, "total_length": 0.0, "avg_degree": 0.0, "poi_count": 0, "text_des": "", "poi_categories": [ ] }, "geometry": { "type": "Polygon", "coordinates": [ [ [ 31.376014387372006, 30.064183749419534 ], [ 31.376014387372006, 30.068688253924037 ], [ 31.371509882867503, 30.068688253924037 ], [ 31.371509882867503, 30.064183749419534 ], [ 31.376014387372006, 30.064183749419534 ] ] ] } }
]
}
