{
"type": "FeatureCollection",
"name": "grid_c5844fda",
"crs": { "type": "name", "properties": { "name": "urn:ogc:def:crs:OGC:1.3:CRS84" } },
"features": [
{ "type": "Feature", "properties": { "cell_id": 0, "node_count": 183.0, "total_length": 21346.095703125, "avg_degree": 2.9617486000061035, "poi_count": 0, "text_des": "" }, "geometry": { "type": "Polygon", "coordinates": [ [ [ 31.211239871226617, 29.977402693407711 ], [ 31.211239871226617, 29.981907197912214 ], [ 31.206735366722114, 29.981907197912214 ], [ 31.206735366722114, 29.977402693407711 ], [ 31.211239871226617, 29.977402693407711 ] ] ] } },
{ "type": "Feature", "properties": { "cell_id": 1, "node_count": 100.0, "total_length": 25097.66015625, "avg_degree": 2.9500000476837158, "poi_count": 0, "text_des": "" }, "geometry": { "type": "Polygon", "coordinates": [ [ [ 31.211239871226617, 29.981907197912214 ], [ 31.211239871226617, 29.986411702416717 ], [ 31.206735366722114, 29.986411702416717 ], [ 31.206735366722114, 29.981907197912214 ], [ 31.211239871226617, 29.981907197912214 ] ] ] } },
{ "type": "Feature", "properties": { "cell_id": 2, "node_count": 94.0, "total_length": 15272.396484375, "avg_degree": 2.7340426445007324, "poi_count": 0, "text_des": "" }, "geometry": { "type": "Polygon", "coordinates": [ [ [ 31.21574437573112, 29.977402693407711 ], [ 31.21574437573112, 29.981907197912214 ], [ 31.211239871226617, 29.981907197912214 ], [ 31.211239871226617, 29.977402693407711 ], [ 31.21574437573112, 29.977402693407711 ] ] ] } },
{ "type": "Feature", "properties": { "cell_id": 3, "node_count": 57.0, "total_length": 11760.1533203125, "avg_degree": 2.8421051502227783, "poi_count": 0, "text_des": "" }, "geometry": { "type": "Polygon", "coordinates": [ [ [ 31.21574437573112, 29.981907197912214 ], [ 31.21574437573112, 29.986411702416717 ], [ 31.211239871226617, 29.986411702416717 ], [ 31.211239871226617, 29.981907197912214 ], [ 31.21574437573112, 29.981907197912214 ] ] ] } }
]
}
