{
"type": "FeatureCollection",
"name": "grid_24d618d4",
"crs": { "type": "name", "properties": { "name": "urn:ogc:def:crs:OGC:1.3:CRS84" } },
"features": [
{ "type": "Feature", "properties": { "cell_id": 0, "node_count": 20.0, "total_length": 8806.6162109375, "avg_degree": 2.8499999046325684, "poi_count": 0, "text_des": "" }, "geometry": { "type": "Polygon", "coordinates": [ [ [ 31.194750928869901, 29.97142158570351 ], [ 31.194750928869901, 29.975926090208013 ], [ 31.190246424365398, 29.975926090208013 ], [ 31.190246424365398, 29.97142158570351 ], [ 31.194750928869901, 29.97142158570351 ] ] ] } },
{ "type": "Feature", "properties": { "cell_id": 1, "node_count": 80.0, "total_length": 14035.1962890625, "avg_degree": 2.6875, "poi_count": 0, "text_des": "" }, "geometry": { "type": "Polygon", "coordinates": [ [ [ 31.194750928869901, 29.975926090208013 ], [ 31.194750928869901, 29.980430594712516 ], [ 31.190246424365398, 29.980430594712516 ], [ 31.190246424365398, 29.975926090208013 ], [ 31.194750928869901, 29.975926090208013 ] ] ] } },
{ "type": "Feature", "properties": { "cell_id": 2, "node_count": 184.0, "total_length": 20901.654296875, "avg_degree": 2.5543477535247803, "poi_count": 0, "text_des": "" }, "geometry": { "type": "Polygon", "coordinates": [ [ [ 31.194750928869901, 29.980430594712519 ], [ 31.194750928869901, 29.984935099217022 ], [ 31.190246424365398, 29.984935099217022 ], [ 31.190246424365398, 29.980430594712519 ], [ 31.194750928869901, 29.980430594712519 ] ] ] } },
{ "type": "Feature", "properties": { "cell_id": 3, "node_count": 119.0, "total_length": 25796.158203125, "avg_degree": 2.8235294818878174, "poi_count": 0, "text_des": "" }, "geometry": { "type": "Polygon", "coordinates": [ [ [ 31.194750928869901, 29.984935099217022 ], [ 31.194750928869901, 29.989439603721525 ], [ 31.190246424365398, 29.989439603721525 ], [ 31.190246424365398, 29.984935099217022 ], [ 31.194750928869901, 29.984935099217022 ] ] ] } },
{ "type": "Feature", "properties": { "cell_id": 4, "node_count": 35.0, "total_length": 10504.1884765625, "avg_degree": 2.7428572177886963, "poi_count": 0, "text_des": "" }, "geometry": { "type": "Polygon", "coordinates": [ [ [ 31.199255433374404, 29.97142158570351 ], [ 31.199255433374404, 29.975926090208013 ], [ 31.194750928869901, 29.975926090208013 ], [ 31.194750928869901, 29.97142158570351 ], [ 31.199255433374404, 29.97142158570351 ] ] ] } },
{ "type": "Feature", "properties": { "cell_id": 5, "node_count": 75.0, "total_length": 13554.0703125, "avg_degree": 2.8933334350585938, "poi_count": 0, "text_des": "" }, "geometry": { "type": "Polygon", "coordinates": [ [ [ 31.199255433374404, 29.975926090208013 ], [ 31.199255433374404, 29.980430594712516 ], [ 31.194750928869901, 29.980430594712516 ], [ 31.194750928869901, 29.975926090208013 ], [ 31.199255433374404, 29.975926090208013 ] ] ] } },
{ "type": "Feature", "properties": { "cell_id": 6, "node_count": 119.0, "total_length": 23303.74609375, "avg_degree": 2.9411764144897461, "poi_count": 0, "text_des": "" }, "geometry": { "type": "Polygon", "coordinates": [ [ [ 31.199255433374404, 29.980430594712519 ], [ 31.199255433374404, 29.984935099217022 ], [ 31.194750928869901, 29.984935099217022 ], [ 31.194750928869901, 29.980430594712519 ], [ 31.199255433374404, 29.980430594712519 ] ] ] } },
{ "type": "Feature", "properties": { "cell_id": 7, "node_count": 165.0, "total_length": 27448.47265625, "avg_degree": 2.781818151473999, "poi_count": 0, "text_des": "" }, "geometry": { "type": "Polygon", "coordinates": [ [ [ 31.199255433374404, 29.984935099217022 ], [ 31.199255433374404, 29.989439603721525 ], [ 31.194750928869901, 29.989439603721525 ], [ 31.194750928869901, 29.984935099217022 ], [ 31.199255433374404, 29.984935099217022 ] ] ] } },
{ "type": "Feature", "properties": { "cell_id": 8, "node_count": 75.0, "total_length": 16764.3125, "avg_degree": 2.440000057220459, "poi_count": 0, "text_des": "" }, "geometry": { "type": "Polygon", "coordinates": [ [ [ 31.20375993787891, 29.97142158570351 ], [ 31.20375993787891, 29.975926090208013 ], [ 31.199255433374407, 29.975926090208013 ], [ 31.199255433374407, 29.97142158570351 ], [ 31.20375993787891, 29.97142158570351 ] ] ] } },
{ "type": "Feature", "properties": { "cell_id": 9, "node_count": 132.0, "total_length": 23098.4765625, "avg_degree": 2.9848484992980957, "poi_count": 0, "text_des": "" }, "geometry": { "type": "Polygon", "coordinates": [ [ [ 31.20375993787891, 29.975926090208013 ], [ 31.20375993787891, 29.980430594712516 ], [ 31.199255433374407, 29.980430594712516 ], [ 31.199255433374407, 29.975926090208013 ], [ 31.20375993787891, 29.975926090208013 ] ] ] } },
{ "type": "Feature", "properties": { "cell_id": 10, "node_count": 125.0, "total_length": 21994.607421875, "avg_degree": 2.7039999961853027, "poi_count": 0, "text_des": "" }, "geometry": { "type": "Polygon", "coordinates": [ [ [ 31.20375993787891, 29.980430594712519 ], [ 31.20375993787891, 29.984935099217022 ], [ 31.199255433374407, 29.984935099217022 ], [ 31.199255433374407, 29.980430594712519 ], [ 31.20375993787891, 29.980430594712519 ] ] ] } },
{ "type": "Feature", "properties": { "cell_id": 11, "node_count": 174.0, "total_length": 23788.46484375, "avg_degree": 2.6954023838043213, "poi_count": 0, "text_des": "" }, "geometry": { "type": "Polygon", "coordinates": [ [ [ 31.20375993787891, 29.984935099217022 ], [ 31.20375993787891, 29.989439603721525 ], [ 31.199255433374407, 29.989439603721525 ], [ 31.199255433374407, 29.984935099217022 ], [ 31.20375993787891, 29.984935099217022 ] ] ] } },
{ "type": "Feature", "properties": { "cell_id": 12, "node_count": 84.0, "total_length": 18597.501953125, "avg_degree": 2.5833332538604736, "poi_count": 0, "text_des": "" }, "geometry": { "type": "Polygon", "coordinates": [ [ [ 31.208264442383413, 29.97142158570351 ], [ 31.208264442383413, 29.975926090208013 ], [ 31.20375993787891, 29.975926090208013 ], [ 31.20375993787891, 29.97142158570351 ], [ 31.208264442383413, 29.97142158570351 ] ] ] } },
{ "type": "Feature", "properties": { "cell_id": 13, "node_count": 136.0, "total_length": 18794.84765625, "avg_degree": 2.8529412746429443, "poi_count": 0, "text_des": "" }, "geometry": { "type": "Polygon", "coordinates": [ [ [ 31.208264442383413, 29.975926090208013 ], [ 31.208264442383413, 29.980430594712516 ], [ 31.20375993787891, 29.980430594712516 ], [ 31.20375993787891, 29.975926090208013 ], [ 31.208264442383413, 29.975926090208013 ] ] ] } },
{ "type": "Feature", "properties": { "cell_id": 14, "node_count": 139.0, "total_length": 30549.498046875, "avg_degree": 2.8345322608947754, "poi_count": 0, "text_des": "" }, "geometry": { "type": "Polygon", "coordinates": [ [ [ 31.208264442383413, 29.980430594712519 ], [ 31.208264442383413, 29.984935099217022 ], [ 31.20375993787891, 29.984935099217022 ], [ 31.20375993787891, 29.980430594712519 ], [ 31.208264442383413, 29.980430594712519 ] ] ] } },
{ "type": "Feature", "properties": { "cell_id": 15, "node_count": 130.0, "total_length": 28579.3984375, "avg_degree": 2.9153845310211182, "poi_count": 0, "text_des": "" }, "geometry": { "type": "Polygon", "coordinates": [ [ [ 31.208264442383413, 29.984935099217022 ], [ 31.208264442383413, 29.989439603721525 ], [ 31.20375993787891, 29.989439603721525 ], [ 31.20375993787891, 29.984935099217022 ], [ 31.208264442383413, 29.984935099217022 ] ] ] } },
{ "type": "Feature", "properties": { "cell_id": 16, "node_count": 141.0, "total_length": 23216.158203125, "avg_degree": 2.6808509826660156, "poi_count": 0, "text_des": "" }, "geometry": { "type": "Polygon", "coordinates": [ [ [ 31.21276894688792, 29.97142158570351 ], [ 31.21276894688792, 29.975926090208013 ], [ 31.208264442383417, 29.975926090208013 ], [ 31.208264442383417, 29.97142158570351 ], [ 31.21276894688792, 29.97142158570351 ] ] ] } },
{ "type": "Feature", "properties": { "cell_id": 17, "node_count": 143.0, "total_length": 19106.794921875, "avg_degree": 2.8391609191894531, "poi_count": 0, "text_des": "" }, "geometry": { "type": "Polygon", "coordinates": [ [ [ 31.21276894688792, 29.975926090208013 ], [ 31.21276894688792, 29.980430594712516 ], [ 31.208264442383417, 29.980430594712516 ], [ 31.208264442383417, 29.975926090208013 ], [ 31.21276894688792, 29.975926090208013 ] ] ] } },
{ "type": "Feature", "properties": { "cell_id": 18, "node_count": 111.0, "total_length": 14899.73828125, "avg_degree": 2.7297296524047852, "poi_count": 0, "text_des": "" }, "geometry": { "type": "Polygon", "coordinates": [ [ [ 31.21276894688792, 29.980430594712519 ], [ 31.21276894688792, 29.984935099217022 ], [ 31.208264442383417, 29.984935099217022 ], [ 31.208264442383417, 29.980430594712519 ], [ 31.21276894688792, 29.980430594712519 ] ] ] } },
{ "type": "Feature", "properties": { "cell_id": 19, "node_count": 92.0, "total_length": 21673.32421875, "avg_degree": 2.6304347515106201, "poi_count": 0, "text_des": "" }, "geometry": { "type": "Polygon", "coordinates": [ [ [ 31.21276894688792, 29.984935099217022 ], [ 31.21276894688792, 29.989439603721525 ], [ 31.208264442383417, 29.989439603721525 ], [ 31.208264442383417, 29.984935099217022 ], [ 31.21276894688792, 29.984935099217022 ] ] ] } }
]
}
