{
"type": "FeatureCollection",
"name": "grid_bc3257af",
"crs": { "type": "name", "properties": { "name": "urn:ogc:def:crs:OGC:1.3:CRS84" } },
"features": [
{ "type": "Feature", "properties": { "cell_id": 0, "node_count": 0.0, "total_length": 0.0, "avg_degree": 0.0, "poi_count": 0, "text_des": "", "poi_categories": [ ] }, "geometry": { "type": "Polygon", "coordinates": [ [ [ 31.335437537117919, 30.069936558007598 ], [ 31.335437537117919, 30.074441062512101 ], [ 31.330933032613416, 30.074441062512101 ], [ 31.330933032613416, 30.069936558007598 ], [ 31.335437537117919, 30.069936558007598 ] ] ] } },
{ "type": "Feature", "properties": { "cell_id": 1, "node_count": 0.0, "total_length": 0.0, "avg_degree": 0.0, "poi_count": 0, "text_des": "", "poi_categories": [ ] }, "geometry": { "type": "Polygon", "coordinates": [ [ [ 31.335437537117919, 30.074441062512101 ], [ 31.335437537117919, 30.078945567016603 ], [ 31.330933032613416, 30.078945567016603 ], [ 31.330933032613416, 30.074441062512101 ], [ 31.335437537117919, 30.074441062512101 ] ] ] } },
{ "type": "Feature", "properties": { "cell_id": 2, "node_count": 0.0, "total_length": 0.0, "avg_degree": 0.0, "poi_count": 2, "text_des": "تقع مستشفى الميرغنى في القاهرة، مصر. نوع المنطقة: مستشفى. البيانات من OpenStreetMap. تقع مركز الدرة التخصصي للعيون في القاهرة، مصر. نوع المنطقة: مستشفى. البيانات من OpenStreetMap.", "poi_categories": [ "Health" ] }, "geometry": { "type": "Polygon", "coordinates": [ [ [ 31.335437537117919, 30.078945567016607 ], [ 31.335437537117919, 30.08345007152111 ], [ 31.330933032613416, 30.08345007152111 ], [ 31.330933032613416, 30.078945567016607 ], [ 31.335437537117919, 30.078945567016607 ] ] ] } },
{ "type": "Feature", "properties": { "cell_id": 3, "node_count": 0.0, "total_length": 0.0, "avg_degree": 0.0, "poi_count": 0, "text_des": "", "poi_categories": [ ] }, "geometry": { "type": "Polygon", "coordinates": [ [ [ 31.339942041622422, 30.069936558007598 ], [ 31.339942041622422, 30.074441062512101 ], [ 31.335437537117919, 30.074441062512101 ], [ 31.335437537117919, 30.069936558007598 ], [ 31.339942041622422, 30.069936558007598 ] ] ] } },
{ "type": "Feature", "properties": { "cell_id": 4, "node_count": 0.0, "total_length": 0.0, "avg_degree": 0.0, "poi_count": 1, "text_des": "تقع عيادات سيمويا الايطالية للتجميل SIMOE Italian Beauty Clinics في القاهرة، مصر. نوع المنطقة: عام. البيانات من OpenStreetMap.", "poi_categories": [ "Health" ] }, "geometry": { "type": "Polygon", "coordinates": [ [ [ 31.339942041622422, 30.074441062512101 ], [ 31.339942041622422, 30.078945567016603 ], [ 31.335437537117919, 30.078945567016603 ], [ 31.335437537117919, 30.074441062512101 ], [ 31.339942041622422, 30.074441062512101 ] ] ] } },
{ "type": "Feature", "properties": { "cell_id": 5, "node_count": 0.0, "total_length": 0.0, "avg_degree": 0.0, "poi_count": 2, "text_des": "تقع الجولف ميموريال في القاهرة، مصر. نوع المنطقة: عام. البيانات من OpenStreetMap. تقع صيرفة في القاهرة، مصر. نوع المنطقة: بنك. البيانات من :contentReference[oaicite:1]{index=1}.", "poi_categories": [ "Health", "Bank" ] }, "geometry": { "type": "Polygon", "coordinates": [ [ [ 31.339942041622422, 30.078945567016607 ], [ 31.339942041622422, 30.08345007152111 ], [ 31.335437537117919, 30.08345007152111 ], [ 31.335437537117919, 30.078945567016607 ], [ 31.339942041622422, 30.078945567016607 ] ] ] } },
{ "type": "Feature", "properties": { "cell_id": 6, "node_count": 0.0, "total_length": 0.0, "avg_degree": 0.0, "poi_count": 1, "text_des": "تقع بنك الاسكندرية في القاهرة، مصر. نوع المنطقة: بنك. البيانات من :contentReference[oaicite:1]{index=1}.", "poi_categories": [ "Bank" ] }, "geometry": { "type": "Polygon", "coordinates": [ [ [ 31.344446546126928, 30.069936558007598 ], [ 31.344446546126928, 30.074441062512101 ], [ 31.339942041622425, 30.074441062512101 ], [ 31.339942041622425, 30.069936558007598 ], [ 31.344446546126928, 30.069936558007598 ] ] ] } },
{ "type": "Feature", "properties": { "cell_id": 7, "node_count": 0.0, "total_length": 0.0, "avg_degree": 0.0, "poi_count": 1, "text_des": "تقع البنك الأهلي المصري في القاهرة، مصر. نوع المنطقة: بنك. البيانات من :contentReference[oaicite:1]{index=1}.", "poi_categories": [ "Bank" ] }, "geometry": { "type": "Polygon", "coordinates": [ [ [ 31.344446546126928, 30.074441062512101 ], [ 31.344446546126928, 30.078945567016603 ], [ 31.339942041622425, 30.078945567016603 ], [ 31.339942041622425, 30.074441062512101 ], [ 31.344446546126928, 30.074441062512101 ] ] ] } },
{ "type": "Feature", "properties": { "cell_id": 8, "node_count": 0.0, "total_length": 0.0, "avg_degree": 0.0, "poi_count": 5, "text_des": "تقع مس إيرينى في القاهرة، مصر. نوع المنطقة: مدرسة. البيانات من OpenStreetMap. تقع دكتورة جميلة محمد نصر، القلب و الأوعية الدموية في القاهرة، مصر. نوع المنطقة: عام. البيانات من OpenStreetMap. تقع البنك العربي الافريقي في القاهرة، مصر. نوع المنطقة: بنك. البيانات من :contentReference[oaicite:1]{index=1}. تقع البنك العربي في القاهرة، مصر. نوع المنطقة: بنك. البيانات من :contentReference[oaicite:1]{index=1}. تقع HSBC في القاهرة، مصر. نوع المنطقة: بنك. البيانات من :contentReference[oaicite:1]{index=1}.", "poi_categories": [ "Education", "Health", "Bank" ] }, "geometry": { "type": "Polygon", "coordinates": [ [ [ 31.344446546126928, 30.078945567016607 ], [ 31.344446546126928, 30.08345007152111 ], [ 31.339942041622425, 30.08345007152111 ], [ 31.339942041622425, 30.078945567016607 ], [ 31.344446546126928, 30.078945567016607 ] ] ] } },
{ "type": "Feature", "properties": { "cell_id": 9, "node_count": 0.0, "total_length": 0.0, "avg_degree": 0.0, "poi_count": 2, "text_des": "تقع هذه المنشأة في القاهرة، مصر. نوع المنطقة: مول تجاري (Mall). البيانات من OpenStreetMap. تقع هذه المنشأة في القاهرة، مصر. نوع المنطقة: مول تجاري (Mall). البيانات من OpenStreetMap.", "poi_categories": [ "Mall" ] }, "geometry": { "type": "Polygon", "coordinates": [ [ [ 31.348951050631431, 30.069936558007598 ], [ 31.348951050631431, 30.074441062512101 ], [ 31.344446546126928, 30.074441062512101 ], [ 31.344446546126928, 30.069936558007598 ], [ 31.348951050631431, 30.069936558007598 ] ] ] } },
{ "type": "Feature", "properties": { "cell_id": 10, "node_count": 0.0, "total_length": 0.0, "avg_degree": 0.0, "poi_count": 2, "text_des": "تقع مستشفى عبدالقادر فهمي في القاهرة، مصر. نوع المنطقة: مستشفى. البيانات من OpenStreetMap. تقع Banque MISR في القاهرة، مصر. نوع المنطقة: بنك. البيانات من :contentReference[oaicite:1]{index=1}.", "poi_categories": [ "Health", "Bank" ] }, "geometry": { "type": "Polygon", "coordinates": [ [ [ 31.348951050631431, 30.074441062512101 ], [ 31.348951050631431, 30.078945567016603 ], [ 31.344446546126928, 30.078945567016603 ], [ 31.344446546126928, 30.074441062512101 ], [ 31.348951050631431, 30.074441062512101 ] ] ] } },
{ "type": "Feature", "properties": { "cell_id": 11, "node_count": 0.0, "total_length": 0.0, "avg_degree": 0.0, "poi_count": 0, "text_des": "", "poi_categories": [ ] }, "geometry": { "type": "Polygon", "coordinates": [ [ [ 31.348951050631431, 30.078945567016607 ], [ 31.348951050631431, 30.08345007152111 ], [ 31.344446546126928, 30.08345007152111 ], [ 31.344446546126928, 30.078945567016607 ], [ 31.348951050631431, 30.078945567016607 ] ] ] } }
]
}
