{
"type": "FeatureCollection",
"name": "grid_52cea7db",
"crs": { "type": "name", "properties": { "name": "urn:ogc:def:crs:OGC:1.3:CRS84" } },
"features": [
{ "type": "Feature", "properties": { "cell_id": 0, "node_count": 98.0, "total_length": 14735.3896484375, "avg_degree": 2.7448978424072266, "poi_count": 0, "text_des": "" }, "geometry": { "type": "Polygon", "coordinates": [ [ [ 31.248513765605715, 29.982414712945939 ], [ 31.248513765605715, 29.986919217450442 ], [ 31.244009261101212, 29.986919217450442 ], [ 31.244009261101212, 29.982414712945939 ], [ 31.248513765605715, 29.982414712945939 ] ] ] } }
]
}
