{
"type": "FeatureCollection",
"name": "grid_384a81d7",
"crs": { "type": "name", "properties": { "name": "urn:ogc:def:crs:OGC:1.3:CRS84" } },
"features": [
{ "type": "Feature", "properties": { "cell_id": 0, "node_count": 0.0, "total_length": 0.0, "avg_degree": 0.0, "poi_count": 0, "text_des": "", "poi_categories": [ ] }, "geometry": { "type": "Polygon", "coordinates": [ [ [ 31.341504915530969, 30.047613195495497 ], [ 31.341504915530969, 30.0521177 ], [ 31.337000411026466, 30.0521177 ], [ 31.337000411026466, 30.047613195495497 ], [ 31.341504915530969, 30.047613195495497 ] ] ] } },
{ "type": "Feature", "properties": { "cell_id": 1, "node_count": 0.0, "total_length": 0.0, "avg_degree": 0.0, "poi_count": 2, "text_des": "تقع بنك الاستثمار العربي في القاهرة، مصر. نوع المنطقة: بنك. البيانات من :contentReference[oaicite:1]{index=1}. تقع CIB في القاهرة، مصر. نوع المنطقة: بنك. البيانات من :contentReference[oaicite:1]{index=1}.", "poi_categories": [ "Bank" ] }, "geometry": { "type": "Polygon", "coordinates": [ [ [ 31.341504915530969, 30.0521177 ], [ 31.341504915530969, 30.056622204504503 ], [ 31.337000411026466, 30.056622204504503 ], [ 31.337000411026466, 30.0521177 ], [ 31.341504915530969, 30.0521177 ] ] ] } },
{ "type": "Feature", "properties": { "cell_id": 2, "node_count": 0.0, "total_length": 0.0, "avg_degree": 0.0, "poi_count": 0, "text_des": "", "poi_categories": [ ] }, "geometry": { "type": "Polygon", "coordinates": [ [ [ 31.346009420035472, 30.047613195495497 ], [ 31.346009420035472, 30.0521177 ], [ 31.341504915530969, 30.0521177 ], [ 31.341504915530969, 30.047613195495497 ], [ 31.346009420035472, 30.047613195495497 ] ] ] } },
{ "type": "Feature", "properties": { "cell_id": 3, "node_count": 0.0, "total_length": 0.0, "avg_degree": 0.0, "poi_count": 1, "text_des": "تقع البنك الاهلي المصرى في القاهرة، مصر. نوع المنطقة: بنك. البيانات من :contentReference[oaicite:1]{index=1}.", "poi_categories": [ "Bank" ] }, "geometry": { "type": "Polygon", "coordinates": [ [ [ 31.346009420035472, 30.0521177 ], [ 31.346009420035472, 30.056622204504503 ], [ 31.341504915530969, 30.056622204504503 ], [ 31.341504915530969, 30.0521177 ], [ 31.346009420035472, 30.0521177 ] ] ] } },
{ "type": "Feature", "properties": { "cell_id": 4, "node_count": 0.0, "total_length": 0.0, "avg_degree": 0.0, "poi_count": 1, "text_des": "تقع هذه المنشأة في القاهرة، مصر. نوع المنطقة: مول تجاري (Mall). البيانات من OpenStreetMap.", "poi_categories": [ "Mall" ] }, "geometry": { "type": "Polygon", "coordinates": [ [ [ 31.350513924539978, 30.047613195495497 ], [ 31.350513924539978, 30.0521177 ], [ 31.346009420035475, 30.0521177 ], [ 31.346009420035475, 30.047613195495497 ], [ 31.350513924539978, 30.047613195495497 ] ] ] } },
{ "type": "Feature", "properties": { "cell_id": 5, "node_count": 0.0, "total_length": 0.0, "avg_degree": 0.0, "poi_count": 2, "text_des": "تقع بنك الكويت الوطنى في القاهرة، مصر. نوع المنطقة: بنك. البيانات من :contentReference[oaicite:1]{index=1}. تقع بنك باركليز في القاهرة، مصر. نوع المنطقة: بنك. البيانات من :contentReference[oaicite:1]{index=1}.", "poi_categories": [ "Bank" ] }, "geometry": { "type": "Polygon", "coordinates": [ [ [ 31.350513924539978, 30.0521177 ], [ 31.350513924539978, 30.056622204504503 ], [ 31.346009420035475, 30.056622204504503 ], [ 31.346009420035475, 30.0521177 ], [ 31.350513924539978, 30.0521177 ] ] ] } }
]
}
