{
"type": "FeatureCollection",
"name": "grid_3aeaa716",
"crs": { "type": "name", "properties": { "name": "urn:ogc:def:crs:OGC:1.3:CRS84" } },
"features": [
{ "type": "Feature", "properties": { "cell_id": 0, "node_count": 47.0, "total_length": 11003.7646484375, "avg_degree": 3.5744681358337402, "poi_count": 1, "text_des": "تقع مكتب صحة - المنيل في القاهرة، مصر. نوع المنطقة: عام. البيانات من OpenStreetMap.", "poi_categories": [ "Health" ] }, "geometry": { "type": "Polygon", "coordinates": [ [ [ 31.227682510799248, 30.018000749421674 ], [ 31.227682510799248, 30.022505253926177 ], [ 31.223178006294745, 30.022505253926177 ], [ 31.223178006294745, 30.018000749421674 ], [ 31.227682510799248, 30.018000749421674 ] ] ] } },
{ "type": "Feature", "properties": { "cell_id": 1, "node_count": 100.0, "total_length": 15676.560546875, "avg_degree": 3.0199999809265137, "poi_count": 3, "text_des": "تقع مركز دكتورة منى العقاد في القاهرة، مصر. نوع المنطقة: عام. البيانات من OpenStreetMap. تقع د. عمرو عنتر أخصائي التخاطب في القاهرة، مصر. نوع المنطقة: عام. البيانات من OpenStreetMap. تقع عوده المنيل في القاهرة، مصر. نوع المنطقة: بنك. البيانات من :contentReference[oaicite:1]{index=1}.", "poi_categories": [ "Health", "Bank" ] }, "geometry": { "type": "Polygon", "coordinates": [ [ [ 31.227682510799248, 30.022505253926177 ], [ 31.227682510799248, 30.02700975843068 ], [ 31.223178006294745, 30.02700975843068 ], [ 31.223178006294745, 30.022505253926177 ], [ 31.227682510799248, 30.022505253926177 ] ] ] } },
{ "type": "Feature", "properties": { "cell_id": 2, "node_count": 83.0, "total_length": 15169.90625, "avg_degree": 2.7710843086242676, "poi_count": 0, "text_des": "", "poi_categories": [ ] }, "geometry": { "type": "Polygon", "coordinates": [ [ [ 31.232187015303751, 30.018000749421674 ], [ 31.232187015303751, 30.022505253926177 ], [ 31.227682510799248, 30.022505253926177 ], [ 31.227682510799248, 30.018000749421674 ], [ 31.232187015303751, 30.018000749421674 ] ] ] } },
{ "type": "Feature", "properties": { "cell_id": 3, "node_count": 58.0, "total_length": 10629.9033203125, "avg_degree": 3.0172414779663086, "poi_count": 1, "text_des": "تقع بنك التعمير و الاسكان في القاهرة، مصر. نوع المنطقة: بنك. البيانات من :contentReference[oaicite:1]{index=1}.", "poi_categories": [ "Bank" ] }, "geometry": { "type": "Polygon", "coordinates": [ [ [ 31.232187015303751, 30.022505253926177 ], [ 31.232187015303751, 30.02700975843068 ], [ 31.227682510799248, 30.02700975843068 ], [ 31.227682510799248, 30.022505253926177 ], [ 31.232187015303751, 30.022505253926177 ] ] ] } }
]
}
