{
"type": "FeatureCollection",
"name": "grid_d48f070d",
"crs": { "type": "name", "properties": { "name": "urn:ogc:def:crs:OGC:1.3:CRS84" } },
"features": [
{ "type": "Feature", "properties": { "cell_id": 0 }, "geometry": { "type": "Polygon", "coordinates": [ [ [ 31.209009009009009, 30.0 ], [ 31.209009009009009, 30.009009009009009 ], [ 31.2, 30.009009009009009 ], [ 31.2, 30.0 ], [ 31.209009009009009, 30.0 ] ] ] } },
{ "type": "Feature", "properties": { "cell_id": 1 }, "geometry": { "type": "Polygon", "coordinates": [ [ [ 31.209009009009009, 30.009009009009009 ], [ 31.209009009009009, 30.018018018018019 ], [ 31.2, 30.018018018018019 ], [ 31.2, 30.009009009009009 ], [ 31.209009009009009, 30.009009009009009 ] ] ] } },
{ "type": "Feature", "properties": { "cell_id": 2 }, "geometry": { "type": "Polygon", "coordinates": [ [ [ 31.218018018018018, 30.0 ], [ 31.218018018018018, 30.009009009009009 ], [ 31.209009009009009, 30.009009009009009 ], [ 31.209009009009009, 30.0 ], [ 31.218018018018018, 30.0 ] ] ] } },
{ "type": "Feature", "properties": { "cell_id": 3 }, "geometry": { "type": "Polygon", "coordinates": [ [ [ 31.218018018018018, 30.009009009009009 ], [ 31.218018018018018, 30.018018018018019 ], [ 31.209009009009009, 30.018018018018019 ], [ 31.209009009009009, 30.009009009009009 ], [ 31.218018018018018, 30.009009009009009 ] ] ] } }
]
}
