{
"type": "FeatureCollection",
"name": "grid_91f69b9d",
"crs": { "type": "name", "properties": { "name": "urn:ogc:def:crs:OGC:1.3:CRS84" } },
"features": [
{ "type": "Feature", "properties": { "cell_id": 0, "poi_count": 0, "text_des": "" }, "geometry": { "type": "Polygon", "coordinates": [ [ [ 31.324504504504503, 30.04 ], [ 31.324504504504503, 30.044504504504502 ], [ 31.32, 30.044504504504502 ], [ 31.32, 30.04 ], [ 31.324504504504503, 30.04 ] ] ] } },
{ "type": "Feature", "properties": { "cell_id": 1, "poi_count": 0, "text_des": "" }, "geometry": { "type": "Polygon", "coordinates": [ [ [ 31.324504504504503, 30.044504504504502 ], [ 31.324504504504503, 30.049009009009005 ], [ 31.32, 30.049009009009005 ], [ 31.32, 30.044504504504502 ], [ 31.324504504504503, 30.044504504504502 ] ] ] } },
{ "type": "Feature", "properties": { "cell_id": 2, "poi_count": 1, "text_des": "تقع مجمع الملك فهد الرسمي للغات في القاهرة، مصر. نوع المنطقة: مدرسة. البيانات من OpenStreetMap." }, "geometry": { "type": "Polygon", "coordinates": [ [ [ 31.324504504504503, 30.049009009009009 ], [ 31.324504504504503, 30.053513513513511 ], [ 31.32, 30.053513513513511 ], [ 31.32, 30.049009009009009 ], [ 31.324504504504503, 30.049009009009009 ] ] ] } },
{ "type": "Feature", "properties": { "cell_id": 3, "poi_count": 0, "text_des": "" }, "geometry": { "type": "Polygon", "coordinates": [ [ [ 31.324504504504503, 30.053513513513511 ], [ 31.324504504504503, 30.058018018018014 ], [ 31.32, 30.058018018018014 ], [ 31.32, 30.053513513513511 ], [ 31.324504504504503, 30.053513513513511 ] ] ] } },
{ "type": "Feature", "properties": { "cell_id": 4, "poi_count": 0, "text_des": "" }, "geometry": { "type": "Polygon", "coordinates": [ [ [ 31.324504504504503, 30.058018018018018 ], [ 31.324504504504503, 30.062522522522521 ], [ 31.32, 30.062522522522521 ], [ 31.32, 30.058018018018018 ], [ 31.324504504504503, 30.058018018018018 ] ] ] } },
{ "type": "Feature", "properties": { "cell_id": 5, "poi_count": 0, "text_des": "" }, "geometry": { "type": "Polygon", "coordinates": [ [ [ 31.324504504504503, 30.062522522522521 ], [ 31.324504504504503, 30.067027027027024 ], [ 31.32, 30.067027027027024 ], [ 31.32, 30.062522522522521 ], [ 31.324504504504503, 30.062522522522521 ] ] ] } },
{ "type": "Feature", "properties": { "cell_id": 6, "poi_count": 0, "text_des": "" }, "geometry": { "type": "Polygon", "coordinates": [ [ [ 31.324504504504503, 30.067027027027027 ], [ 31.324504504504503, 30.07153153153153 ], [ 31.32, 30.07153153153153 ], [ 31.32, 30.067027027027027 ], [ 31.324504504504503, 30.067027027027027 ] ] ] } },
{ "type": "Feature", "properties": { "cell_id": 7, "poi_count": 0, "text_des": "" }, "geometry": { "type": "Polygon", "coordinates": [ [ [ 31.329009009009006, 30.04 ], [ 31.329009009009006, 30.044504504504502 ], [ 31.324504504504503, 30.044504504504502 ], [ 31.324504504504503, 30.04 ], [ 31.329009009009006, 30.04 ] ] ] } },
{ "type": "Feature", "properties": { "cell_id": 8, "poi_count": 0, "text_des": "" }, "geometry": { "type": "Polygon", "coordinates": [ [ [ 31.329009009009006, 30.044504504504502 ], [ 31.329009009009006, 30.049009009009005 ], [ 31.324504504504503, 30.049009009009005 ], [ 31.324504504504503, 30.044504504504502 ], [ 31.329009009009006, 30.044504504504502 ] ] ] } },
{ "type": "Feature", "properties": { "cell_id": 9, "poi_count": 2, "text_des": "تقع Al Sayida Aisha School في القاهرة، مصر. نوع المنطقة: مدرسة. البيانات من OpenStreetMap. تقع مركز نيروكير في القاهرة، مصر. نوع المنطقة: عام. البيانات من OpenStreetMap." }, "geometry": { "type": "Polygon", "coordinates": [ [ [ 31.329009009009006, 30.049009009009009 ], [ 31.329009009009006, 30.053513513513511 ], [ 31.324504504504503, 30.053513513513511 ], [ 31.324504504504503, 30.049009009009009 ], [ 31.329009009009006, 30.049009009009009 ] ] ] } },
{ "type": "Feature", "properties": { "cell_id": 10, "poi_count": 0, "text_des": "" }, "geometry": { "type": "Polygon", "coordinates": [ [ [ 31.329009009009006, 30.053513513513511 ], [ 31.329009009009006, 30.058018018018014 ], [ 31.324504504504503, 30.058018018018014 ], [ 31.324504504504503, 30.053513513513511 ], [ 31.329009009009006, 30.053513513513511 ] ] ] } },
{ "type": "Feature", "properties": { "cell_id": 11, "poi_count": 1, "text_des": "تقع أن أس جي بي في القاهرة، مصر. نوع المنطقة: بنك. البيانات من :contentReference[oaicite:1]{index=1}." }, "geometry": { "type": "Polygon", "coordinates": [ [ [ 31.329009009009006, 30.058018018018018 ], [ 31.329009009009006, 30.062522522522521 ], [ 31.324504504504503, 30.062522522522521 ], [ 31.324504504504503, 30.058018018018018 ], [ 31.329009009009006, 30.058018018018018 ] ] ] } },
{ "type": "Feature", "properties": { "cell_id": 12, "poi_count": 0, "text_des": "" }, "geometry": { "type": "Polygon", "coordinates": [ [ [ 31.329009009009006, 30.062522522522521 ], [ 31.329009009009006, 30.067027027027024 ], [ 31.324504504504503, 30.067027027027024 ], [ 31.324504504504503, 30.062522522522521 ], [ 31.329009009009006, 30.062522522522521 ] ] ] } },
{ "type": "Feature", "properties": { "cell_id": 13, "poi_count": 0, "text_des": "" }, "geometry": { "type": "Polygon", "coordinates": [ [ [ 31.329009009009006, 30.067027027027027 ], [ 31.329009009009006, 30.07153153153153 ], [ 31.324504504504503, 30.07153153153153 ], [ 31.324504504504503, 30.067027027027027 ], [ 31.329009009009006, 30.067027027027027 ] ] ] } },
{ "type": "Feature", "properties": { "cell_id": 14, "poi_count": 0, "text_des": "" }, "geometry": { "type": "Polygon", "coordinates": [ [ [ 31.333513513513513, 30.04 ], [ 31.333513513513513, 30.044504504504502 ], [ 31.32900900900901, 30.044504504504502 ], [ 31.32900900900901, 30.04 ], [ 31.333513513513513, 30.04 ] ] ] } },
{ "type": "Feature", "properties": { "cell_id": 15, "poi_count": 1, "text_des": "تقع سنتر ميراج في القاهرة، مصر. نوع المنطقة: مدرسة. البيانات من OpenStreetMap." }, "geometry": { "type": "Polygon", "coordinates": [ [ [ 31.333513513513513, 30.044504504504502 ], [ 31.333513513513513, 30.049009009009005 ], [ 31.32900900900901, 30.049009009009005 ], [ 31.32900900900901, 30.044504504504502 ], [ 31.333513513513513, 30.044504504504502 ] ] ] } },
{ "type": "Feature", "properties": { "cell_id": 16, "poi_count": 0, "text_des": "" }, "geometry": { "type": "Polygon", "coordinates": [ [ [ 31.333513513513513, 30.049009009009009 ], [ 31.333513513513513, 30.053513513513511 ], [ 31.32900900900901, 30.053513513513511 ], [ 31.32900900900901, 30.049009009009009 ], [ 31.333513513513513, 30.049009009009009 ] ] ] } },
{ "type": "Feature", "properties": { "cell_id": 17, "poi_count": 1, "text_des": "تقع مستشفي جمال ابو العزايم في القاهرة، مصر. نوع المنطقة: مستشفى. البيانات من OpenStreetMap." }, "geometry": { "type": "Polygon", "coordinates": [ [ [ 31.333513513513513, 30.053513513513511 ], [ 31.333513513513513, 30.058018018018014 ], [ 31.32900900900901, 30.058018018018014 ], [ 31.32900900900901, 30.053513513513511 ], [ 31.333513513513513, 30.053513513513511 ] ] ] } },
{ "type": "Feature", "properties": { "cell_id": 18, "poi_count": 0, "text_des": "" }, "geometry": { "type": "Polygon", "coordinates": [ [ [ 31.333513513513513, 30.058018018018018 ], [ 31.333513513513513, 30.062522522522521 ], [ 31.32900900900901, 30.062522522522521 ], [ 31.32900900900901, 30.058018018018018 ], [ 31.333513513513513, 30.058018018018018 ] ] ] } },
{ "type": "Feature", "properties": { "cell_id": 19, "poi_count": 0, "text_des": "" }, "geometry": { "type": "Polygon", "coordinates": [ [ [ 31.333513513513513, 30.062522522522521 ], [ 31.333513513513513, 30.067027027027024 ], [ 31.32900900900901, 30.067027027027024 ], [ 31.32900900900901, 30.062522522522521 ], [ 31.333513513513513, 30.062522522522521 ] ] ] } },
{ "type": "Feature", "properties": { "cell_id": 20, "poi_count": 0, "text_des": "" }, "geometry": { "type": "Polygon", "coordinates": [ [ [ 31.333513513513513, 30.067027027027027 ], [ 31.333513513513513, 30.07153153153153 ], [ 31.32900900900901, 30.07153153153153 ], [ 31.32900900900901, 30.067027027027027 ], [ 31.333513513513513, 30.067027027027027 ] ] ] } },
{ "type": "Feature", "properties": { "cell_id": 21, "poi_count": 1, "text_des": "تقع مدرسة جمال عبد الناصر التجريبية في القاهرة، مصر. نوع المنطقة: مدرسة. البيانات من OpenStreetMap." }, "geometry": { "type": "Polygon", "coordinates": [ [ [ 31.338018018018015, 30.04 ], [ 31.338018018018015, 30.044504504504502 ], [ 31.333513513513513, 30.044504504504502 ], [ 31.333513513513513, 30.04 ], [ 31.338018018018015, 30.04 ] ] ] } },
{ "type": "Feature", "properties": { "cell_id": 22, "poi_count": 0, "text_des": "" }, "geometry": { "type": "Polygon", "coordinates": [ [ [ 31.338018018018015, 30.044504504504502 ], [ 31.338018018018015, 30.049009009009005 ], [ 31.333513513513513, 30.049009009009005 ], [ 31.333513513513513, 30.044504504504502 ], [ 31.338018018018015, 30.044504504504502 ] ] ] } },
{ "type": "Feature", "properties": { "cell_id": 23, "poi_count": 0, "text_des": "" }, "geometry": { "type": "Polygon", "coordinates": [ [ [ 31.338018018018015, 30.049009009009009 ], [ 31.338018018018015, 30.053513513513511 ], [ 31.333513513513513, 30.053513513513511 ], [ 31.333513513513513, 30.049009009009009 ], [ 31.338018018018015, 30.049009009009009 ] ] ] } },
{ "type": "Feature", "properties": { "cell_id": 24, "poi_count": 1, "text_des": "تقع COMMERCIAL INTERNATIONAL BANK في القاهرة، مصر. نوع المنطقة: بنك. البيانات من :contentReference[oaicite:1]{index=1}." }, "geometry": { "type": "Polygon", "coordinates": [ [ [ 31.338018018018015, 30.053513513513511 ], [ 31.338018018018015, 30.058018018018014 ], [ 31.333513513513513, 30.058018018018014 ], [ 31.333513513513513, 30.053513513513511 ], [ 31.338018018018015, 30.053513513513511 ] ] ] } },
{ "type": "Feature", "properties": { "cell_id": 25, "poi_count": 1, "text_des": "تقع مدينة نصر الثانوية الصناعية في القاهرة، مصر. نوع المنطقة: مدرسة. البيانات من OpenStreetMap." }, "geometry": { "type": "Polygon", "coordinates": [ [ [ 31.338018018018015, 30.058018018018018 ], [ 31.338018018018015, 30.062522522522521 ], [ 31.333513513513513, 30.062522522522521 ], [ 31.333513513513513, 30.058018018018018 ], [ 31.338018018018015, 30.058018018018018 ] ] ] } },
{ "type": "Feature", "properties": { "cell_id": 26, "poi_count": 0, "text_des": "" }, "geometry": { "type": "Polygon", "coordinates": [ [ [ 31.338018018018015, 30.062522522522521 ], [ 31.338018018018015, 30.067027027027024 ], [ 31.333513513513513, 30.067027027027024 ], [ 31.333513513513513, 30.062522522522521 ], [ 31.338018018018015, 30.062522522522521 ] ] ] } },
{ "type": "Feature", "properties": { "cell_id": 27, "poi_count": 0, "text_des": "" }, "geometry": { "type": "Polygon", "coordinates": [ [ [ 31.338018018018015, 30.067027027027027 ], [ 31.338018018018015, 30.07153153153153 ], [ 31.333513513513513, 30.07153153153153 ], [ 31.333513513513513, 30.067027027027027 ], [ 31.338018018018015, 30.067027027027027 ] ] ] } },
{ "type": "Feature", "properties": { "cell_id": 28, "poi_count": 0, "text_des": "" }, "geometry": { "type": "Polygon", "coordinates": [ [ [ 31.342522522522522, 30.04 ], [ 31.342522522522522, 30.044504504504502 ], [ 31.338018018018019, 30.044504504504502 ], [ 31.338018018018019, 30.04 ], [ 31.342522522522522, 30.04 ] ] ] } },
{ "type": "Feature", "properties": { "cell_id": 29, "poi_count": 1, "text_des": "تقع عيادة د. احمد العساف في القاهرة، مصر. نوع المنطقة: عام. البيانات من OpenStreetMap." }, "geometry": { "type": "Polygon", "coordinates": [ [ [ 31.342522522522522, 30.044504504504502 ], [ 31.342522522522522, 30.049009009009005 ], [ 31.338018018018019, 30.049009009009005 ], [ 31.338018018018019, 30.044504504504502 ], [ 31.342522522522522, 30.044504504504502 ] ] ] } },
{ "type": "Feature", "properties": { "cell_id": 30, "poi_count": 2, "text_des": "تقع بنك الاستثمار العربي في القاهرة، مصر. نوع المنطقة: بنك. البيانات من :contentReference[oaicite:1]{index=1}. تقع CIB في القاهرة، مصر. نوع المنطقة: بنك. البيانات من :contentReference[oaicite:1]{index=1}." }, "geometry": { "type": "Polygon", "coordinates": [ [ [ 31.342522522522522, 30.049009009009009 ], [ 31.342522522522522, 30.053513513513511 ], [ 31.338018018018019, 30.053513513513511 ], [ 31.338018018018019, 30.049009009009009 ], [ 31.342522522522522, 30.049009009009009 ] ] ] } },
{ "type": "Feature", "properties": { "cell_id": 31, "poi_count": 0, "text_des": "" }, "geometry": { "type": "Polygon", "coordinates": [ [ [ 31.342522522522522, 30.053513513513511 ], [ 31.342522522522522, 30.058018018018014 ], [ 31.338018018018019, 30.058018018018014 ], [ 31.338018018018019, 30.053513513513511 ], [ 31.342522522522522, 30.053513513513511 ] ] ] } },
{ "type": "Feature", "properties": { "cell_id": 32, "poi_count": 3, "text_des": "تقع سي أي بي في القاهرة، مصر. نوع المنطقة: بنك. البيانات من :contentReference[oaicite:1]{index=1}. تقع Crédit Agricole في القاهرة، مصر. نوع المنطقة: بنك. البيانات من :contentReference[oaicite:1]{index=1}. تقع بنك عودة - فرع عباس العقاد في القاهرة، مصر. نوع المنطقة: بنك. البيانات من :contentReference[oaicite:1]{index=1}." }, "geometry": { "type": "Polygon", "coordinates": [ [ [ 31.342522522522522, 30.058018018018018 ], [ 31.342522522522522, 30.062522522522521 ], [ 31.338018018018019, 30.062522522522521 ], [ 31.338018018018019, 30.058018018018018 ], [ 31.342522522522522, 30.058018018018018 ] ] ] } },
{ "type": "Feature", "properties": { "cell_id": 33, "poi_count": 0, "text_des": "" }, "geometry": { "type": "Polygon", "coordinates": [ [ [ 31.342522522522522, 30.062522522522521 ], [ 31.342522522522522, 30.067027027027024 ], [ 31.338018018018019, 30.067027027027024 ], [ 31.338018018018019, 30.062522522522521 ], [ 31.342522522522522, 30.062522522522521 ] ] ] } },
{ "type": "Feature", "properties": { "cell_id": 34, "poi_count": 0, "text_des": "" }, "geometry": { "type": "Polygon", "coordinates": [ [ [ 31.342522522522522, 30.067027027027027 ], [ 31.342522522522522, 30.07153153153153 ], [ 31.338018018018019, 30.07153153153153 ], [ 31.338018018018019, 30.067027027027027 ], [ 31.342522522522522, 30.067027027027027 ] ] ] } },
{ "type": "Feature", "properties": { "cell_id": 35, "poi_count": 0, "text_des": "" }, "geometry": { "type": "Polygon", "coordinates": [ [ [ 31.347027027027025, 30.04 ], [ 31.347027027027025, 30.044504504504502 ], [ 31.342522522522522, 30.044504504504502 ], [ 31.342522522522522, 30.04 ], [ 31.347027027027025, 30.04 ] ] ] } },
{ "type": "Feature", "properties": { "cell_id": 36, "poi_count": 1, "text_des": "تقع الملك فهد في القاهرة، مصر. نوع المنطقة: مدرسة. البيانات من OpenStreetMap." }, "geometry": { "type": "Polygon", "coordinates": [ [ [ 31.347027027027025, 30.044504504504502 ], [ 31.347027027027025, 30.049009009009005 ], [ 31.342522522522522, 30.049009009009005 ], [ 31.342522522522522, 30.044504504504502 ], [ 31.347027027027025, 30.044504504504502 ] ] ] } },
{ "type": "Feature", "properties": { "cell_id": 37, "poi_count": 0, "text_des": "" }, "geometry": { "type": "Polygon", "coordinates": [ [ [ 31.347027027027025, 30.049009009009009 ], [ 31.347027027027025, 30.053513513513511 ], [ 31.342522522522522, 30.053513513513511 ], [ 31.342522522522522, 30.049009009009009 ], [ 31.347027027027025, 30.049009009009009 ] ] ] } },
{ "type": "Feature", "properties": { "cell_id": 38, "poi_count": 2, "text_des": "تقع بنك الكويت الوطنى في القاهرة، مصر. نوع المنطقة: بنك. البيانات من :contentReference[oaicite:1]{index=1}. تقع البنك الاهلي المصرى في القاهرة، مصر. نوع المنطقة: بنك. البيانات من :contentReference[oaicite:1]{index=1}." }, "geometry": { "type": "Polygon", "coordinates": [ [ [ 31.347027027027025, 30.053513513513511 ], [ 31.347027027027025, 30.058018018018014 ], [ 31.342522522522522, 30.058018018018014 ], [ 31.342522522522522, 30.053513513513511 ], [ 31.347027027027025, 30.053513513513511 ] ] ] } },
{ "type": "Feature", "properties": { "cell_id": 39, "poi_count": 1, "text_des": "تقع Kibeida Academy في القاهرة، مصر. نوع المنطقة: مدرسة. البيانات من OpenStreetMap." }, "geometry": { "type": "Polygon", "coordinates": [ [ [ 31.347027027027025, 30.058018018018018 ], [ 31.347027027027025, 30.062522522522521 ], [ 31.342522522522522, 30.062522522522521 ], [ 31.342522522522522, 30.058018018018018 ], [ 31.347027027027025, 30.058018018018018 ] ] ] } },
{ "type": "Feature", "properties": { "cell_id": 40, "poi_count": 4, "text_des": "تقع مركز الإيمان الطبي في القاهرة، مصر. نوع المنطقة: مستشفى. البيانات من OpenStreetMap. تقع مستشفى العاملين بقطاع البترول في القاهرة، مصر. نوع المنطقة: مستشفى. البيانات من OpenStreetMap. تقع مستشفى الكبد د يس عبد الغفار الخيرية في القاهرة، مصر. نوع المنطقة: مستشفى. البيانات من OpenStreetMap. تقع أن أس جي بي في القاهرة، مصر. نوع المنطقة: بنك. البيانات من :contentReference[oaicite:1]{index=1}." }, "geometry": { "type": "Polygon", "coordinates": [ [ [ 31.347027027027025, 30.062522522522521 ], [ 31.347027027027025, 30.067027027027024 ], [ 31.342522522522522, 30.067027027027024 ], [ 31.342522522522522, 30.062522522522521 ], [ 31.347027027027025, 30.062522522522521 ] ] ] } },
{ "type": "Feature", "properties": { "cell_id": 41, "poi_count": 2, "text_des": "تقع عودة في القاهرة، مصر. نوع المنطقة: بنك. البيانات من :contentReference[oaicite:1]{index=1}. تقع بنك القاهرة في القاهرة، مصر. نوع المنطقة: بنك. البيانات من :contentReference[oaicite:1]{index=1}." }, "geometry": { "type": "Polygon", "coordinates": [ [ [ 31.347027027027025, 30.067027027027027 ], [ 31.347027027027025, 30.07153153153153 ], [ 31.342522522522522, 30.07153153153153 ], [ 31.342522522522522, 30.067027027027027 ], [ 31.347027027027025, 30.067027027027027 ] ] ] } },
{ "type": "Feature", "properties": { "cell_id": 42, "poi_count": 0, "text_des": "" }, "geometry": { "type": "Polygon", "coordinates": [ [ [ 31.351531531531531, 30.04 ], [ 31.351531531531531, 30.044504504504502 ], [ 31.347027027027028, 30.044504504504502 ], [ 31.347027027027028, 30.04 ], [ 31.351531531531531, 30.04 ] ] ] } },
{ "type": "Feature", "properties": { "cell_id": 43, "poi_count": 1, "text_des": "تقع مدرسه الالسن للغات في القاهرة، مصر. نوع المنطقة: مدرسة. البيانات من OpenStreetMap." }, "geometry": { "type": "Polygon", "coordinates": [ [ [ 31.351531531531531, 30.044504504504502 ], [ 31.351531531531531, 30.049009009009005 ], [ 31.347027027027028, 30.049009009009005 ], [ 31.347027027027028, 30.044504504504502 ], [ 31.351531531531531, 30.044504504504502 ] ] ] } },
{ "type": "Feature", "properties": { "cell_id": 44, "poi_count": 1, "text_des": "تقع هذه المنشأة في القاهرة، مصر. نوع المنطقة: مول تجاري (Mall). البيانات من OpenStreetMap." }, "geometry": { "type": "Polygon", "coordinates": [ [ [ 31.351531531531531, 30.049009009009009 ], [ 31.351531531531531, 30.053513513513511 ], [ 31.347027027027028, 30.053513513513511 ], [ 31.347027027027028, 30.049009009009009 ], [ 31.351531531531531, 30.049009009009009 ] ] ] } },
{ "type": "Feature", "properties": { "cell_id": 45, "poi_count": 1, "text_des": "تقع بنك باركليز في القاهرة، مصر. نوع المنطقة: بنك. البيانات من :contentReference[oaicite:1]{index=1}." }, "geometry": { "type": "Polygon", "coordinates": [ [ [ 31.351531531531531, 30.053513513513511 ], [ 31.351531531531531, 30.058018018018014 ], [ 31.347027027027028, 30.058018018018014 ], [ 31.347027027027028, 30.053513513513511 ], [ 31.351531531531531, 30.053513513513511 ] ] ] } },
{ "type": "Feature", "properties": { "cell_id": 46, "poi_count": 0, "text_des": "" }, "geometry": { "type": "Polygon", "coordinates": [ [ [ 31.351531531531531, 30.058018018018018 ], [ 31.351531531531531, 30.062522522522521 ], [ 31.347027027027028, 30.062522522522521 ], [ 31.347027027027028, 30.058018018018018 ], [ 31.351531531531531, 30.058018018018018 ] ] ] } },
{ "type": "Feature", "properties": { "cell_id": 47, "poi_count": 1, "text_des": "تقع منظمه الصحه العالمية في القاهرة، مصر. نوع المنطقة: مستشفى. البيانات من OpenStreetMap." }, "geometry": { "type": "Polygon", "coordinates": [ [ [ 31.351531531531531, 30.062522522522521 ], [ 31.351531531531531, 30.067027027027024 ], [ 31.347027027027028, 30.067027027027024 ], [ 31.347027027027028, 30.062522522522521 ], [ 31.351531531531531, 30.062522522522521 ] ] ] } },
{ "type": "Feature", "properties": { "cell_id": 48, "poi_count": 0, "text_des": "" }, "geometry": { "type": "Polygon", "coordinates": [ [ [ 31.351531531531531, 30.067027027027027 ], [ 31.351531531531531, 30.07153153153153 ], [ 31.347027027027028, 30.07153153153153 ], [ 31.347027027027028, 30.067027027027027 ], [ 31.351531531531531, 30.067027027027027 ] ] ] } }
]
}
