{
"type": "FeatureCollection",
"name": "grid_8c71405b",
"crs": { "type": "name", "properties": { "name": "urn:ogc:def:crs:OGC:1.3:CRS84" } },
"features": [
{ "type": "Feature", "properties": { "cell_id": 0, "node_count": 84.0, "total_length": 16287.0966796875, "avg_degree": 2.9642856121063232 }, "geometry": { "type": "Polygon", "coordinates": [ [ [ 31.204504504504502, 30.0 ], [ 31.204504504504502, 30.004504504504503 ], [ 31.2, 30.004504504504503 ], [ 31.2, 30.0 ], [ 31.204504504504502, 30.0 ] ] ] } },
{ "type": "Feature", "properties": { "cell_id": 1, "node_count": 42.0, "total_length": 17066.71875, "avg_degree": 3.047619104385376 }, "geometry": { "type": "Polygon", "coordinates": [ [ [ 31.204504504504502, 30.004504504504503 ], [ 31.204504504504502, 30.009009009009006 ], [ 31.2, 30.009009009009006 ], [ 31.2, 30.004504504504503 ], [ 31.204504504504502, 30.004504504504503 ] ] ] } },
{ "type": "Feature", "properties": { "cell_id": 2, "node_count": 70.0, "total_length": 18385.05078125, "avg_degree": 3.0999999046325684 }, "geometry": { "type": "Polygon", "coordinates": [ [ [ 31.204504504504502, 30.009009009009009 ], [ 31.204504504504502, 30.013513513513512 ], [ 31.2, 30.013513513513512 ], [ 31.2, 30.009009009009009 ], [ 31.204504504504502, 30.009009009009009 ] ] ] } },
{ "type": "Feature", "properties": { "cell_id": 3, "node_count": 122.0, "total_length": 25001.869140625, "avg_degree": 2.6803278923034668 }, "geometry": { "type": "Polygon", "coordinates": [ [ [ 31.204504504504502, 30.013513513513512 ], [ 31.204504504504502, 30.018018018018015 ], [ 31.2, 30.018018018018015 ], [ 31.2, 30.013513513513512 ], [ 31.204504504504502, 30.013513513513512 ] ] ] } },
{ "type": "Feature", "properties": { "cell_id": 4, "node_count": 147.0, "total_length": 22312.310546875, "avg_degree": 2.5306122303009033 }, "geometry": { "type": "Polygon", "coordinates": [ [ [ 31.204504504504502, 30.018018018018019 ], [ 31.204504504504502, 30.022522522522522 ], [ 31.2, 30.022522522522522 ], [ 31.2, 30.018018018018019 ], [ 31.204504504504502, 30.018018018018019 ] ] ] } },
{ "type": "Feature", "properties": { "cell_id": 5, "node_count": 70.0, "total_length": 11859.3125, "avg_degree": 2.6714286804199219 }, "geometry": { "type": "Polygon", "coordinates": [ [ [ 31.209009009009005, 30.0 ], [ 31.209009009009005, 30.004504504504503 ], [ 31.204504504504502, 30.004504504504503 ], [ 31.204504504504502, 30.0 ], [ 31.209009009009005, 30.0 ] ] ] } },
{ "type": "Feature", "properties": { "cell_id": 6, "node_count": 110.0, "total_length": 17866.447265625, "avg_degree": 2.8545453548431396 }, "geometry": { "type": "Polygon", "coordinates": [ [ [ 31.209009009009005, 30.004504504504503 ], [ 31.209009009009005, 30.009009009009006 ], [ 31.204504504504502, 30.009009009009006 ], [ 31.204504504504502, 30.004504504504503 ], [ 31.209009009009005, 30.004504504504503 ] ] ] } },
{ "type": "Feature", "properties": { "cell_id": 7, "node_count": 54.0, "total_length": 9888.7275390625, "avg_degree": 2.6666667461395264 }, "geometry": { "type": "Polygon", "coordinates": [ [ [ 31.209009009009005, 30.009009009009009 ], [ 31.209009009009005, 30.013513513513512 ], [ 31.204504504504502, 30.013513513513512 ], [ 31.204504504504502, 30.009009009009009 ], [ 31.209009009009005, 30.009009009009009 ] ] ] } },
{ "type": "Feature", "properties": { "cell_id": 8, "node_count": 14.0, "total_length": 6042.359375, "avg_degree": 2.5714285373687744 }, "geometry": { "type": "Polygon", "coordinates": [ [ [ 31.209009009009005, 30.013513513513512 ], [ 31.209009009009005, 30.018018018018015 ], [ 31.204504504504502, 30.018018018018015 ], [ 31.204504504504502, 30.013513513513512 ], [ 31.209009009009005, 30.013513513513512 ] ] ] } },
{ "type": "Feature", "properties": { "cell_id": 9, "node_count": 0.0, "total_length": 0.0, "avg_degree": 0.0 }, "geometry": { "type": "Polygon", "coordinates": [ [ [ 31.209009009009005, 30.018018018018019 ], [ 31.209009009009005, 30.022522522522522 ], [ 31.204504504504502, 30.022522522522522 ], [ 31.204504504504502, 30.018018018018019 ], [ 31.209009009009005, 30.018018018018019 ] ] ] } },
{ "type": "Feature", "properties": { "cell_id": 10, "node_count": 194.0, "total_length": 22632.064453125, "avg_degree": 2.902061939239502 }, "geometry": { "type": "Polygon", "coordinates": [ [ [ 31.213513513513512, 30.0 ], [ 31.213513513513512, 30.004504504504503 ], [ 31.209009009009009, 30.004504504504503 ], [ 31.209009009009009, 30.0 ], [ 31.213513513513512, 30.0 ] ] ] } },
{ "type": "Feature", "properties": { "cell_id": 11, "node_count": 165.0, "total_length": 20907.9140625, "avg_degree": 2.7515151500701904 }, "geometry": { "type": "Polygon", "coordinates": [ [ [ 31.213513513513512, 30.004504504504503 ], [ 31.213513513513512, 30.009009009009006 ], [ 31.209009009009009, 30.009009009009006 ], [ 31.209009009009009, 30.004504504504503 ], [ 31.213513513513512, 30.004504504504503 ] ] ] } },
{ "type": "Feature", "properties": { "cell_id": 12, "node_count": 186.0, "total_length": 17961.9453125, "avg_degree": 2.4731183052062988 }, "geometry": { "type": "Polygon", "coordinates": [ [ [ 31.213513513513512, 30.009009009009009 ], [ 31.213513513513512, 30.013513513513512 ], [ 31.209009009009009, 30.013513513513512 ], [ 31.209009009009009, 30.009009009009009 ], [ 31.213513513513512, 30.009009009009009 ] ] ] } },
{ "type": "Feature", "properties": { "cell_id": 13, "node_count": 58.0, "total_length": 11764.0458984375, "avg_degree": 3.0172414779663086 }, "geometry": { "type": "Polygon", "coordinates": [ [ [ 31.213513513513512, 30.013513513513512 ], [ 31.213513513513512, 30.018018018018015 ], [ 31.209009009009009, 30.018018018018015 ], [ 31.209009009009009, 30.013513513513512 ], [ 31.213513513513512, 30.013513513513512 ] ] ] } },
{ "type": "Feature", "properties": { "cell_id": 14, "node_count": 5.0, "total_length": 2402.227294921875, "avg_degree": 3.0 }, "geometry": { "type": "Polygon", "coordinates": [ [ [ 31.213513513513512, 30.018018018018019 ], [ 31.213513513513512, 30.022522522522522 ], [ 31.209009009009009, 30.022522522522522 ], [ 31.209009009009009, 30.018018018018019 ], [ 31.213513513513512, 30.018018018018019 ] ] ] } },
{ "type": "Feature", "properties": { "cell_id": 15, "node_count": 103.0, "total_length": 10723.599609375, "avg_degree": 2.582524299621582 }, "geometry": { "type": "Polygon", "coordinates": [ [ [ 31.218018018018014, 30.0 ], [ 31.218018018018014, 30.004504504504503 ], [ 31.213513513513512, 30.004504504504503 ], [ 31.213513513513512, 30.0 ], [ 31.218018018018014, 30.0 ] ] ] } },
{ "type": "Feature", "properties": { "cell_id": 16, "node_count": 261.0, "total_length": 22369.41796875, "avg_degree": 2.5057470798492432 }, "geometry": { "type": "Polygon", "coordinates": [ [ [ 31.218018018018014, 30.004504504504503 ], [ 31.218018018018014, 30.009009009009006 ], [ 31.213513513513512, 30.009009009009006 ], [ 31.213513513513512, 30.004504504504503 ], [ 31.218018018018014, 30.004504504504503 ] ] ] } },
{ "type": "Feature", "properties": { "cell_id": 17, "node_count": 268.0, "total_length": 22589.0078125, "avg_degree": 2.485074520111084 }, "geometry": { "type": "Polygon", "coordinates": [ [ [ 31.218018018018014, 30.009009009009009 ], [ 31.218018018018014, 30.013513513513512 ], [ 31.213513513513512, 30.013513513513512 ], [ 31.213513513513512, 30.009009009009009 ], [ 31.218018018018014, 30.009009009009009 ] ] ] } },
{ "type": "Feature", "properties": { "cell_id": 18, "node_count": 71.0, "total_length": 12928.734375, "avg_degree": 2.7042253017425537 }, "geometry": { "type": "Polygon", "coordinates": [ [ [ 31.218018018018014, 30.013513513513512 ], [ 31.218018018018014, 30.018018018018015 ], [ 31.213513513513512, 30.018018018018015 ], [ 31.213513513513512, 30.013513513513512 ], [ 31.218018018018014, 30.013513513513512 ] ] ] } },
{ "type": "Feature", "properties": { "cell_id": 19, "node_count": 31.0, "total_length": 6299.1552734375, "avg_degree": 2.9677419662475586 }, "geometry": { "type": "Polygon", "coordinates": [ [ [ 31.218018018018014, 30.018018018018019 ], [ 31.218018018018014, 30.022522522522522 ], [ 31.213513513513512, 30.022522522522522 ], [ 31.213513513513512, 30.018018018018019 ], [ 31.218018018018014, 30.018018018018019 ] ] ] } },
{ "type": "Feature", "properties": { "cell_id": 20, "node_count": 0.0, "total_length": 0.0, "avg_degree": 0.0 }, "geometry": { "type": "Polygon", "coordinates": [ [ [ 31.222522522522521, 30.0 ], [ 31.222522522522521, 30.004504504504503 ], [ 31.218018018018018, 30.004504504504503 ], [ 31.218018018018018, 30.0 ], [ 31.222522522522521, 30.0 ] ] ] } },
{ "type": "Feature", "properties": { "cell_id": 21, "node_count": 5.0, "total_length": 2208.006591796875, "avg_degree": 3.0 }, "geometry": { "type": "Polygon", "coordinates": [ [ [ 31.222522522522521, 30.004504504504503 ], [ 31.222522522522521, 30.009009009009006 ], [ 31.218018018018018, 30.009009009009006 ], [ 31.218018018018018, 30.004504504504503 ], [ 31.222522522522521, 30.004504504504503 ] ] ] } },
{ "type": "Feature", "properties": { "cell_id": 22, "node_count": 6.0, "total_length": 2285.64990234375, "avg_degree": 3.0 }, "geometry": { "type": "Polygon", "coordinates": [ [ [ 31.222522522522521, 30.009009009009009 ], [ 31.222522522522521, 30.013513513513512 ], [ 31.218018018018018, 30.013513513513512 ], [ 31.218018018018018, 30.009009009009009 ], [ 31.222522522522521, 30.009009009009009 ] ] ] } },
{ "type": "Feature", "properties": { "cell_id": 23, "node_count": 4.0, "total_length": 1469.5045166015625, "avg_degree": 3.0 }, "geometry": { "type": "Polygon", "coordinates": [ [ [ 31.222522522522521, 30.013513513513512 ], [ 31.222522522522521, 30.018018018018015 ], [ 31.218018018018018, 30.018018018018015 ], [ 31.218018018018018, 30.013513513513512 ], [ 31.222522522522521, 30.013513513513512 ] ] ] } },
{ "type": "Feature", "properties": { "cell_id": 24, "node_count": 0.0, "total_length": 0.0, "avg_degree": 0.0 }, "geometry": { "type": "Polygon", "coordinates": [ [ [ 31.222522522522521, 30.018018018018019 ], [ 31.222522522522521, 30.022522522522522 ], [ 31.218018018018018, 30.022522522522522 ], [ 31.218018018018018, 30.018018018018019 ], [ 31.222522522522521, 30.018018018018019 ] ] ] } }
]
}
