{
"type": "FeatureCollection",
"name": "grid_b3634516",
"crs": { "type": "name", "properties": { "name": "urn:ogc:def:crs:OGC:1.3:CRS84" } },
"features": [
{ "type": "Feature", "properties": { "cell_id": 0, "node_count": 0.0, "total_length": 0.0, "avg_degree": 0.0, "poi_count": 0, "text_des": "", "poi_categories": [ ] }, "geometry": { "type": "Polygon", "coordinates": [ [ [ 31.340158295780675, 30.082094070617089 ], [ 31.340158295780675, 30.086598575121592 ], [ 31.335653791276172, 30.086598575121592 ], [ 31.335653791276172, 30.082094070617089 ], [ 31.340158295780675, 30.082094070617089 ] ] ] } },
{ "type": "Feature", "properties": { "cell_id": 1, "node_count": 0.0, "total_length": 0.0, "avg_degree": 0.0, "poi_count": 2, "text_des": "تقع البنك العقاري في القاهرة، مصر. نوع المنطقة: بنك. البيانات من :contentReference[oaicite:1]{index=1}. تقع Bank ABC في القاهرة، مصر. نوع المنطقة: بنك. البيانات من :contentReference[oaicite:1]{index=1}.", "poi_categories": [ "Bank" ] }, "geometry": { "type": "Polygon", "coordinates": [ [ [ 31.340158295780675, 30.086598575121592 ], [ 31.340158295780675, 30.091103079626095 ], [ 31.335653791276172, 30.091103079626095 ], [ 31.335653791276172, 30.086598575121592 ], [ 31.340158295780675, 30.086598575121592 ] ] ] } },
{ "type": "Feature", "properties": { "cell_id": 2, "node_count": 0.0, "total_length": 0.0, "avg_degree": 0.0, "poi_count": 0, "text_des": "", "poi_categories": [ ] }, "geometry": { "type": "Polygon", "coordinates": [ [ [ 31.340158295780675, 30.091103079626098 ], [ 31.340158295780675, 30.095607584130601 ], [ 31.335653791276172, 30.095607584130601 ], [ 31.335653791276172, 30.091103079626098 ], [ 31.340158295780675, 30.091103079626098 ] ] ] } },
{ "type": "Feature", "properties": { "cell_id": 3, "node_count": 0.0, "total_length": 0.0, "avg_degree": 0.0, "poi_count": 1, "text_des": "تقع HSBC في القاهرة، مصر. نوع المنطقة: بنك. البيانات من :contentReference[oaicite:1]{index=1}.", "poi_categories": [ "Bank" ] }, "geometry": { "type": "Polygon", "coordinates": [ [ [ 31.344662800285178, 30.082094070617089 ], [ 31.344662800285178, 30.086598575121592 ], [ 31.340158295780675, 30.086598575121592 ], [ 31.340158295780675, 30.082094070617089 ], [ 31.344662800285178, 30.082094070617089 ] ] ] } },
{ "type": "Feature", "properties": { "cell_id": 4, "node_count": 0.0, "total_length": 0.0, "avg_degree": 0.0, "poi_count": 3, "text_des": "تقع مدرسة عمر بن الخطاب الرسمية للغات في القاهرة، مصر. نوع المنطقة: مدرسة. البيانات من OpenStreetMap. تقع Touches Clinic في القاهرة، مصر. نوع المنطقة: عام. البيانات من OpenStreetMap. تقع مدرسة السيدة حنيفة السلحدار الثانوية الصناعية بنات في القاهرة، مصر. نوع المنطقة: مدرسة. البيانات من OpenStreetMap.", "poi_categories": [ "Education", "Health" ] }, "geometry": { "type": "Polygon", "coordinates": [ [ [ 31.344662800285178, 30.086598575121592 ], [ 31.344662800285178, 30.091103079626095 ], [ 31.340158295780675, 30.091103079626095 ], [ 31.340158295780675, 30.086598575121592 ], [ 31.344662800285178, 30.086598575121592 ] ] ] } },
{ "type": "Feature", "properties": { "cell_id": 5, "node_count": 0.0, "total_length": 0.0, "avg_degree": 0.0, "poi_count": 1, "text_des": "تقع Crédit Agricole في القاهرة، مصر. نوع المنطقة: بنك. البيانات من :contentReference[oaicite:1]{index=1}.", "poi_categories": [ "Bank" ] }, "geometry": { "type": "Polygon", "coordinates": [ [ [ 31.344662800285178, 30.091103079626098 ], [ 31.344662800285178, 30.095607584130601 ], [ 31.340158295780675, 30.095607584130601 ], [ 31.340158295780675, 30.091103079626098 ], [ 31.344662800285178, 30.091103079626098 ] ] ] } },
{ "type": "Feature", "properties": { "cell_id": 6, "node_count": 0.0, "total_length": 0.0, "avg_degree": 0.0, "poi_count": 0, "text_des": "", "poi_categories": [ ] }, "geometry": { "type": "Polygon", "coordinates": [ [ [ 31.349167304789685, 30.082094070617089 ], [ 31.349167304789685, 30.086598575121592 ], [ 31.344662800285182, 30.086598575121592 ], [ 31.344662800285182, 30.082094070617089 ], [ 31.349167304789685, 30.082094070617089 ] ] ] } },
{ "type": "Feature", "properties": { "cell_id": 7, "node_count": 0.0, "total_length": 0.0, "avg_degree": 0.0, "poi_count": 0, "text_des": "", "poi_categories": [ ] }, "geometry": { "type": "Polygon", "coordinates": [ [ [ 31.349167304789685, 30.086598575121592 ], [ 31.349167304789685, 30.091103079626095 ], [ 31.344662800285182, 30.091103079626095 ], [ 31.344662800285182, 30.086598575121592 ], [ 31.349167304789685, 30.086598575121592 ] ] ] } },
{ "type": "Feature", "properties": { "cell_id": 8, "node_count": 0.0, "total_length": 0.0, "avg_degree": 0.0, "poi_count": 1, "text_des": "تقع مستشفى مصر للطيران في القاهرة، مصر. نوع المنطقة: مستشفى. البيانات من OpenStreetMap.", "poi_categories": [ "Health" ] }, "geometry": { "type": "Polygon", "coordinates": [ [ [ 31.349167304789685, 30.091103079626098 ], [ 31.349167304789685, 30.095607584130601 ], [ 31.344662800285182, 30.095607584130601 ], [ 31.344662800285182, 30.091103079626098 ], [ 31.349167304789685, 30.091103079626098 ] ] ] } },
{ "type": "Feature", "properties": { "cell_id": 9, "node_count": 0.0, "total_length": 0.0, "avg_degree": 0.0, "poi_count": 0, "text_des": "", "poi_categories": [ ] }, "geometry": { "type": "Polygon", "coordinates": [ [ [ 31.353671809294188, 30.082094070617089 ], [ 31.353671809294188, 30.086598575121592 ], [ 31.349167304789685, 30.086598575121592 ], [ 31.349167304789685, 30.082094070617089 ], [ 31.353671809294188, 30.082094070617089 ] ] ] } },
{ "type": "Feature", "properties": { "cell_id": 10, "node_count": 0.0, "total_length": 0.0, "avg_degree": 0.0, "poi_count": 0, "text_des": "", "poi_categories": [ ] }, "geometry": { "type": "Polygon", "coordinates": [ [ [ 31.353671809294188, 30.086598575121592 ], [ 31.353671809294188, 30.091103079626095 ], [ 31.349167304789685, 30.091103079626095 ], [ 31.349167304789685, 30.086598575121592 ], [ 31.353671809294188, 30.086598575121592 ] ] ] } },
{ "type": "Feature", "properties": { "cell_id": 11, "node_count": 0.0, "total_length": 0.0, "avg_degree": 0.0, "poi_count": 0, "text_des": "", "poi_categories": [ ] }, "geometry": { "type": "Polygon", "coordinates": [ [ [ 31.353671809294188, 30.091103079626098 ], [ 31.353671809294188, 30.095607584130601 ], [ 31.349167304789685, 30.095607584130601 ], [ 31.349167304789685, 30.091103079626098 ], [ 31.353671809294188, 30.091103079626098 ] ] ] } },
{ "type": "Feature", "properties": { "cell_id": 12, "node_count": 0.0, "total_length": 0.0, "avg_degree": 0.0, "poi_count": 0, "text_des": "", "poi_categories": [ ] }, "geometry": { "type": "Polygon", "coordinates": [ [ [ 31.358176313798694, 30.082094070617089 ], [ 31.358176313798694, 30.086598575121592 ], [ 31.353671809294191, 30.086598575121592 ], [ 31.353671809294191, 30.082094070617089 ], [ 31.358176313798694, 30.082094070617089 ] ] ] } },
{ "type": "Feature", "properties": { "cell_id": 13, "node_count": 0.0, "total_length": 0.0, "avg_degree": 0.0, "poi_count": 0, "text_des": "", "poi_categories": [ ] }, "geometry": { "type": "Polygon", "coordinates": [ [ [ 31.358176313798694, 30.086598575121592 ], [ 31.358176313798694, 30.091103079626095 ], [ 31.353671809294191, 30.091103079626095 ], [ 31.353671809294191, 30.086598575121592 ], [ 31.358176313798694, 30.086598575121592 ] ] ] } },
{ "type": "Feature", "properties": { "cell_id": 14, "node_count": 0.0, "total_length": 0.0, "avg_degree": 0.0, "poi_count": 0, "text_des": "", "poi_categories": [ ] }, "geometry": { "type": "Polygon", "coordinates": [ [ [ 31.358176313798694, 30.091103079626098 ], [ 31.358176313798694, 30.095607584130601 ], [ 31.353671809294191, 30.095607584130601 ], [ 31.353671809294191, 30.091103079626098 ], [ 31.358176313798694, 30.091103079626098 ] ] ] } }
]
}
