{
"type": "FeatureCollection",
"name": "grid_419e24db",
"crs": { "type": "name", "properties": { "name": "urn:ogc:def:crs:OGC:1.3:CRS84" } },
"features": [
{ "type": "Feature", "properties": { "cell_id": 0 }, "geometry": { "type": "Polygon", "coordinates": [ [ [ 31.204504504504502, 30.0 ], [ 31.204504504504502, 30.004504504504503 ], [ 31.2, 30.004504504504503 ], [ 31.2, 30.0 ], [ 31.204504504504502, 30.0 ] ] ] } },
{ "type": "Feature", "properties": { "cell_id": 1 }, "geometry": { "type": "Polygon", "coordinates": [ [ [ 31.204504504504502, 30.004504504504503 ], [ 31.204504504504502, 30.009009009009006 ], [ 31.2, 30.009009009009006 ], [ 31.2, 30.004504504504503 ], [ 31.204504504504502, 30.004504504504503 ] ] ] } },
{ "type": "Feature", "properties": { "cell_id": 2 }, "geometry": { "type": "Polygon", "coordinates": [ [ [ 31.204504504504502, 30.009009009009009 ], [ 31.204504504504502, 30.013513513513512 ], [ 31.2, 30.013513513513512 ], [ 31.2, 30.009009009009009 ], [ 31.204504504504502, 30.009009009009009 ] ] ] } },
{ "type": "Feature", "properties": { "cell_id": 3 }, "geometry": { "type": "Polygon", "coordinates": [ [ [ 31.204504504504502, 30.013513513513512 ], [ 31.204504504504502, 30.018018018018015 ], [ 31.2, 30.018018018018015 ], [ 31.2, 30.013513513513512 ], [ 31.204504504504502, 30.013513513513512 ] ] ] } },
{ "type": "Feature", "properties": { "cell_id": 4 }, "geometry": { "type": "Polygon", "coordinates": [ [ [ 31.204504504504502, 30.018018018018019 ], [ 31.204504504504502, 30.022522522522522 ], [ 31.2, 30.022522522522522 ], [ 31.2, 30.018018018018019 ], [ 31.204504504504502, 30.018018018018019 ] ] ] } },
{ "type": "Feature", "properties": { "cell_id": 5 }, "geometry": { "type": "Polygon", "coordinates": [ [ [ 31.204504504504502, 30.022522522522522 ], [ 31.204504504504502, 30.027027027027025 ], [ 31.2, 30.027027027027025 ], [ 31.2, 30.022522522522522 ], [ 31.204504504504502, 30.022522522522522 ] ] ] } },
{ "type": "Feature", "properties": { "cell_id": 6 }, "geometry": { "type": "Polygon", "coordinates": [ [ [ 31.204504504504502, 30.027027027027028 ], [ 31.204504504504502, 30.031531531531531 ], [ 31.2, 30.031531531531531 ], [ 31.2, 30.027027027027028 ], [ 31.204504504504502, 30.027027027027028 ] ] ] } },
{ "type": "Feature", "properties": { "cell_id": 7 }, "geometry": { "type": "Polygon", "coordinates": [ [ [ 31.204504504504502, 30.031531531531531 ], [ 31.204504504504502, 30.036036036036034 ], [ 31.2, 30.036036036036034 ], [ 31.2, 30.031531531531531 ], [ 31.204504504504502, 30.031531531531531 ] ] ] } },
{ "type": "Feature", "properties": { "cell_id": 8 }, "geometry": { "type": "Polygon", "coordinates": [ [ [ 31.204504504504502, 30.036036036036037 ], [ 31.204504504504502, 30.04054054054054 ], [ 31.2, 30.04054054054054 ], [ 31.2, 30.036036036036037 ], [ 31.204504504504502, 30.036036036036037 ] ] ] } },
{ "type": "Feature", "properties": { "cell_id": 9 }, "geometry": { "type": "Polygon", "coordinates": [ [ [ 31.209009009009005, 30.0 ], [ 31.209009009009005, 30.004504504504503 ], [ 31.204504504504502, 30.004504504504503 ], [ 31.204504504504502, 30.0 ], [ 31.209009009009005, 30.0 ] ] ] } },
{ "type": "Feature", "properties": { "cell_id": 10 }, "geometry": { "type": "Polygon", "coordinates": [ [ [ 31.209009009009005, 30.004504504504503 ], [ 31.209009009009005, 30.009009009009006 ], [ 31.204504504504502, 30.009009009009006 ], [ 31.204504504504502, 30.004504504504503 ], [ 31.209009009009005, 30.004504504504503 ] ] ] } },
{ "type": "Feature", "properties": { "cell_id": 11 }, "geometry": { "type": "Polygon", "coordinates": [ [ [ 31.209009009009005, 30.009009009009009 ], [ 31.209009009009005, 30.013513513513512 ], [ 31.204504504504502, 30.013513513513512 ], [ 31.204504504504502, 30.009009009009009 ], [ 31.209009009009005, 30.009009009009009 ] ] ] } },
{ "type": "Feature", "properties": { "cell_id": 12 }, "geometry": { "type": "Polygon", "coordinates": [ [ [ 31.209009009009005, 30.013513513513512 ], [ 31.209009009009005, 30.018018018018015 ], [ 31.204504504504502, 30.018018018018015 ], [ 31.204504504504502, 30.013513513513512 ], [ 31.209009009009005, 30.013513513513512 ] ] ] } },
{ "type": "Feature", "properties": { "cell_id": 13 }, "geometry": { "type": "Polygon", "coordinates": [ [ [ 31.209009009009005, 30.018018018018019 ], [ 31.209009009009005, 30.022522522522522 ], [ 31.204504504504502, 30.022522522522522 ], [ 31.204504504504502, 30.018018018018019 ], [ 31.209009009009005, 30.018018018018019 ] ] ] } },
{ "type": "Feature", "properties": { "cell_id": 14 }, "geometry": { "type": "Polygon", "coordinates": [ [ [ 31.209009009009005, 30.022522522522522 ], [ 31.209009009009005, 30.027027027027025 ], [ 31.204504504504502, 30.027027027027025 ], [ 31.204504504504502, 30.022522522522522 ], [ 31.209009009009005, 30.022522522522522 ] ] ] } },
{ "type": "Feature", "properties": { "cell_id": 15 }, "geometry": { "type": "Polygon", "coordinates": [ [ [ 31.209009009009005, 30.027027027027028 ], [ 31.209009009009005, 30.031531531531531 ], [ 31.204504504504502, 30.031531531531531 ], [ 31.204504504504502, 30.027027027027028 ], [ 31.209009009009005, 30.027027027027028 ] ] ] } },
{ "type": "Feature", "properties": { "cell_id": 16 }, "geometry": { "type": "Polygon", "coordinates": [ [ [ 31.209009009009005, 30.031531531531531 ], [ 31.209009009009005, 30.036036036036034 ], [ 31.204504504504502, 30.036036036036034 ], [ 31.204504504504502, 30.031531531531531 ], [ 31.209009009009005, 30.031531531531531 ] ] ] } },
{ "type": "Feature", "properties": { "cell_id": 17 }, "geometry": { "type": "Polygon", "coordinates": [ [ [ 31.209009009009005, 30.036036036036037 ], [ 31.209009009009005, 30.04054054054054 ], [ 31.204504504504502, 30.04054054054054 ], [ 31.204504504504502, 30.036036036036037 ], [ 31.209009009009005, 30.036036036036037 ] ] ] } },
{ "type": "Feature", "properties": { "cell_id": 18 }, "geometry": { "type": "Polygon", "coordinates": [ [ [ 31.213513513513512, 30.0 ], [ 31.213513513513512, 30.004504504504503 ], [ 31.209009009009009, 30.004504504504503 ], [ 31.209009009009009, 30.0 ], [ 31.213513513513512, 30.0 ] ] ] } },
{ "type": "Feature", "properties": { "cell_id": 19 }, "geometry": { "type": "Polygon", "coordinates": [ [ [ 31.213513513513512, 30.004504504504503 ], [ 31.213513513513512, 30.009009009009006 ], [ 31.209009009009009, 30.009009009009006 ], [ 31.209009009009009, 30.004504504504503 ], [ 31.213513513513512, 30.004504504504503 ] ] ] } },
{ "type": "Feature", "properties": { "cell_id": 20 }, "geometry": { "type": "Polygon", "coordinates": [ [ [ 31.213513513513512, 30.009009009009009 ], [ 31.213513513513512, 30.013513513513512 ], [ 31.209009009009009, 30.013513513513512 ], [ 31.209009009009009, 30.009009009009009 ], [ 31.213513513513512, 30.009009009009009 ] ] ] } },
{ "type": "Feature", "properties": { "cell_id": 21 }, "geometry": { "type": "Polygon", "coordinates": [ [ [ 31.213513513513512, 30.013513513513512 ], [ 31.213513513513512, 30.018018018018015 ], [ 31.209009009009009, 30.018018018018015 ], [ 31.209009009009009, 30.013513513513512 ], [ 31.213513513513512, 30.013513513513512 ] ] ] } },
{ "type": "Feature", "properties": { "cell_id": 22 }, "geometry": { "type": "Polygon", "coordinates": [ [ [ 31.213513513513512, 30.018018018018019 ], [ 31.213513513513512, 30.022522522522522 ], [ 31.209009009009009, 30.022522522522522 ], [ 31.209009009009009, 30.018018018018019 ], [ 31.213513513513512, 30.018018018018019 ] ] ] } },
{ "type": "Feature", "properties": { "cell_id": 23 }, "geometry": { "type": "Polygon", "coordinates": [ [ [ 31.213513513513512, 30.022522522522522 ], [ 31.213513513513512, 30.027027027027025 ], [ 31.209009009009009, 30.027027027027025 ], [ 31.209009009009009, 30.022522522522522 ], [ 31.213513513513512, 30.022522522522522 ] ] ] } },
{ "type": "Feature", "properties": { "cell_id": 24 }, "geometry": { "type": "Polygon", "coordinates": [ [ [ 31.213513513513512, 30.027027027027028 ], [ 31.213513513513512, 30.031531531531531 ], [ 31.209009009009009, 30.031531531531531 ], [ 31.209009009009009, 30.027027027027028 ], [ 31.213513513513512, 30.027027027027028 ] ] ] } },
{ "type": "Feature", "properties": { "cell_id": 25 }, "geometry": { "type": "Polygon", "coordinates": [ [ [ 31.213513513513512, 30.031531531531531 ], [ 31.213513513513512, 30.036036036036034 ], [ 31.209009009009009, 30.036036036036034 ], [ 31.209009009009009, 30.031531531531531 ], [ 31.213513513513512, 30.031531531531531 ] ] ] } },
{ "type": "Feature", "properties": { "cell_id": 26 }, "geometry": { "type": "Polygon", "coordinates": [ [ [ 31.213513513513512, 30.036036036036037 ], [ 31.213513513513512, 30.04054054054054 ], [ 31.209009009009009, 30.04054054054054 ], [ 31.209009009009009, 30.036036036036037 ], [ 31.213513513513512, 30.036036036036037 ] ] ] } },
{ "type": "Feature", "properties": { "cell_id": 27 }, "geometry": { "type": "Polygon", "coordinates": [ [ [ 31.218018018018014, 30.0 ], [ 31.218018018018014, 30.004504504504503 ], [ 31.213513513513512, 30.004504504504503 ], [ 31.213513513513512, 30.0 ], [ 31.218018018018014, 30.0 ] ] ] } },
{ "type": "Feature", "properties": { "cell_id": 28 }, "geometry": { "type": "Polygon", "coordinates": [ [ [ 31.218018018018014, 30.004504504504503 ], [ 31.218018018018014, 30.009009009009006 ], [ 31.213513513513512, 30.009009009009006 ], [ 31.213513513513512, 30.004504504504503 ], [ 31.218018018018014, 30.004504504504503 ] ] ] } },
{ "type": "Feature", "properties": { "cell_id": 29 }, "geometry": { "type": "Polygon", "coordinates": [ [ [ 31.218018018018014, 30.009009009009009 ], [ 31.218018018018014, 30.013513513513512 ], [ 31.213513513513512, 30.013513513513512 ], [ 31.213513513513512, 30.009009009009009 ], [ 31.218018018018014, 30.009009009009009 ] ] ] } },
{ "type": "Feature", "properties": { "cell_id": 30 }, "geometry": { "type": "Polygon", "coordinates": [ [ [ 31.218018018018014, 30.013513513513512 ], [ 31.218018018018014, 30.018018018018015 ], [ 31.213513513513512, 30.018018018018015 ], [ 31.213513513513512, 30.013513513513512 ], [ 31.218018018018014, 30.013513513513512 ] ] ] } },
{ "type": "Feature", "properties": { "cell_id": 31 }, "geometry": { "type": "Polygon", "coordinates": [ [ [ 31.218018018018014, 30.018018018018019 ], [ 31.218018018018014, 30.022522522522522 ], [ 31.213513513513512, 30.022522522522522 ], [ 31.213513513513512, 30.018018018018019 ], [ 31.218018018018014, 30.018018018018019 ] ] ] } },
{ "type": "Feature", "properties": { "cell_id": 32 }, "geometry": { "type": "Polygon", "coordinates": [ [ [ 31.218018018018014, 30.022522522522522 ], [ 31.218018018018014, 30.027027027027025 ], [ 31.213513513513512, 30.027027027027025 ], [ 31.213513513513512, 30.022522522522522 ], [ 31.218018018018014, 30.022522522522522 ] ] ] } },
{ "type": "Feature", "properties": { "cell_id": 33 }, "geometry": { "type": "Polygon", "coordinates": [ [ [ 31.218018018018014, 30.027027027027028 ], [ 31.218018018018014, 30.031531531531531 ], [ 31.213513513513512, 30.031531531531531 ], [ 31.213513513513512, 30.027027027027028 ], [ 31.218018018018014, 30.027027027027028 ] ] ] } },
{ "type": "Feature", "properties": { "cell_id": 34 }, "geometry": { "type": "Polygon", "coordinates": [ [ [ 31.218018018018014, 30.031531531531531 ], [ 31.218018018018014, 30.036036036036034 ], [ 31.213513513513512, 30.036036036036034 ], [ 31.213513513513512, 30.031531531531531 ], [ 31.218018018018014, 30.031531531531531 ] ] ] } },
{ "type": "Feature", "properties": { "cell_id": 35 }, "geometry": { "type": "Polygon", "coordinates": [ [ [ 31.218018018018014, 30.036036036036037 ], [ 31.218018018018014, 30.04054054054054 ], [ 31.213513513513512, 30.04054054054054 ], [ 31.213513513513512, 30.036036036036037 ], [ 31.218018018018014, 30.036036036036037 ] ] ] } },
{ "type": "Feature", "properties": { "cell_id": 36 }, "geometry": { "type": "Polygon", "coordinates": [ [ [ 31.222522522522521, 30.0 ], [ 31.222522522522521, 30.004504504504503 ], [ 31.218018018018018, 30.004504504504503 ], [ 31.218018018018018, 30.0 ], [ 31.222522522522521, 30.0 ] ] ] } },
{ "type": "Feature", "properties": { "cell_id": 37 }, "geometry": { "type": "Polygon", "coordinates": [ [ [ 31.222522522522521, 30.004504504504503 ], [ 31.222522522522521, 30.009009009009006 ], [ 31.218018018018018, 30.009009009009006 ], [ 31.218018018018018, 30.004504504504503 ], [ 31.222522522522521, 30.004504504504503 ] ] ] } },
{ "type": "Feature", "properties": { "cell_id": 38 }, "geometry": { "type": "Polygon", "coordinates": [ [ [ 31.222522522522521, 30.009009009009009 ], [ 31.222522522522521, 30.013513513513512 ], [ 31.218018018018018, 30.013513513513512 ], [ 31.218018018018018, 30.009009009009009 ], [ 31.222522522522521, 30.009009009009009 ] ] ] } },
{ "type": "Feature", "properties": { "cell_id": 39 }, "geometry": { "type": "Polygon", "coordinates": [ [ [ 31.222522522522521, 30.013513513513512 ], [ 31.222522522522521, 30.018018018018015 ], [ 31.218018018018018, 30.018018018018015 ], [ 31.218018018018018, 30.013513513513512 ], [ 31.222522522522521, 30.013513513513512 ] ] ] } },
{ "type": "Feature", "properties": { "cell_id": 40 }, "geometry": { "type": "Polygon", "coordinates": [ [ [ 31.222522522522521, 30.018018018018019 ], [ 31.222522522522521, 30.022522522522522 ], [ 31.218018018018018, 30.022522522522522 ], [ 31.218018018018018, 30.018018018018019 ], [ 31.222522522522521, 30.018018018018019 ] ] ] } },
{ "type": "Feature", "properties": { "cell_id": 41 }, "geometry": { "type": "Polygon", "coordinates": [ [ [ 31.222522522522521, 30.022522522522522 ], [ 31.222522522522521, 30.027027027027025 ], [ 31.218018018018018, 30.027027027027025 ], [ 31.218018018018018, 30.022522522522522 ], [ 31.222522522522521, 30.022522522522522 ] ] ] } },
{ "type": "Feature", "properties": { "cell_id": 42 }, "geometry": { "type": "Polygon", "coordinates": [ [ [ 31.222522522522521, 30.027027027027028 ], [ 31.222522522522521, 30.031531531531531 ], [ 31.218018018018018, 30.031531531531531 ], [ 31.218018018018018, 30.027027027027028 ], [ 31.222522522522521, 30.027027027027028 ] ] ] } },
{ "type": "Feature", "properties": { "cell_id": 43 }, "geometry": { "type": "Polygon", "coordinates": [ [ [ 31.222522522522521, 30.031531531531531 ], [ 31.222522522522521, 30.036036036036034 ], [ 31.218018018018018, 30.036036036036034 ], [ 31.218018018018018, 30.031531531531531 ], [ 31.222522522522521, 30.031531531531531 ] ] ] } },
{ "type": "Feature", "properties": { "cell_id": 44 }, "geometry": { "type": "Polygon", "coordinates": [ [ [ 31.222522522522521, 30.036036036036037 ], [ 31.222522522522521, 30.04054054054054 ], [ 31.218018018018018, 30.04054054054054 ], [ 31.218018018018018, 30.036036036036037 ], [ 31.222522522522521, 30.036036036036037 ] ] ] } },
{ "type": "Feature", "properties": { "cell_id": 45 }, "geometry": { "type": "Polygon", "coordinates": [ [ [ 31.227027027027024, 30.0 ], [ 31.227027027027024, 30.004504504504503 ], [ 31.222522522522521, 30.004504504504503 ], [ 31.222522522522521, 30.0 ], [ 31.227027027027024, 30.0 ] ] ] } },
{ "type": "Feature", "properties": { "cell_id": 46 }, "geometry": { "type": "Polygon", "coordinates": [ [ [ 31.227027027027024, 30.004504504504503 ], [ 31.227027027027024, 30.009009009009006 ], [ 31.222522522522521, 30.009009009009006 ], [ 31.222522522522521, 30.004504504504503 ], [ 31.227027027027024, 30.004504504504503 ] ] ] } },
{ "type": "Feature", "properties": { "cell_id": 47 }, "geometry": { "type": "Polygon", "coordinates": [ [ [ 31.227027027027024, 30.009009009009009 ], [ 31.227027027027024, 30.013513513513512 ], [ 31.222522522522521, 30.013513513513512 ], [ 31.222522522522521, 30.009009009009009 ], [ 31.227027027027024, 30.009009009009009 ] ] ] } },
{ "type": "Feature", "properties": { "cell_id": 48 }, "geometry": { "type": "Polygon", "coordinates": [ [ [ 31.227027027027024, 30.013513513513512 ], [ 31.227027027027024, 30.018018018018015 ], [ 31.222522522522521, 30.018018018018015 ], [ 31.222522522522521, 30.013513513513512 ], [ 31.227027027027024, 30.013513513513512 ] ] ] } },
{ "type": "Feature", "properties": { "cell_id": 49 }, "geometry": { "type": "Polygon", "coordinates": [ [ [ 31.227027027027024, 30.018018018018019 ], [ 31.227027027027024, 30.022522522522522 ], [ 31.222522522522521, 30.022522522522522 ], [ 31.222522522522521, 30.018018018018019 ], [ 31.227027027027024, 30.018018018018019 ] ] ] } },
{ "type": "Feature", "properties": { "cell_id": 50 }, "geometry": { "type": "Polygon", "coordinates": [ [ [ 31.227027027027024, 30.022522522522522 ], [ 31.227027027027024, 30.027027027027025 ], [ 31.222522522522521, 30.027027027027025 ], [ 31.222522522522521, 30.022522522522522 ], [ 31.227027027027024, 30.022522522522522 ] ] ] } },
{ "type": "Feature", "properties": { "cell_id": 51 }, "geometry": { "type": "Polygon", "coordinates": [ [ [ 31.227027027027024, 30.027027027027028 ], [ 31.227027027027024, 30.031531531531531 ], [ 31.222522522522521, 30.031531531531531 ], [ 31.222522522522521, 30.027027027027028 ], [ 31.227027027027024, 30.027027027027028 ] ] ] } },
{ "type": "Feature", "properties": { "cell_id": 52 }, "geometry": { "type": "Polygon", "coordinates": [ [ [ 31.227027027027024, 30.031531531531531 ], [ 31.227027027027024, 30.036036036036034 ], [ 31.222522522522521, 30.036036036036034 ], [ 31.222522522522521, 30.031531531531531 ], [ 31.227027027027024, 30.031531531531531 ] ] ] } },
{ "type": "Feature", "properties": { "cell_id": 53 }, "geometry": { "type": "Polygon", "coordinates": [ [ [ 31.227027027027024, 30.036036036036037 ], [ 31.227027027027024, 30.04054054054054 ], [ 31.222522522522521, 30.04054054054054 ], [ 31.222522522522521, 30.036036036036037 ], [ 31.227027027027024, 30.036036036036037 ] ] ] } },
{ "type": "Feature", "properties": { "cell_id": 54 }, "geometry": { "type": "Polygon", "coordinates": [ [ [ 31.23153153153153, 30.0 ], [ 31.23153153153153, 30.004504504504503 ], [ 31.227027027027027, 30.004504504504503 ], [ 31.227027027027027, 30.0 ], [ 31.23153153153153, 30.0 ] ] ] } },
{ "type": "Feature", "properties": { "cell_id": 55 }, "geometry": { "type": "Polygon", "coordinates": [ [ [ 31.23153153153153, 30.004504504504503 ], [ 31.23153153153153, 30.009009009009006 ], [ 31.227027027027027, 30.009009009009006 ], [ 31.227027027027027, 30.004504504504503 ], [ 31.23153153153153, 30.004504504504503 ] ] ] } },
{ "type": "Feature", "properties": { "cell_id": 56 }, "geometry": { "type": "Polygon", "coordinates": [ [ [ 31.23153153153153, 30.009009009009009 ], [ 31.23153153153153, 30.013513513513512 ], [ 31.227027027027027, 30.013513513513512 ], [ 31.227027027027027, 30.009009009009009 ], [ 31.23153153153153, 30.009009009009009 ] ] ] } },
{ "type": "Feature", "properties": { "cell_id": 57 }, "geometry": { "type": "Polygon", "coordinates": [ [ [ 31.23153153153153, 30.013513513513512 ], [ 31.23153153153153, 30.018018018018015 ], [ 31.227027027027027, 30.018018018018015 ], [ 31.227027027027027, 30.013513513513512 ], [ 31.23153153153153, 30.013513513513512 ] ] ] } },
{ "type": "Feature", "properties": { "cell_id": 58 }, "geometry": { "type": "Polygon", "coordinates": [ [ [ 31.23153153153153, 30.018018018018019 ], [ 31.23153153153153, 30.022522522522522 ], [ 31.227027027027027, 30.022522522522522 ], [ 31.227027027027027, 30.018018018018019 ], [ 31.23153153153153, 30.018018018018019 ] ] ] } },
{ "type": "Feature", "properties": { "cell_id": 59 }, "geometry": { "type": "Polygon", "coordinates": [ [ [ 31.23153153153153, 30.022522522522522 ], [ 31.23153153153153, 30.027027027027025 ], [ 31.227027027027027, 30.027027027027025 ], [ 31.227027027027027, 30.022522522522522 ], [ 31.23153153153153, 30.022522522522522 ] ] ] } },
{ "type": "Feature", "properties": { "cell_id": 60 }, "geometry": { "type": "Polygon", "coordinates": [ [ [ 31.23153153153153, 30.027027027027028 ], [ 31.23153153153153, 30.031531531531531 ], [ 31.227027027027027, 30.031531531531531 ], [ 31.227027027027027, 30.027027027027028 ], [ 31.23153153153153, 30.027027027027028 ] ] ] } },
{ "type": "Feature", "properties": { "cell_id": 61 }, "geometry": { "type": "Polygon", "coordinates": [ [ [ 31.23153153153153, 30.031531531531531 ], [ 31.23153153153153, 30.036036036036034 ], [ 31.227027027027027, 30.036036036036034 ], [ 31.227027027027027, 30.031531531531531 ], [ 31.23153153153153, 30.031531531531531 ] ] ] } },
{ "type": "Feature", "properties": { "cell_id": 62 }, "geometry": { "type": "Polygon", "coordinates": [ [ [ 31.23153153153153, 30.036036036036037 ], [ 31.23153153153153, 30.04054054054054 ], [ 31.227027027027027, 30.04054054054054 ], [ 31.227027027027027, 30.036036036036037 ], [ 31.23153153153153, 30.036036036036037 ] ] ] } },
{ "type": "Feature", "properties": { "cell_id": 63 }, "geometry": { "type": "Polygon", "coordinates": [ [ [ 31.236036036036033, 30.0 ], [ 31.236036036036033, 30.004504504504503 ], [ 31.23153153153153, 30.004504504504503 ], [ 31.23153153153153, 30.0 ], [ 31.236036036036033, 30.0 ] ] ] } },
{ "type": "Feature", "properties": { "cell_id": 64 }, "geometry": { "type": "Polygon", "coordinates": [ [ [ 31.236036036036033, 30.004504504504503 ], [ 31.236036036036033, 30.009009009009006 ], [ 31.23153153153153, 30.009009009009006 ], [ 31.23153153153153, 30.004504504504503 ], [ 31.236036036036033, 30.004504504504503 ] ] ] } },
{ "type": "Feature", "properties": { "cell_id": 65 }, "geometry": { "type": "Polygon", "coordinates": [ [ [ 31.236036036036033, 30.009009009009009 ], [ 31.236036036036033, 30.013513513513512 ], [ 31.23153153153153, 30.013513513513512 ], [ 31.23153153153153, 30.009009009009009 ], [ 31.236036036036033, 30.009009009009009 ] ] ] } },
{ "type": "Feature", "properties": { "cell_id": 66 }, "geometry": { "type": "Polygon", "coordinates": [ [ [ 31.236036036036033, 30.013513513513512 ], [ 31.236036036036033, 30.018018018018015 ], [ 31.23153153153153, 30.018018018018015 ], [ 31.23153153153153, 30.013513513513512 ], [ 31.236036036036033, 30.013513513513512 ] ] ] } },
{ "type": "Feature", "properties": { "cell_id": 67 }, "geometry": { "type": "Polygon", "coordinates": [ [ [ 31.236036036036033, 30.018018018018019 ], [ 31.236036036036033, 30.022522522522522 ], [ 31.23153153153153, 30.022522522522522 ], [ 31.23153153153153, 30.018018018018019 ], [ 31.236036036036033, 30.018018018018019 ] ] ] } },
{ "type": "Feature", "properties": { "cell_id": 68 }, "geometry": { "type": "Polygon", "coordinates": [ [ [ 31.236036036036033, 30.022522522522522 ], [ 31.236036036036033, 30.027027027027025 ], [ 31.23153153153153, 30.027027027027025 ], [ 31.23153153153153, 30.022522522522522 ], [ 31.236036036036033, 30.022522522522522 ] ] ] } },
{ "type": "Feature", "properties": { "cell_id": 69 }, "geometry": { "type": "Polygon", "coordinates": [ [ [ 31.236036036036033, 30.027027027027028 ], [ 31.236036036036033, 30.031531531531531 ], [ 31.23153153153153, 30.031531531531531 ], [ 31.23153153153153, 30.027027027027028 ], [ 31.236036036036033, 30.027027027027028 ] ] ] } },
{ "type": "Feature", "properties": { "cell_id": 70 }, "geometry": { "type": "Polygon", "coordinates": [ [ [ 31.236036036036033, 30.031531531531531 ], [ 31.236036036036033, 30.036036036036034 ], [ 31.23153153153153, 30.036036036036034 ], [ 31.23153153153153, 30.031531531531531 ], [ 31.236036036036033, 30.031531531531531 ] ] ] } },
{ "type": "Feature", "properties": { "cell_id": 71 }, "geometry": { "type": "Polygon", "coordinates": [ [ [ 31.236036036036033, 30.036036036036037 ], [ 31.236036036036033, 30.04054054054054 ], [ 31.23153153153153, 30.04054054054054 ], [ 31.23153153153153, 30.036036036036037 ], [ 31.236036036036033, 30.036036036036037 ] ] ] } },
{ "type": "Feature", "properties": { "cell_id": 72 }, "geometry": { "type": "Polygon", "coordinates": [ [ [ 31.24054054054054, 30.0 ], [ 31.24054054054054, 30.004504504504503 ], [ 31.236036036036037, 30.004504504504503 ], [ 31.236036036036037, 30.0 ], [ 31.24054054054054, 30.0 ] ] ] } },
{ "type": "Feature", "properties": { "cell_id": 73 }, "geometry": { "type": "Polygon", "coordinates": [ [ [ 31.24054054054054, 30.004504504504503 ], [ 31.24054054054054, 30.009009009009006 ], [ 31.236036036036037, 30.009009009009006 ], [ 31.236036036036037, 30.004504504504503 ], [ 31.24054054054054, 30.004504504504503 ] ] ] } },
{ "type": "Feature", "properties": { "cell_id": 74 }, "geometry": { "type": "Polygon", "coordinates": [ [ [ 31.24054054054054, 30.009009009009009 ], [ 31.24054054054054, 30.013513513513512 ], [ 31.236036036036037, 30.013513513513512 ], [ 31.236036036036037, 30.009009009009009 ], [ 31.24054054054054, 30.009009009009009 ] ] ] } },
{ "type": "Feature", "properties": { "cell_id": 75 }, "geometry": { "type": "Polygon", "coordinates": [ [ [ 31.24054054054054, 30.013513513513512 ], [ 31.24054054054054, 30.018018018018015 ], [ 31.236036036036037, 30.018018018018015 ], [ 31.236036036036037, 30.013513513513512 ], [ 31.24054054054054, 30.013513513513512 ] ] ] } },
{ "type": "Feature", "properties": { "cell_id": 76 }, "geometry": { "type": "Polygon", "coordinates": [ [ [ 31.24054054054054, 30.018018018018019 ], [ 31.24054054054054, 30.022522522522522 ], [ 31.236036036036037, 30.022522522522522 ], [ 31.236036036036037, 30.018018018018019 ], [ 31.24054054054054, 30.018018018018019 ] ] ] } },
{ "type": "Feature", "properties": { "cell_id": 77 }, "geometry": { "type": "Polygon", "coordinates": [ [ [ 31.24054054054054, 30.022522522522522 ], [ 31.24054054054054, 30.027027027027025 ], [ 31.236036036036037, 30.027027027027025 ], [ 31.236036036036037, 30.022522522522522 ], [ 31.24054054054054, 30.022522522522522 ] ] ] } },
{ "type": "Feature", "properties": { "cell_id": 78 }, "geometry": { "type": "Polygon", "coordinates": [ [ [ 31.24054054054054, 30.027027027027028 ], [ 31.24054054054054, 30.031531531531531 ], [ 31.236036036036037, 30.031531531531531 ], [ 31.236036036036037, 30.027027027027028 ], [ 31.24054054054054, 30.027027027027028 ] ] ] } },
{ "type": "Feature", "properties": { "cell_id": 79 }, "geometry": { "type": "Polygon", "coordinates": [ [ [ 31.24054054054054, 30.031531531531531 ], [ 31.24054054054054, 30.036036036036034 ], [ 31.236036036036037, 30.036036036036034 ], [ 31.236036036036037, 30.031531531531531 ], [ 31.24054054054054, 30.031531531531531 ] ] ] } },
{ "type": "Feature", "properties": { "cell_id": 80 }, "geometry": { "type": "Polygon", "coordinates": [ [ [ 31.24054054054054, 30.036036036036037 ], [ 31.24054054054054, 30.04054054054054 ], [ 31.236036036036037, 30.04054054054054 ], [ 31.236036036036037, 30.036036036036037 ], [ 31.24054054054054, 30.036036036036037 ] ] ] } }
]
}
