{
"type": "FeatureCollection",
"name": "grid_dd6c00e0",
"crs": { "type": "name", "properties": { "name": "urn:ogc:def:crs:OGC:1.3:CRS84" } },
"features": [
{ "type": "Feature", "properties": { "cell_id": 0, "node_count": 84.0, "total_length": 16287.0966796875, "avg_degree": 2.9642856121063232 }, "geometry": { "type": "Polygon", "coordinates": [ [ [ 31.204504504504502, 30.0 ], [ 31.204504504504502, 30.004504504504503 ], [ 31.2, 30.004504504504503 ], [ 31.2, 30.0 ], [ 31.204504504504502, 30.0 ] ] ] } },
{ "type": "Feature", "properties": { "cell_id": 1, "node_count": 42.0, "total_length": 17066.71875, "avg_degree": 3.047619104385376 }, "geometry": { "type": "Polygon", "coordinates": [ [ [ 31.204504504504502, 30.004504504504503 ], [ 31.204504504504502, 30.009009009009006 ], [ 31.2, 30.009009009009006 ], [ 31.2, 30.004504504504503 ], [ 31.204504504504502, 30.004504504504503 ] ] ] } },
{ "type": "Feature", "properties": { "cell_id": 2, "node_count": 70.0, "total_length": 18385.05078125, "avg_degree": 3.0999999046325684 }, "geometry": { "type": "Polygon", "coordinates": [ [ [ 31.204504504504502, 30.009009009009009 ], [ 31.204504504504502, 30.013513513513512 ], [ 31.2, 30.013513513513512 ], [ 31.2, 30.009009009009009 ], [ 31.204504504504502, 30.009009009009009 ] ] ] } },
{ "type": "Feature", "properties": { "cell_id": 3, "node_count": 70.0, "total_length": 11859.3125, "avg_degree": 2.6714286804199219 }, "geometry": { "type": "Polygon", "coordinates": [ [ [ 31.209009009009005, 30.0 ], [ 31.209009009009005, 30.004504504504503 ], [ 31.204504504504502, 30.004504504504503 ], [ 31.204504504504502, 30.0 ], [ 31.209009009009005, 30.0 ] ] ] } },
{ "type": "Feature", "properties": { "cell_id": 4, "node_count": 110.0, "total_length": 17866.447265625, "avg_degree": 2.8545453548431396 }, "geometry": { "type": "Polygon", "coordinates": [ [ [ 31.209009009009005, 30.004504504504503 ], [ 31.209009009009005, 30.009009009009006 ], [ 31.204504504504502, 30.009009009009006 ], [ 31.204504504504502, 30.004504504504503 ], [ 31.209009009009005, 30.004504504504503 ] ] ] } },
{ "type": "Feature", "properties": { "cell_id": 5, "node_count": 54.0, "total_length": 9888.7275390625, "avg_degree": 2.6666667461395264 }, "geometry": { "type": "Polygon", "coordinates": [ [ [ 31.209009009009005, 30.009009009009009 ], [ 31.209009009009005, 30.013513513513512 ], [ 31.204504504504502, 30.013513513513512 ], [ 31.204504504504502, 30.009009009009009 ], [ 31.209009009009005, 30.009009009009009 ] ] ] } },
{ "type": "Feature", "properties": { "cell_id": 6, "node_count": 194.0, "total_length": 22632.064453125, "avg_degree": 2.902061939239502 }, "geometry": { "type": "Polygon", "coordinates": [ [ [ 31.213513513513512, 30.0 ], [ 31.213513513513512, 30.004504504504503 ], [ 31.209009009009009, 30.004504504504503 ], [ 31.209009009009009, 30.0 ], [ 31.213513513513512, 30.0 ] ] ] } },
{ "type": "Feature", "properties": { "cell_id": 7, "node_count": 165.0, "total_length": 20907.9140625, "avg_degree": 2.7515151500701904 }, "geometry": { "type": "Polygon", "coordinates": [ [ [ 31.213513513513512, 30.004504504504503 ], [ 31.213513513513512, 30.009009009009006 ], [ 31.209009009009009, 30.009009009009006 ], [ 31.209009009009009, 30.004504504504503 ], [ 31.213513513513512, 30.004504504504503 ] ] ] } },
{ "type": "Feature", "properties": { "cell_id": 8, "node_count": 186.0, "total_length": 17961.9453125, "avg_degree": 2.4731183052062988 }, "geometry": { "type": "Polygon", "coordinates": [ [ [ 31.213513513513512, 30.009009009009009 ], [ 31.213513513513512, 30.013513513513512 ], [ 31.209009009009009, 30.013513513513512 ], [ 31.209009009009009, 30.009009009009009 ], [ 31.213513513513512, 30.009009009009009 ] ] ] } }
]
}
