{
"type": "FeatureCollection",
"name": "grid_01cc5ba0",
"crs": { "type": "name", "properties": { "name": "urn:ogc:def:crs:OGC:1.3:CRS84" } },
"features": [
{ "type": "Feature", "properties": { "cell_id": 0, "node_count": 28.0, "total_length": 7191.048828125, "avg_degree": 3.4642856121063232, "poi_count": 1, "text_des": "تقع Alex Bank في القاهرة، مصر. نوع المنطقة: بنك. البيانات من :contentReference[oaicite:1]{index=1}.", "poi_categories": [ "Bank" ] }, "geometry": { "type": "Polygon", "coordinates": [ [ [ 31.23478202571355, 30.033703199659399 ], [ 31.23478202571355, 30.038207704163902 ], [ 31.230277521209047, 30.038207704163902 ], [ 31.230277521209047, 30.033703199659399 ], [ 31.23478202571355, 30.033703199659399 ] ] ] } },
{ "type": "Feature", "properties": { "cell_id": 1, "node_count": 34.0, "total_length": 6986.5458984375, "avg_degree": 2.9117646217346191, "poi_count": 0, "text_des": "", "poi_categories": [ ] }, "geometry": { "type": "Polygon", "coordinates": [ [ [ 31.23478202571355, 30.038207704163902 ], [ 31.23478202571355, 30.042712208668405 ], [ 31.230277521209047, 30.042712208668405 ], [ 31.230277521209047, 30.038207704163902 ], [ 31.23478202571355, 30.038207704163902 ] ] ] } },
{ "type": "Feature", "properties": { "cell_id": 2, "node_count": 52.0, "total_length": 8747.55859375, "avg_degree": 2.942307710647583, "poi_count": 1, "text_des": "تقع CIB Central International Bank في القاهرة، مصر. نوع المنطقة: بنك. البيانات من :contentReference[oaicite:1]{index=1}.", "poi_categories": [ "Bank" ] }, "geometry": { "type": "Polygon", "coordinates": [ [ [ 31.239286530218052, 30.033703199659399 ], [ 31.239286530218052, 30.038207704163902 ], [ 31.23478202571355, 30.038207704163902 ], [ 31.23478202571355, 30.033703199659399 ], [ 31.239286530218052, 30.033703199659399 ] ] ] } },
{ "type": "Feature", "properties": { "cell_id": 3, "node_count": 14.0, "total_length": 4591.18505859375, "avg_degree": 3.1428570747375488, "poi_count": 2, "text_des": "تقع Banque Misr في القاهرة، مصر. نوع المنطقة: بنك. البيانات من :contentReference[oaicite:1]{index=1}. تقع The United Bank في القاهرة، مصر. نوع المنطقة: بنك. البيانات من :contentReference[oaicite:1]{index=1}.", "poi_categories": [ "Bank" ] }, "geometry": { "type": "Polygon", "coordinates": [ [ [ 31.239286530218052, 30.038207704163902 ], [ 31.239286530218052, 30.042712208668405 ], [ 31.23478202571355, 30.042712208668405 ], [ 31.23478202571355, 30.038207704163902 ], [ 31.239286530218052, 30.038207704163902 ] ] ] } },
{ "type": "Feature", "properties": { "cell_id": 4, "node_count": 144.0, "total_length": 14708.7373046875, "avg_degree": 2.7291667461395264, "poi_count": 0, "text_des": "", "poi_categories": [ ] }, "geometry": { "type": "Polygon", "coordinates": [ [ [ 31.243791034722559, 30.033703199659399 ], [ 31.243791034722559, 30.038207704163902 ], [ 31.239286530218056, 30.038207704163902 ], [ 31.239286530218056, 30.033703199659399 ], [ 31.243791034722559, 30.033703199659399 ] ] ] } },
{ "type": "Feature", "properties": { "cell_id": 5, "node_count": 136.0, "total_length": 14818.921875, "avg_degree": 3.2352941036224365, "poi_count": 1, "text_des": "تقع بنك مصر في القاهرة، مصر. نوع المنطقة: بنك. البيانات من :contentReference[oaicite:1]{index=1}.", "poi_categories": [ "Bank" ] }, "geometry": { "type": "Polygon", "coordinates": [ [ [ 31.243791034722559, 30.038207704163902 ], [ 31.243791034722559, 30.042712208668405 ], [ 31.239286530218056, 30.042712208668405 ], [ 31.239286530218056, 30.038207704163902 ], [ 31.243791034722559, 30.038207704163902 ] ] ] } }
]
}
