{
"type": "FeatureCollection",
"name": "grid_61e4ed86",
"crs": { "type": "name", "properties": { "name": "urn:ogc:def:crs:OGC:1.3:CRS84" } },
"features": [
{ "type": "Feature", "properties": { "cell_id": 0, "node_count": 0.0, "total_length": 0.0, "avg_degree": 0.0, "poi_count": 0, "text_des": "", "poi_categories": [ ] }, "geometry": { "type": "Polygon", "coordinates": [ [ [ 31.342720141203053, 30.070173223444655 ], [ 31.342720141203053, 30.074677727949158 ], [ 31.33821563669855, 30.074677727949158 ], [ 31.33821563669855, 30.070173223444655 ], [ 31.342720141203053, 30.070173223444655 ] ] ] } },
{ "type": "Feature", "properties": { "cell_id": 1, "node_count": 0.0, "total_length": 0.0, "avg_degree": 0.0, "poi_count": 2, "text_des": "تقع عيادات سيمويا الايطالية للتجميل SIMOE Italian Beauty Clinics في القاهرة، مصر. نوع المنطقة: عام. البيانات من OpenStreetMap. تقع البنك الأهلي المصري في القاهرة، مصر. نوع المنطقة: بنك. البيانات من :contentReference[oaicite:1]{index=1}.", "poi_categories": [ "Health", "Bank" ] }, "geometry": { "type": "Polygon", "coordinates": [ [ [ 31.342720141203053, 30.074677727949158 ], [ 31.342720141203053, 30.079182232453661 ], [ 31.33821563669855, 30.079182232453661 ], [ 31.33821563669855, 30.074677727949158 ], [ 31.342720141203053, 30.074677727949158 ] ] ] } },
{ "type": "Feature", "properties": { "cell_id": 2, "node_count": 0.0, "total_length": 0.0, "avg_degree": 0.0, "poi_count": 4, "text_des": "تقع بنك الاسكندرية في القاهرة، مصر. نوع المنطقة: بنك. البيانات من :contentReference[oaicite:1]{index=1}. تقع Banque MISR في القاهرة، مصر. نوع المنطقة: بنك. البيانات من :contentReference[oaicite:1]{index=1}. تقع هذه المنشأة في القاهرة، مصر. نوع المنطقة: مول تجاري (Mall). البيانات من OpenStreetMap. تقع هذه المنشأة في القاهرة، مصر. نوع المنطقة: مول تجاري (Mall). البيانات من OpenStreetMap.", "poi_categories": [ "Bank", "Mall" ] }, "geometry": { "type": "Polygon", "coordinates": [ [ [ 31.347224645707556, 30.070173223444655 ], [ 31.347224645707556, 30.074677727949158 ], [ 31.342720141203053, 30.074677727949158 ], [ 31.342720141203053, 30.070173223444655 ], [ 31.347224645707556, 30.070173223444655 ] ] ] } },
{ "type": "Feature", "properties": { "cell_id": 3, "node_count": 0.0, "total_length": 0.0, "avg_degree": 0.0, "poi_count": 1, "text_des": "تقع مستشفى عبدالقادر فهمي في القاهرة، مصر. نوع المنطقة: مستشفى. البيانات من OpenStreetMap.", "poi_categories": [ "Health" ] }, "geometry": { "type": "Polygon", "coordinates": [ [ [ 31.347224645707556, 30.074677727949158 ], [ 31.347224645707556, 30.079182232453661 ], [ 31.342720141203053, 30.079182232453661 ], [ 31.342720141203053, 30.074677727949158 ], [ 31.347224645707556, 30.074677727949158 ] ] ] } },
{ "type": "Feature", "properties": { "cell_id": 4, "node_count": 0.0, "total_length": 0.0, "avg_degree": 0.0, "poi_count": 0, "text_des": "", "poi_categories": [ ] }, "geometry": { "type": "Polygon", "coordinates": [ [ [ 31.351729150212062, 30.070173223444655 ], [ 31.351729150212062, 30.074677727949158 ], [ 31.347224645707559, 30.074677727949158 ], [ 31.347224645707559, 30.070173223444655 ], [ 31.351729150212062, 30.070173223444655 ] ] ] } },
{ "type": "Feature", "properties": { "cell_id": 5, "node_count": 0.0, "total_length": 0.0, "avg_degree": 0.0, "poi_count": 0, "text_des": "", "poi_categories": [ ] }, "geometry": { "type": "Polygon", "coordinates": [ [ [ 31.351729150212062, 30.074677727949158 ], [ 31.351729150212062, 30.079182232453661 ], [ 31.347224645707559, 30.079182232453661 ], [ 31.347224645707559, 30.074677727949158 ], [ 31.351729150212062, 30.074677727949158 ] ] ] } }
]
}
