{
"type": "FeatureCollection",
"name": "grid_dd7089da",
"crs": { "type": "name", "properties": { "name": "urn:ogc:def:crs:OGC:1.3:CRS84" } },
"features": [
{ "type": "Feature", "properties": { "cell_id": 0, "node_count": 0.0, "total_length": 0.0, "avg_degree": 0.0, "poi_count": 1, "text_des": "nan", "poi_categories": [ "Government" ] }, "geometry": { "type": "Polygon", "coordinates": [ [ [ 31.435183550176994, 30.01743362079452 ], [ 31.435183550176994, 30.021938125299023 ], [ 31.430679045672491, 30.021938125299023 ], [ 31.430679045672491, 30.01743362079452 ], [ 31.435183550176994, 30.01743362079452 ] ] ] } },
{ "type": "Feature", "properties": { "cell_id": 1, "node_count": 0.0, "total_length": 0.0, "avg_degree": 0.0, "poi_count": 0, "text_des": "", "poi_categories": [ ] }, "geometry": { "type": "Polygon", "coordinates": [ [ [ 31.435183550176994, 30.021938125299023 ], [ 31.435183550176994, 30.026442629803526 ], [ 31.430679045672491, 30.026442629803526 ], [ 31.430679045672491, 30.021938125299023 ], [ 31.435183550176994, 30.021938125299023 ] ] ] } },
{ "type": "Feature", "properties": { "cell_id": 2, "node_count": 0.0, "total_length": 0.0, "avg_degree": 0.0, "poi_count": 0, "text_des": "", "poi_categories": [ ] }, "geometry": { "type": "Polygon", "coordinates": [ [ [ 31.435183550176994, 30.02644262980353 ], [ 31.435183550176994, 30.030947134308033 ], [ 31.430679045672491, 30.030947134308033 ], [ 31.430679045672491, 30.02644262980353 ], [ 31.435183550176994, 30.02644262980353 ] ] ] } },
{ "type": "Feature", "properties": { "cell_id": 3, "node_count": 0.0, "total_length": 0.0, "avg_degree": 0.0, "poi_count": 0, "text_des": "", "poi_categories": [ ] }, "geometry": { "type": "Polygon", "coordinates": [ [ [ 31.435183550176994, 30.030947134308033 ], [ 31.435183550176994, 30.035451638812535 ], [ 31.430679045672491, 30.035451638812535 ], [ 31.430679045672491, 30.030947134308033 ], [ 31.435183550176994, 30.030947134308033 ] ] ] } },
{ "type": "Feature", "properties": { "cell_id": 4, "node_count": 0.0, "total_length": 0.0, "avg_degree": 0.0, "poi_count": 0, "text_des": "", "poi_categories": [ ] }, "geometry": { "type": "Polygon", "coordinates": [ [ [ 31.439688054681497, 30.01743362079452 ], [ 31.439688054681497, 30.021938125299023 ], [ 31.435183550176994, 30.021938125299023 ], [ 31.435183550176994, 30.01743362079452 ], [ 31.439688054681497, 30.01743362079452 ] ] ] } },
{ "type": "Feature", "properties": { "cell_id": 5, "node_count": 0.0, "total_length": 0.0, "avg_degree": 0.0, "poi_count": 0, "text_des": "", "poi_categories": [ ] }, "geometry": { "type": "Polygon", "coordinates": [ [ [ 31.439688054681497, 30.021938125299023 ], [ 31.439688054681497, 30.026442629803526 ], [ 31.435183550176994, 30.026442629803526 ], [ 31.435183550176994, 30.021938125299023 ], [ 31.439688054681497, 30.021938125299023 ] ] ] } },
{ "type": "Feature", "properties": { "cell_id": 6, "node_count": 0.0, "total_length": 0.0, "avg_degree": 0.0, "poi_count": 1, "text_des": "nan", "poi_categories": [ "Commercial" ] }, "geometry": { "type": "Polygon", "coordinates": [ [ [ 31.439688054681497, 30.02644262980353 ], [ 31.439688054681497, 30.030947134308033 ], [ 31.435183550176994, 30.030947134308033 ], [ 31.435183550176994, 30.02644262980353 ], [ 31.439688054681497, 30.02644262980353 ] ] ] } },
{ "type": "Feature", "properties": { "cell_id": 7, "node_count": 0.0, "total_length": 0.0, "avg_degree": 0.0, "poi_count": 0, "text_des": "", "poi_categories": [ ] }, "geometry": { "type": "Polygon", "coordinates": [ [ [ 31.439688054681497, 30.030947134308033 ], [ 31.439688054681497, 30.035451638812535 ], [ 31.435183550176994, 30.035451638812535 ], [ 31.435183550176994, 30.030947134308033 ], [ 31.439688054681497, 30.030947134308033 ] ] ] } },
{ "type": "Feature", "properties": { "cell_id": 8, "node_count": 0.0, "total_length": 0.0, "avg_degree": 0.0, "poi_count": 0, "text_des": "", "poi_categories": [ ] }, "geometry": { "type": "Polygon", "coordinates": [ [ [ 31.444192559186003, 30.01743362079452 ], [ 31.444192559186003, 30.021938125299023 ], [ 31.439688054681501, 30.021938125299023 ], [ 31.439688054681501, 30.01743362079452 ], [ 31.444192559186003, 30.01743362079452 ] ] ] } },
{ "type": "Feature", "properties": { "cell_id": 9, "node_count": 0.0, "total_length": 0.0, "avg_degree": 0.0, "poi_count": 1, "text_des": "nan", "poi_categories": [ "Commercial" ] }, "geometry": { "type": "Polygon", "coordinates": [ [ [ 31.444192559186003, 30.021938125299023 ], [ 31.444192559186003, 30.026442629803526 ], [ 31.439688054681501, 30.026442629803526 ], [ 31.439688054681501, 30.021938125299023 ], [ 31.444192559186003, 30.021938125299023 ] ] ] } },
{ "type": "Feature", "properties": { "cell_id": 10, "node_count": 0.0, "total_length": 0.0, "avg_degree": 0.0, "poi_count": 0, "text_des": "", "poi_categories": [ ] }, "geometry": { "type": "Polygon", "coordinates": [ [ [ 31.444192559186003, 30.02644262980353 ], [ 31.444192559186003, 30.030947134308033 ], [ 31.439688054681501, 30.030947134308033 ], [ 31.439688054681501, 30.02644262980353 ], [ 31.444192559186003, 30.02644262980353 ] ] ] } },
{ "type": "Feature", "properties": { "cell_id": 11, "node_count": 0.0, "total_length": 0.0, "avg_degree": 0.0, "poi_count": 0, "text_des": "", "poi_categories": [ ] }, "geometry": { "type": "Polygon", "coordinates": [ [ [ 31.444192559186003, 30.030947134308033 ], [ 31.444192559186003, 30.035451638812535 ], [ 31.439688054681501, 30.035451638812535 ], [ 31.439688054681501, 30.030947134308033 ], [ 31.444192559186003, 30.030947134308033 ] ] ] } },
{ "type": "Feature", "properties": { "cell_id": 12, "node_count": 0.0, "total_length": 0.0, "avg_degree": 0.0, "poi_count": 0, "text_des": "", "poi_categories": [ ] }, "geometry": { "type": "Polygon", "coordinates": [ [ [ 31.448697063690506, 30.01743362079452 ], [ 31.448697063690506, 30.021938125299023 ], [ 31.444192559186003, 30.021938125299023 ], [ 31.444192559186003, 30.01743362079452 ], [ 31.448697063690506, 30.01743362079452 ] ] ] } },
{ "type": "Feature", "properties": { "cell_id": 13, "node_count": 0.0, "total_length": 0.0, "avg_degree": 0.0, "poi_count": 0, "text_des": "", "poi_categories": [ ] }, "geometry": { "type": "Polygon", "coordinates": [ [ [ 31.448697063690506, 30.021938125299023 ], [ 31.448697063690506, 30.026442629803526 ], [ 31.444192559186003, 30.026442629803526 ], [ 31.444192559186003, 30.021938125299023 ], [ 31.448697063690506, 30.021938125299023 ] ] ] } },
{ "type": "Feature", "properties": { "cell_id": 14, "node_count": 0.0, "total_length": 0.0, "avg_degree": 0.0, "poi_count": 0, "text_des": "", "poi_categories": [ ] }, "geometry": { "type": "Polygon", "coordinates": [ [ [ 31.448697063690506, 30.02644262980353 ], [ 31.448697063690506, 30.030947134308033 ], [ 31.444192559186003, 30.030947134308033 ], [ 31.444192559186003, 30.02644262980353 ], [ 31.448697063690506, 30.02644262980353 ] ] ] } },
{ "type": "Feature", "properties": { "cell_id": 15, "node_count": 0.0, "total_length": 0.0, "avg_degree": 0.0, "poi_count": 1, "text_des": "nan", "poi_categories": [ "Commercial" ] }, "geometry": { "type": "Polygon", "coordinates": [ [ [ 31.448697063690506, 30.030947134308033 ], [ 31.448697063690506, 30.035451638812535 ], [ 31.444192559186003, 30.035451638812535 ], [ 31.444192559186003, 30.030947134308033 ], [ 31.448697063690506, 30.030947134308033 ] ] ] } },
{ "type": "Feature", "properties": { "cell_id": 16, "node_count": 0.0, "total_length": 0.0, "avg_degree": 0.0, "poi_count": 1, "text_des": "nan", "poi_categories": [ "Commercial" ] }, "geometry": { "type": "Polygon", "coordinates": [ [ [ 31.453201568195013, 30.01743362079452 ], [ 31.453201568195013, 30.021938125299023 ], [ 31.44869706369051, 30.021938125299023 ], [ 31.44869706369051, 30.01743362079452 ], [ 31.453201568195013, 30.01743362079452 ] ] ] } },
{ "type": "Feature", "properties": { "cell_id": 17, "node_count": 0.0, "total_length": 0.0, "avg_degree": 0.0, "poi_count": 0, "text_des": "", "poi_categories": [ ] }, "geometry": { "type": "Polygon", "coordinates": [ [ [ 31.453201568195013, 30.021938125299023 ], [ 31.453201568195013, 30.026442629803526 ], [ 31.44869706369051, 30.026442629803526 ], [ 31.44869706369051, 30.021938125299023 ], [ 31.453201568195013, 30.021938125299023 ] ] ] } },
{ "type": "Feature", "properties": { "cell_id": 18, "node_count": 0.0, "total_length": 0.0, "avg_degree": 0.0, "poi_count": 0, "text_des": "", "poi_categories": [ ] }, "geometry": { "type": "Polygon", "coordinates": [ [ [ 31.453201568195013, 30.02644262980353 ], [ 31.453201568195013, 30.030947134308033 ], [ 31.44869706369051, 30.030947134308033 ], [ 31.44869706369051, 30.02644262980353 ], [ 31.453201568195013, 30.02644262980353 ] ] ] } },
{ "type": "Feature", "properties": { "cell_id": 19, "node_count": 0.0, "total_length": 0.0, "avg_degree": 0.0, "poi_count": 0, "text_des": "", "poi_categories": [ ] }, "geometry": { "type": "Polygon", "coordinates": [ [ [ 31.453201568195013, 30.030947134308033 ], [ 31.453201568195013, 30.035451638812535 ], [ 31.44869706369051, 30.035451638812535 ], [ 31.44869706369051, 30.030947134308033 ], [ 31.453201568195013, 30.030947134308033 ] ] ] } },
{ "type": "Feature", "properties": { "cell_id": 20, "node_count": 0.0, "total_length": 0.0, "avg_degree": 0.0, "poi_count": 0, "text_des": "", "poi_categories": [ ] }, "geometry": { "type": "Polygon", "coordinates": [ [ [ 31.457706072699516, 30.01743362079452 ], [ 31.457706072699516, 30.021938125299023 ], [ 31.453201568195013, 30.021938125299023 ], [ 31.453201568195013, 30.01743362079452 ], [ 31.457706072699516, 30.01743362079452 ] ] ] } },
{ "type": "Feature", "properties": { "cell_id": 21, "node_count": 0.0, "total_length": 0.0, "avg_degree": 0.0, "poi_count": 0, "text_des": "", "poi_categories": [ ] }, "geometry": { "type": "Polygon", "coordinates": [ [ [ 31.457706072699516, 30.021938125299023 ], [ 31.457706072699516, 30.026442629803526 ], [ 31.453201568195013, 30.026442629803526 ], [ 31.453201568195013, 30.021938125299023 ], [ 31.457706072699516, 30.021938125299023 ] ] ] } },
{ "type": "Feature", "properties": { "cell_id": 22, "node_count": 0.0, "total_length": 0.0, "avg_degree": 0.0, "poi_count": 0, "text_des": "", "poi_categories": [ ] }, "geometry": { "type": "Polygon", "coordinates": [ [ [ 31.457706072699516, 30.02644262980353 ], [ 31.457706072699516, 30.030947134308033 ], [ 31.453201568195013, 30.030947134308033 ], [ 31.453201568195013, 30.02644262980353 ], [ 31.457706072699516, 30.02644262980353 ] ] ] } },
{ "type": "Feature", "properties": { "cell_id": 23, "node_count": 0.0, "total_length": 0.0, "avg_degree": 0.0, "poi_count": 0, "text_des": "", "poi_categories": [ ] }, "geometry": { "type": "Polygon", "coordinates": [ [ [ 31.457706072699516, 30.030947134308033 ], [ 31.457706072699516, 30.035451638812535 ], [ 31.453201568195013, 30.035451638812535 ], [ 31.453201568195013, 30.030947134308033 ], [ 31.457706072699516, 30.030947134308033 ] ] ] } },
{ "type": "Feature", "properties": { "cell_id": 24, "node_count": 0.0, "total_length": 0.0, "avg_degree": 0.0, "poi_count": 0, "text_des": "", "poi_categories": [ ] }, "geometry": { "type": "Polygon", "coordinates": [ [ [ 31.462210577204022, 30.01743362079452 ], [ 31.462210577204022, 30.021938125299023 ], [ 31.457706072699519, 30.021938125299023 ], [ 31.457706072699519, 30.01743362079452 ], [ 31.462210577204022, 30.01743362079452 ] ] ] } },
{ "type": "Feature", "properties": { "cell_id": 25, "node_count": 0.0, "total_length": 0.0, "avg_degree": 0.0, "poi_count": 0, "text_des": "", "poi_categories": [ ] }, "geometry": { "type": "Polygon", "coordinates": [ [ [ 31.462210577204022, 30.021938125299023 ], [ 31.462210577204022, 30.026442629803526 ], [ 31.457706072699519, 30.026442629803526 ], [ 31.457706072699519, 30.021938125299023 ], [ 31.462210577204022, 30.021938125299023 ] ] ] } },
{ "type": "Feature", "properties": { "cell_id": 26, "node_count": 0.0, "total_length": 0.0, "avg_degree": 0.0, "poi_count": 0, "text_des": "", "poi_categories": [ ] }, "geometry": { "type": "Polygon", "coordinates": [ [ [ 31.462210577204022, 30.02644262980353 ], [ 31.462210577204022, 30.030947134308033 ], [ 31.457706072699519, 30.030947134308033 ], [ 31.457706072699519, 30.02644262980353 ], [ 31.462210577204022, 30.02644262980353 ] ] ] } },
{ "type": "Feature", "properties": { "cell_id": 27, "node_count": 0.0, "total_length": 0.0, "avg_degree": 0.0, "poi_count": 0, "text_des": "", "poi_categories": [ ] }, "geometry": { "type": "Polygon", "coordinates": [ [ [ 31.462210577204022, 30.030947134308033 ], [ 31.462210577204022, 30.035451638812535 ], [ 31.457706072699519, 30.035451638812535 ], [ 31.457706072699519, 30.030947134308033 ], [ 31.462210577204022, 30.030947134308033 ] ] ] } },
{ "type": "Feature", "properties": { "cell_id": 28, "node_count": 0.0, "total_length": 0.0, "avg_degree": 0.0, "poi_count": 0, "text_des": "", "poi_categories": [ ] }, "geometry": { "type": "Polygon", "coordinates": [ [ [ 31.466715081708525, 30.01743362079452 ], [ 31.466715081708525, 30.021938125299023 ], [ 31.462210577204022, 30.021938125299023 ], [ 31.462210577204022, 30.01743362079452 ], [ 31.466715081708525, 30.01743362079452 ] ] ] } },
{ "type": "Feature", "properties": { "cell_id": 29, "node_count": 0.0, "total_length": 0.0, "avg_degree": 0.0, "poi_count": 0, "text_des": "", "poi_categories": [ ] }, "geometry": { "type": "Polygon", "coordinates": [ [ [ 31.466715081708525, 30.021938125299023 ], [ 31.466715081708525, 30.026442629803526 ], [ 31.462210577204022, 30.026442629803526 ], [ 31.462210577204022, 30.021938125299023 ], [ 31.466715081708525, 30.021938125299023 ] ] ] } },
{ "type": "Feature", "properties": { "cell_id": 30, "node_count": 0.0, "total_length": 0.0, "avg_degree": 0.0, "poi_count": 0, "text_des": "", "poi_categories": [ ] }, "geometry": { "type": "Polygon", "coordinates": [ [ [ 31.466715081708525, 30.02644262980353 ], [ 31.466715081708525, 30.030947134308033 ], [ 31.462210577204022, 30.030947134308033 ], [ 31.462210577204022, 30.02644262980353 ], [ 31.466715081708525, 30.02644262980353 ] ] ] } },
{ "type": "Feature", "properties": { "cell_id": 31, "node_count": 0.0, "total_length": 0.0, "avg_degree": 0.0, "poi_count": 0, "text_des": "", "poi_categories": [ ] }, "geometry": { "type": "Polygon", "coordinates": [ [ [ 31.466715081708525, 30.030947134308033 ], [ 31.466715081708525, 30.035451638812535 ], [ 31.462210577204022, 30.035451638812535 ], [ 31.462210577204022, 30.030947134308033 ], [ 31.466715081708525, 30.030947134308033 ] ] ] } },
{ "type": "Feature", "properties": { "cell_id": 32, "node_count": 0.0, "total_length": 0.0, "avg_degree": 0.0, "poi_count": 0, "text_des": "", "poi_categories": [ ] }, "geometry": { "type": "Polygon", "coordinates": [ [ [ 31.471219586213032, 30.01743362079452 ], [ 31.471219586213032, 30.021938125299023 ], [ 31.466715081708529, 30.021938125299023 ], [ 31.466715081708529, 30.01743362079452 ], [ 31.471219586213032, 30.01743362079452 ] ] ] } },
{ "type": "Feature", "properties": { "cell_id": 33, "node_count": 0.0, "total_length": 0.0, "avg_degree": 0.0, "poi_count": 0, "text_des": "", "poi_categories": [ ] }, "geometry": { "type": "Polygon", "coordinates": [ [ [ 31.471219586213032, 30.021938125299023 ], [ 31.471219586213032, 30.026442629803526 ], [ 31.466715081708529, 30.026442629803526 ], [ 31.466715081708529, 30.021938125299023 ], [ 31.471219586213032, 30.021938125299023 ] ] ] } },
{ "type": "Feature", "properties": { "cell_id": 34, "node_count": 0.0, "total_length": 0.0, "avg_degree": 0.0, "poi_count": 0, "text_des": "", "poi_categories": [ ] }, "geometry": { "type": "Polygon", "coordinates": [ [ [ 31.471219586213032, 30.02644262980353 ], [ 31.471219586213032, 30.030947134308033 ], [ 31.466715081708529, 30.030947134308033 ], [ 31.466715081708529, 30.02644262980353 ], [ 31.471219586213032, 30.02644262980353 ] ] ] } },
{ "type": "Feature", "properties": { "cell_id": 35, "node_count": 0.0, "total_length": 0.0, "avg_degree": 0.0, "poi_count": 0, "text_des": "", "poi_categories": [ ] }, "geometry": { "type": "Polygon", "coordinates": [ [ [ 31.471219586213032, 30.030947134308033 ], [ 31.471219586213032, 30.035451638812535 ], [ 31.466715081708529, 30.035451638812535 ], [ 31.466715081708529, 30.030947134308033 ], [ 31.471219586213032, 30.030947134308033 ] ] ] } },
{ "type": "Feature", "properties": { "cell_id": 36, "node_count": 0.0, "total_length": 0.0, "avg_degree": 0.0, "poi_count": 0, "text_des": "", "poi_categories": [ ] }, "geometry": { "type": "Polygon", "coordinates": [ [ [ 31.475724090717534, 30.01743362079452 ], [ 31.475724090717534, 30.021938125299023 ], [ 31.471219586213032, 30.021938125299023 ], [ 31.471219586213032, 30.01743362079452 ], [ 31.475724090717534, 30.01743362079452 ] ] ] } },
{ "type": "Feature", "properties": { "cell_id": 37, "node_count": 0.0, "total_length": 0.0, "avg_degree": 0.0, "poi_count": 0, "text_des": "", "poi_categories": [ ] }, "geometry": { "type": "Polygon", "coordinates": [ [ [ 31.475724090717534, 30.021938125299023 ], [ 31.475724090717534, 30.026442629803526 ], [ 31.471219586213032, 30.026442629803526 ], [ 31.471219586213032, 30.021938125299023 ], [ 31.475724090717534, 30.021938125299023 ] ] ] } },
{ "type": "Feature", "properties": { "cell_id": 38, "node_count": 0.0, "total_length": 0.0, "avg_degree": 0.0, "poi_count": 1, "text_des": "تقع هذه المنشأة في القاهرة، مصر. نوع المنطقة: مول تجاري (Mall). البيانات من OpenStreetMap.", "poi_categories": [ "Mall" ] }, "geometry": { "type": "Polygon", "coordinates": [ [ [ 31.475724090717534, 30.02644262980353 ], [ 31.475724090717534, 30.030947134308033 ], [ 31.471219586213032, 30.030947134308033 ], [ 31.471219586213032, 30.02644262980353 ], [ 31.475724090717534, 30.02644262980353 ] ] ] } },
{ "type": "Feature", "properties": { "cell_id": 39, "node_count": 0.0, "total_length": 0.0, "avg_degree": 0.0, "poi_count": 0, "text_des": "", "poi_categories": [ ] }, "geometry": { "type": "Polygon", "coordinates": [ [ [ 31.475724090717534, 30.030947134308033 ], [ 31.475724090717534, 30.035451638812535 ], [ 31.471219586213032, 30.035451638812535 ], [ 31.471219586213032, 30.030947134308033 ], [ 31.475724090717534, 30.030947134308033 ] ] ] } }
]
}
