{
"type": "FeatureCollection",
"name": "grid_b95b520c",
"crs": { "type": "name", "properties": { "name": "urn:ogc:def:crs:OGC:1.3:CRS84" } },
"features": [
{ "type": "Feature", "properties": { "cell_id": 0, "poi_count": 0, "text_des": "", "poi_categories": [ ] }, "geometry": { "type": "Polygon", "coordinates": [ [ [ 31.234504504504503, 30.04 ], [ 31.234504504504503, 30.044504504504502 ], [ 31.23, 30.044504504504502 ], [ 31.23, 30.04 ], [ 31.234504504504503, 30.04 ] ] ] } },
{ "type": "Feature", "properties": { "cell_id": 1, "poi_count": 0, "text_des": "", "poi_categories": [ ] }, "geometry": { "type": "Polygon", "coordinates": [ [ [ 31.234504504504503, 30.044504504504502 ], [ 31.234504504504503, 30.049009009009005 ], [ 31.23, 30.049009009009005 ], [ 31.23, 30.044504504504502 ], [ 31.234504504504503, 30.044504504504502 ] ] ] } },
{ "type": "Feature", "properties": { "cell_id": 2, "poi_count": 0, "text_des": "", "poi_categories": [ ] }, "geometry": { "type": "Polygon", "coordinates": [ [ [ 31.234504504504503, 30.049009009009009 ], [ 31.234504504504503, 30.053513513513511 ], [ 31.23, 30.053513513513511 ], [ 31.23, 30.049009009009009 ], [ 31.234504504504503, 30.049009009009009 ] ] ] } },
{ "type": "Feature", "properties": { "cell_id": 3, "poi_count": 2, "text_des": "تقع Banque Misr في القاهرة، مصر. نوع المنطقة: بنك. البيانات من :contentReference[oaicite:1]{index=1}. تقع The United Bank في القاهرة، مصر. نوع المنطقة: بنك. البيانات من :contentReference[oaicite:1]{index=1}.", "poi_categories": [ "Bank" ] }, "geometry": { "type": "Polygon", "coordinates": [ [ [ 31.239009009009006, 30.04 ], [ 31.239009009009006, 30.044504504504502 ], [ 31.234504504504503, 30.044504504504502 ], [ 31.234504504504503, 30.04 ], [ 31.239009009009006, 30.04 ] ] ] } },
{ "type": "Feature", "properties": { "cell_id": 4, "poi_count": 3, "text_des": "تقع بنك ابو ظبى في القاهرة، مصر. نوع المنطقة: بنك. البيانات من :contentReference[oaicite:1]{index=1}. تقع كريدي اجريكول مصر في القاهرة، مصر. نوع المنطقة: بنك. البيانات من :contentReference[oaicite:1]{index=1}. تقع Ahli United Bank في القاهرة، مصر. نوع المنطقة: بنك. البيانات من :contentReference[oaicite:1]{index=1}.", "poi_categories": [ "Bank" ] }, "geometry": { "type": "Polygon", "coordinates": [ [ [ 31.239009009009006, 30.044504504504502 ], [ 31.239009009009006, 30.049009009009005 ], [ 31.234504504504503, 30.049009009009005 ], [ 31.234504504504503, 30.044504504504502 ], [ 31.239009009009006, 30.044504504504502 ] ] ] } },
{ "type": "Feature", "properties": { "cell_id": 5, "poi_count": 1, "text_des": "تقع مستشفى هيئة النقل العام في القاهرة، مصر. نوع المنطقة: مستشفى. البيانات من OpenStreetMap.", "poi_categories": [ "Health" ] }, "geometry": { "type": "Polygon", "coordinates": [ [ [ 31.239009009009006, 30.049009009009009 ], [ 31.239009009009006, 30.053513513513511 ], [ 31.234504504504503, 30.053513513513511 ], [ 31.234504504504503, 30.049009009009009 ], [ 31.239009009009006, 30.049009009009009 ] ] ] } },
{ "type": "Feature", "properties": { "cell_id": 6, "poi_count": 1, "text_des": "تقع مكتب صحة - عابدين في القاهرة، مصر. نوع المنطقة: عام. البيانات من OpenStreetMap.", "poi_categories": [ "Health" ] }, "geometry": { "type": "Polygon", "coordinates": [ [ [ 31.243513513513513, 30.04 ], [ 31.243513513513513, 30.044504504504502 ], [ 31.23900900900901, 30.044504504504502 ], [ 31.23900900900901, 30.04 ], [ 31.243513513513513, 30.04 ] ] ] } },
{ "type": "Feature", "properties": { "cell_id": 7, "poi_count": 3, "text_des": "تقع العربي الإفريقي في القاهرة، مصر. نوع المنطقة: بنك. البيانات من :contentReference[oaicite:1]{index=1}. تقع البنك العربي الإفريقي في القاهرة، مصر. نوع المنطقة: بنك. البيانات من :contentReference[oaicite:1]{index=1}. تقع هذه المنشأة في القاهرة، مصر. نوع المنطقة: مول تجاري (Mall). البيانات من OpenStreetMap.", "poi_categories": [ "Bank", "Mall" ] }, "geometry": { "type": "Polygon", "coordinates": [ [ [ 31.243513513513513, 30.044504504504502 ], [ 31.243513513513513, 30.049009009009005 ], [ 31.23900900900901, 30.049009009009005 ], [ 31.23900900900901, 30.044504504504502 ], [ 31.243513513513513, 30.044504504504502 ] ] ] } },
{ "type": "Feature", "properties": { "cell_id": 8, "poi_count": 1, "text_des": "تقع Egbank في القاهرة، مصر. نوع المنطقة: بنك. البيانات من :contentReference[oaicite:1]{index=1}.", "poi_categories": [ "Bank" ] }, "geometry": { "type": "Polygon", "coordinates": [ [ [ 31.243513513513513, 30.049009009009009 ], [ 31.243513513513513, 30.053513513513511 ], [ 31.23900900900901, 30.053513513513511 ], [ 31.23900900900901, 30.049009009009009 ], [ 31.243513513513513, 30.049009009009009 ] ] ] } }
]
}
