{
"type": "FeatureCollection",
"name": "grid_bb512939",
"crs": { "type": "name", "properties": { "name": "urn:ogc:def:crs:OGC:1.3:CRS84" } },
"features": [
{ "type": "Feature", "properties": { "cell_id": 0 }, "geometry": { "type": "Polygon", "coordinates": [ [ [ 31.204504504504502, 30.0 ], [ 31.204504504504502, 30.004504504504503 ], [ 31.2, 30.004504504504503 ], [ 31.2, 30.0 ], [ 31.204504504504502, 30.0 ] ] ] } },
{ "type": "Feature", "properties": { "cell_id": 1 }, "geometry": { "type": "Polygon", "coordinates": [ [ [ 31.204504504504502, 30.004504504504503 ], [ 31.204504504504502, 30.009009009009006 ], [ 31.2, 30.009009009009006 ], [ 31.2, 30.004504504504503 ], [ 31.204504504504502, 30.004504504504503 ] ] ] } },
{ "type": "Feature", "properties": { "cell_id": 2 }, "geometry": { "type": "Polygon", "coordinates": [ [ [ 31.204504504504502, 30.009009009009009 ], [ 31.204504504504502, 30.013513513513512 ], [ 31.2, 30.013513513513512 ], [ 31.2, 30.009009009009009 ], [ 31.204504504504502, 30.009009009009009 ] ] ] } },
{ "type": "Feature", "properties": { "cell_id": 3 }, "geometry": { "type": "Polygon", "coordinates": [ [ [ 31.204504504504502, 30.013513513513512 ], [ 31.204504504504502, 30.018018018018015 ], [ 31.2, 30.018018018018015 ], [ 31.2, 30.013513513513512 ], [ 31.204504504504502, 30.013513513513512 ] ] ] } },
{ "type": "Feature", "properties": { "cell_id": 4 }, "geometry": { "type": "Polygon", "coordinates": [ [ [ 31.204504504504502, 30.018018018018019 ], [ 31.204504504504502, 30.022522522522522 ], [ 31.2, 30.022522522522522 ], [ 31.2, 30.018018018018019 ], [ 31.204504504504502, 30.018018018018019 ] ] ] } },
{ "type": "Feature", "properties": { "cell_id": 5 }, "geometry": { "type": "Polygon", "coordinates": [ [ [ 31.209009009009005, 30.0 ], [ 31.209009009009005, 30.004504504504503 ], [ 31.204504504504502, 30.004504504504503 ], [ 31.204504504504502, 30.0 ], [ 31.209009009009005, 30.0 ] ] ] } },
{ "type": "Feature", "properties": { "cell_id": 6 }, "geometry": { "type": "Polygon", "coordinates": [ [ [ 31.209009009009005, 30.004504504504503 ], [ 31.209009009009005, 30.009009009009006 ], [ 31.204504504504502, 30.009009009009006 ], [ 31.204504504504502, 30.004504504504503 ], [ 31.209009009009005, 30.004504504504503 ] ] ] } },
{ "type": "Feature", "properties": { "cell_id": 7 }, "geometry": { "type": "Polygon", "coordinates": [ [ [ 31.209009009009005, 30.009009009009009 ], [ 31.209009009009005, 30.013513513513512 ], [ 31.204504504504502, 30.013513513513512 ], [ 31.204504504504502, 30.009009009009009 ], [ 31.209009009009005, 30.009009009009009 ] ] ] } },
{ "type": "Feature", "properties": { "cell_id": 8 }, "geometry": { "type": "Polygon", "coordinates": [ [ [ 31.209009009009005, 30.013513513513512 ], [ 31.209009009009005, 30.018018018018015 ], [ 31.204504504504502, 30.018018018018015 ], [ 31.204504504504502, 30.013513513513512 ], [ 31.209009009009005, 30.013513513513512 ] ] ] } },
{ "type": "Feature", "properties": { "cell_id": 9 }, "geometry": { "type": "Polygon", "coordinates": [ [ [ 31.209009009009005, 30.018018018018019 ], [ 31.209009009009005, 30.022522522522522 ], [ 31.204504504504502, 30.022522522522522 ], [ 31.204504504504502, 30.018018018018019 ], [ 31.209009009009005, 30.018018018018019 ] ] ] } },
{ "type": "Feature", "properties": { "cell_id": 10 }, "geometry": { "type": "Polygon", "coordinates": [ [ [ 31.213513513513512, 30.0 ], [ 31.213513513513512, 30.004504504504503 ], [ 31.209009009009009, 30.004504504504503 ], [ 31.209009009009009, 30.0 ], [ 31.213513513513512, 30.0 ] ] ] } },
{ "type": "Feature", "properties": { "cell_id": 11 }, "geometry": { "type": "Polygon", "coordinates": [ [ [ 31.213513513513512, 30.004504504504503 ], [ 31.213513513513512, 30.009009009009006 ], [ 31.209009009009009, 30.009009009009006 ], [ 31.209009009009009, 30.004504504504503 ], [ 31.213513513513512, 30.004504504504503 ] ] ] } },
{ "type": "Feature", "properties": { "cell_id": 12 }, "geometry": { "type": "Polygon", "coordinates": [ [ [ 31.213513513513512, 30.009009009009009 ], [ 31.213513513513512, 30.013513513513512 ], [ 31.209009009009009, 30.013513513513512 ], [ 31.209009009009009, 30.009009009009009 ], [ 31.213513513513512, 30.009009009009009 ] ] ] } },
{ "type": "Feature", "properties": { "cell_id": 13 }, "geometry": { "type": "Polygon", "coordinates": [ [ [ 31.213513513513512, 30.013513513513512 ], [ 31.213513513513512, 30.018018018018015 ], [ 31.209009009009009, 30.018018018018015 ], [ 31.209009009009009, 30.013513513513512 ], [ 31.213513513513512, 30.013513513513512 ] ] ] } },
{ "type": "Feature", "properties": { "cell_id": 14 }, "geometry": { "type": "Polygon", "coordinates": [ [ [ 31.213513513513512, 30.018018018018019 ], [ 31.213513513513512, 30.022522522522522 ], [ 31.209009009009009, 30.022522522522522 ], [ 31.209009009009009, 30.018018018018019 ], [ 31.213513513513512, 30.018018018018019 ] ] ] } },
{ "type": "Feature", "properties": { "cell_id": 15 }, "geometry": { "type": "Polygon", "coordinates": [ [ [ 31.218018018018014, 30.0 ], [ 31.218018018018014, 30.004504504504503 ], [ 31.213513513513512, 30.004504504504503 ], [ 31.213513513513512, 30.0 ], [ 31.218018018018014, 30.0 ] ] ] } },
{ "type": "Feature", "properties": { "cell_id": 16 }, "geometry": { "type": "Polygon", "coordinates": [ [ [ 31.218018018018014, 30.004504504504503 ], [ 31.218018018018014, 30.009009009009006 ], [ 31.213513513513512, 30.009009009009006 ], [ 31.213513513513512, 30.004504504504503 ], [ 31.218018018018014, 30.004504504504503 ] ] ] } },
{ "type": "Feature", "properties": { "cell_id": 17 }, "geometry": { "type": "Polygon", "coordinates": [ [ [ 31.218018018018014, 30.009009009009009 ], [ 31.218018018018014, 30.013513513513512 ], [ 31.213513513513512, 30.013513513513512 ], [ 31.213513513513512, 30.009009009009009 ], [ 31.218018018018014, 30.009009009009009 ] ] ] } },
{ "type": "Feature", "properties": { "cell_id": 18 }, "geometry": { "type": "Polygon", "coordinates": [ [ [ 31.218018018018014, 30.013513513513512 ], [ 31.218018018018014, 30.018018018018015 ], [ 31.213513513513512, 30.018018018018015 ], [ 31.213513513513512, 30.013513513513512 ], [ 31.218018018018014, 30.013513513513512 ] ] ] } },
{ "type": "Feature", "properties": { "cell_id": 19 }, "geometry": { "type": "Polygon", "coordinates": [ [ [ 31.218018018018014, 30.018018018018019 ], [ 31.218018018018014, 30.022522522522522 ], [ 31.213513513513512, 30.022522522522522 ], [ 31.213513513513512, 30.018018018018019 ], [ 31.218018018018014, 30.018018018018019 ] ] ] } },
{ "type": "Feature", "properties": { "cell_id": 20 }, "geometry": { "type": "Polygon", "coordinates": [ [ [ 31.222522522522521, 30.0 ], [ 31.222522522522521, 30.004504504504503 ], [ 31.218018018018018, 30.004504504504503 ], [ 31.218018018018018, 30.0 ], [ 31.222522522522521, 30.0 ] ] ] } },
{ "type": "Feature", "properties": { "cell_id": 21 }, "geometry": { "type": "Polygon", "coordinates": [ [ [ 31.222522522522521, 30.004504504504503 ], [ 31.222522522522521, 30.009009009009006 ], [ 31.218018018018018, 30.009009009009006 ], [ 31.218018018018018, 30.004504504504503 ], [ 31.222522522522521, 30.004504504504503 ] ] ] } },
{ "type": "Feature", "properties": { "cell_id": 22 }, "geometry": { "type": "Polygon", "coordinates": [ [ [ 31.222522522522521, 30.009009009009009 ], [ 31.222522522522521, 30.013513513513512 ], [ 31.218018018018018, 30.013513513513512 ], [ 31.218018018018018, 30.009009009009009 ], [ 31.222522522522521, 30.009009009009009 ] ] ] } },
{ "type": "Feature", "properties": { "cell_id": 23 }, "geometry": { "type": "Polygon", "coordinates": [ [ [ 31.222522522522521, 30.013513513513512 ], [ 31.222522522522521, 30.018018018018015 ], [ 31.218018018018018, 30.018018018018015 ], [ 31.218018018018018, 30.013513513513512 ], [ 31.222522522522521, 30.013513513513512 ] ] ] } },
{ "type": "Feature", "properties": { "cell_id": 24 }, "geometry": { "type": "Polygon", "coordinates": [ [ [ 31.222522522522521, 30.018018018018019 ], [ 31.222522522522521, 30.022522522522522 ], [ 31.218018018018018, 30.022522522522522 ], [ 31.218018018018018, 30.018018018018019 ], [ 31.222522522522521, 30.018018018018019 ] ] ] } }
]
}
