{
"type": "FeatureCollection",
"name": "grid_2d95b723",
"crs": { "type": "name", "properties": { "name": "urn:ogc:def:crs:OGC:1.3:CRS84" } },
"features": [
{ "type": "Feature", "properties": { "cell_id": 0, "node_count": 31.0, "total_length": 7194.18212890625, "avg_degree": 2.9354839324951172, "poi_count": 3, "text_des": "", "poi_categories": [ "Commercial", "Government" ] }, "geometry": { "type": "Polygon", "coordinates": [ [ [ 31.235026521653438, 30.039883395495497 ], [ 31.235026521653438, 30.0443879 ], [ 31.230522017148935, 30.0443879 ], [ 31.230522017148935, 30.039883395495497 ], [ 31.235026521653438, 30.039883395495497 ] ] ] } },
{ "type": "Feature", "properties": { "cell_id": 1, "node_count": 28.0, "total_length": 5909.40185546875, "avg_degree": 3.0, "poi_count": 1, "text_des": "", "poi_categories": [ "Government" ] }, "geometry": { "type": "Polygon", "coordinates": [ [ [ 31.235026521653438, 30.0443879 ], [ 31.235026521653438, 30.048892404504503 ], [ 31.230522017148935, 30.048892404504503 ], [ 31.230522017148935, 30.0443879 ], [ 31.235026521653438, 30.0443879 ] ] ] } },
{ "type": "Feature", "properties": { "cell_id": 2, "node_count": 25.0, "total_length": 5279.314453125, "avg_degree": 3.0799999237060547, "poi_count": 3, "text_des": "تقع Banque Misr في القاهرة، مصر. نوع المنطقة: بنك. البيانات من :contentReference[oaicite:1]{index=1}. تقع The United Bank في القاهرة، مصر. نوع المنطقة: بنك. البيانات من :contentReference[oaicite:1]{index=1}.", "poi_categories": [ "Bank", "Government" ] }, "geometry": { "type": "Polygon", "coordinates": [ [ [ 31.239531026157941, 30.039883395495497 ], [ 31.239531026157941, 30.0443879 ], [ 31.235026521653438, 30.0443879 ], [ 31.235026521653438, 30.039883395495497 ], [ 31.239531026157941, 30.039883395495497 ] ] ] } },
{ "type": "Feature", "properties": { "cell_id": 3, "node_count": 53.0, "total_length": 6674.201171875, "avg_degree": 2.8867924213409424, "poi_count": 7, "text_des": "تقع بنك ابو ظبى في القاهرة، مصر. نوع المنطقة: بنك. البيانات من :contentReference[oaicite:1]{index=1}. تقع كريدي اجريكول مصر في القاهرة، مصر. نوع المنطقة: بنك. البيانات من :contentReference[oaicite:1]{index=1}. تقع Ahli United Bank في القاهرة، مصر. نوع المنطقة: بنك. البيانات من :contentReference[oaicite:1]{index=1}. تقع هذه المنشأة في القاهرة، مصر. نوع المنطقة: مول تجاري (Mall). البيانات من OpenStreetMap.", "poi_categories": [ "Bank", "Mall", "Commercial", "Government" ] }, "geometry": { "type": "Polygon", "coordinates": [ [ [ 31.239531026157941, 30.0443879 ], [ 31.239531026157941, 30.048892404504503 ], [ 31.235026521653438, 30.048892404504503 ], [ 31.235026521653438, 30.0443879 ], [ 31.239531026157941, 30.0443879 ] ] ] } },
{ "type": "Feature", "properties": { "cell_id": 4, "node_count": 160.0, "total_length": 14555.2890625, "avg_degree": 2.9375, "poi_count": 2, "text_des": "تقع مكتب صحة - عابدين في القاهرة، مصر. نوع المنطقة: عام. البيانات من OpenStreetMap.", "poi_categories": [ "Health", "Government" ] }, "geometry": { "type": "Polygon", "coordinates": [ [ [ 31.244035530662448, 30.039883395495497 ], [ 31.244035530662448, 30.0443879 ], [ 31.239531026157945, 30.0443879 ], [ 31.239531026157945, 30.039883395495497 ], [ 31.244035530662448, 30.039883395495497 ] ] ] } },
{ "type": "Feature", "properties": { "cell_id": 5, "node_count": 64.0, "total_length": 8051.912109375, "avg_degree": 2.90625, "poi_count": 2, "text_des": "تقع العربي الإفريقي في القاهرة، مصر. نوع المنطقة: بنك. البيانات من :contentReference[oaicite:1]{index=1}. تقع البنك العربي الإفريقي في القاهرة، مصر. نوع المنطقة: بنك. البيانات من :contentReference[oaicite:1]{index=1}.", "poi_categories": [ "Bank" ] }, "geometry": { "type": "Polygon", "coordinates": [ [ [ 31.244035530662448, 30.0443879 ], [ 31.244035530662448, 30.048892404504503 ], [ 31.239531026157945, 30.048892404504503 ], [ 31.239531026157945, 30.0443879 ], [ 31.244035530662448, 30.0443879 ] ] ] } }
]
}
