{
"type": "FeatureCollection",
"name": "grid_0f20c839",
"crs": { "type": "name", "properties": { "name": "urn:ogc:def:crs:OGC:1.3:CRS84" } },
"features": [
{ "type": "Feature", "properties": { "cell_id": 0, "poi_count": 0, "text_des": "", "poi_categories": [ ] }, "geometry": { "type": "Polygon", "coordinates": [ [ [ 31.204504504504502, 30.0 ], [ 31.204504504504502, 30.004504504504503 ], [ 31.2, 30.004504504504503 ], [ 31.2, 30.0 ], [ 31.204504504504502, 30.0 ] ] ] } },
{ "type": "Feature", "properties": { "cell_id": 1, "poi_count": 0, "text_des": "", "poi_categories": [ ] }, "geometry": { "type": "Polygon", "coordinates": [ [ [ 31.204504504504502, 30.004504504504503 ], [ 31.204504504504502, 30.009009009009006 ], [ 31.2, 30.009009009009006 ], [ 31.2, 30.004504504504503 ], [ 31.204504504504502, 30.004504504504503 ] ] ] } },
{ "type": "Feature", "properties": { "cell_id": 2, "poi_count": 2, "text_des": "تقع عيادة الدكتور احمد محمود عبدالحفيظ إستشاري صدر في القاهرة، مصر. نوع المنطقة: عام. البيانات من OpenStreetMap. تقع مدرسة الشهيد هشام شتا الاعداديه بنات في القاهرة، مصر. نوع المنطقة: مدرسة. البيانات من OpenStreetMap.", "poi_categories": [ "Health", "Education" ] }, "geometry": { "type": "Polygon", "coordinates": [ [ [ 31.204504504504502, 30.009009009009009 ], [ 31.204504504504502, 30.013513513513512 ], [ 31.2, 30.013513513513512 ], [ 31.2, 30.009009009009009 ], [ 31.204504504504502, 30.009009009009009 ] ] ] } },
{ "type": "Feature", "properties": { "cell_id": 3, "poi_count": 0, "text_des": "", "poi_categories": [ ] }, "geometry": { "type": "Polygon", "coordinates": [ [ [ 31.204504504504502, 30.013513513513512 ], [ 31.204504504504502, 30.018018018018015 ], [ 31.2, 30.018018018018015 ], [ 31.2, 30.013513513513512 ], [ 31.204504504504502, 30.013513513513512 ] ] ] } },
{ "type": "Feature", "properties": { "cell_id": 4, "poi_count": 0, "text_des": "", "poi_categories": [ ] }, "geometry": { "type": "Polygon", "coordinates": [ [ [ 31.204504504504502, 30.018018018018019 ], [ 31.204504504504502, 30.022522522522522 ], [ 31.2, 30.022522522522522 ], [ 31.2, 30.018018018018019 ], [ 31.204504504504502, 30.018018018018019 ] ] ] } },
{ "type": "Feature", "properties": { "cell_id": 5, "poi_count": 0, "text_des": "", "poi_categories": [ ] }, "geometry": { "type": "Polygon", "coordinates": [ [ [ 31.204504504504502, 30.022522522522522 ], [ 31.204504504504502, 30.027027027027025 ], [ 31.2, 30.027027027027025 ], [ 31.2, 30.022522522522522 ], [ 31.204504504504502, 30.022522522522522 ] ] ] } },
{ "type": "Feature", "properties": { "cell_id": 6, "poi_count": 0, "text_des": "", "poi_categories": [ ] }, "geometry": { "type": "Polygon", "coordinates": [ [ [ 31.204504504504502, 30.027027027027028 ], [ 31.204504504504502, 30.031531531531531 ], [ 31.2, 30.031531531531531 ], [ 31.2, 30.027027027027028 ], [ 31.204504504504502, 30.027027027027028 ] ] ] } },
{ "type": "Feature", "properties": { "cell_id": 7, "poi_count": 0, "text_des": "", "poi_categories": [ ] }, "geometry": { "type": "Polygon", "coordinates": [ [ [ 31.204504504504502, 30.031531531531531 ], [ 31.204504504504502, 30.036036036036034 ], [ 31.2, 30.036036036036034 ], [ 31.2, 30.031531531531531 ], [ 31.204504504504502, 30.031531531531531 ] ] ] } },
{ "type": "Feature", "properties": { "cell_id": 8, "poi_count": 0, "text_des": "", "poi_categories": [ ] }, "geometry": { "type": "Polygon", "coordinates": [ [ [ 31.204504504504502, 30.036036036036037 ], [ 31.204504504504502, 30.04054054054054 ], [ 31.2, 30.04054054054054 ], [ 31.2, 30.036036036036037 ], [ 31.204504504504502, 30.036036036036037 ] ] ] } },
{ "type": "Feature", "properties": { "cell_id": 9, "poi_count": 0, "text_des": "", "poi_categories": [ ] }, "geometry": { "type": "Polygon", "coordinates": [ [ [ 31.209009009009005, 30.0 ], [ 31.209009009009005, 30.004504504504503 ], [ 31.204504504504502, 30.004504504504503 ], [ 31.204504504504502, 30.0 ], [ 31.209009009009005, 30.0 ] ] ] } },
{ "type": "Feature", "properties": { "cell_id": 10, "poi_count": 0, "text_des": "", "poi_categories": [ ] }, "geometry": { "type": "Polygon", "coordinates": [ [ [ 31.209009009009005, 30.004504504504503 ], [ 31.209009009009005, 30.009009009009006 ], [ 31.204504504504502, 30.009009009009006 ], [ 31.204504504504502, 30.004504504504503 ], [ 31.209009009009005, 30.004504504504503 ] ] ] } },
{ "type": "Feature", "properties": { "cell_id": 11, "poi_count": 0, "text_des": "", "poi_categories": [ ] }, "geometry": { "type": "Polygon", "coordinates": [ [ [ 31.209009009009005, 30.009009009009009 ], [ 31.209009009009005, 30.013513513513512 ], [ 31.204504504504502, 30.013513513513512 ], [ 31.204504504504502, 30.009009009009009 ], [ 31.209009009009005, 30.009009009009009 ] ] ] } },
{ "type": "Feature", "properties": { "cell_id": 12, "poi_count": 0, "text_des": "", "poi_categories": [ ] }, "geometry": { "type": "Polygon", "coordinates": [ [ [ 31.209009009009005, 30.013513513513512 ], [ 31.209009009009005, 30.018018018018015 ], [ 31.204504504504502, 30.018018018018015 ], [ 31.204504504504502, 30.013513513513512 ], [ 31.209009009009005, 30.013513513513512 ] ] ] } },
{ "type": "Feature", "properties": { "cell_id": 13, "poi_count": 0, "text_des": "", "poi_categories": [ ] }, "geometry": { "type": "Polygon", "coordinates": [ [ [ 31.209009009009005, 30.018018018018019 ], [ 31.209009009009005, 30.022522522522522 ], [ 31.204504504504502, 30.022522522522522 ], [ 31.204504504504502, 30.018018018018019 ], [ 31.209009009009005, 30.018018018018019 ] ] ] } },
{ "type": "Feature", "properties": { "cell_id": 14, "poi_count": 0, "text_des": "", "poi_categories": [ ] }, "geometry": { "type": "Polygon", "coordinates": [ [ [ 31.209009009009005, 30.022522522522522 ], [ 31.209009009009005, 30.027027027027025 ], [ 31.204504504504502, 30.027027027027025 ], [ 31.204504504504502, 30.022522522522522 ], [ 31.209009009009005, 30.022522522522522 ] ] ] } },
{ "type": "Feature", "properties": { "cell_id": 15, "poi_count": 0, "text_des": "", "poi_categories": [ ] }, "geometry": { "type": "Polygon", "coordinates": [ [ [ 31.209009009009005, 30.027027027027028 ], [ 31.209009009009005, 30.031531531531531 ], [ 31.204504504504502, 30.031531531531531 ], [ 31.204504504504502, 30.027027027027028 ], [ 31.209009009009005, 30.027027027027028 ] ] ] } },
{ "type": "Feature", "properties": { "cell_id": 16, "poi_count": 0, "text_des": "", "poi_categories": [ ] }, "geometry": { "type": "Polygon", "coordinates": [ [ [ 31.209009009009005, 30.031531531531531 ], [ 31.209009009009005, 30.036036036036034 ], [ 31.204504504504502, 30.036036036036034 ], [ 31.204504504504502, 30.031531531531531 ], [ 31.209009009009005, 30.031531531531531 ] ] ] } },
{ "type": "Feature", "properties": { "cell_id": 17, "poi_count": 2, "text_des": "تقع عيادة الدكتور \"الأيمن فتحي حسين\" في القاهرة، مصر. نوع المنطقة: عام. البيانات من OpenStreetMap. تقع Dar El Oyun Hospitals في القاهرة، مصر. نوع المنطقة: مستشفى. البيانات من OpenStreetMap.", "poi_categories": [ "Health" ] }, "geometry": { "type": "Polygon", "coordinates": [ [ [ 31.209009009009005, 30.036036036036037 ], [ 31.209009009009005, 30.04054054054054 ], [ 31.204504504504502, 30.04054054054054 ], [ 31.204504504504502, 30.036036036036037 ], [ 31.209009009009005, 30.036036036036037 ] ] ] } },
{ "type": "Feature", "properties": { "cell_id": 18, "poi_count": 0, "text_des": "", "poi_categories": [ ] }, "geometry": { "type": "Polygon", "coordinates": [ [ [ 31.213513513513512, 30.0 ], [ 31.213513513513512, 30.004504504504503 ], [ 31.209009009009009, 30.004504504504503 ], [ 31.209009009009009, 30.0 ], [ 31.213513513513512, 30.0 ] ] ] } },
{ "type": "Feature", "properties": { "cell_id": 19, "poi_count": 0, "text_des": "", "poi_categories": [ ] }, "geometry": { "type": "Polygon", "coordinates": [ [ [ 31.213513513513512, 30.004504504504503 ], [ 31.213513513513512, 30.009009009009006 ], [ 31.209009009009009, 30.009009009009006 ], [ 31.209009009009009, 30.004504504504503 ], [ 31.213513513513512, 30.004504504504503 ] ] ] } },
{ "type": "Feature", "properties": { "cell_id": 20, "poi_count": 0, "text_des": "", "poi_categories": [ ] }, "geometry": { "type": "Polygon", "coordinates": [ [ [ 31.213513513513512, 30.009009009009009 ], [ 31.213513513513512, 30.013513513513512 ], [ 31.209009009009009, 30.013513513513512 ], [ 31.209009009009009, 30.009009009009009 ], [ 31.213513513513512, 30.009009009009009 ] ] ] } },
{ "type": "Feature", "properties": { "cell_id": 21, "poi_count": 1, "text_des": "تقع استشاري جراحة الأطفال - دكتور/ خالد صلاح - Dr/ Khaled Salah في القاهرة، مصر. نوع المنطقة: عام. البيانات من OpenStreetMap.", "poi_categories": [ "Health" ] }, "geometry": { "type": "Polygon", "coordinates": [ [ [ 31.213513513513512, 30.013513513513512 ], [ 31.213513513513512, 30.018018018018015 ], [ 31.209009009009009, 30.018018018018015 ], [ 31.209009009009009, 30.013513513513512 ], [ 31.213513513513512, 30.013513513513512 ] ] ] } },
{ "type": "Feature", "properties": { "cell_id": 22, "poi_count": 0, "text_des": "", "poi_categories": [ ] }, "geometry": { "type": "Polygon", "coordinates": [ [ [ 31.213513513513512, 30.018018018018019 ], [ 31.213513513513512, 30.022522522522522 ], [ 31.209009009009009, 30.022522522522522 ], [ 31.209009009009009, 30.018018018018019 ], [ 31.213513513513512, 30.018018018018019 ] ] ] } },
{ "type": "Feature", "properties": { "cell_id": 23, "poi_count": 0, "text_des": "", "poi_categories": [ ] }, "geometry": { "type": "Polygon", "coordinates": [ [ [ 31.213513513513512, 30.022522522522522 ], [ 31.213513513513512, 30.027027027027025 ], [ 31.209009009009009, 30.027027027027025 ], [ 31.209009009009009, 30.022522522522522 ], [ 31.213513513513512, 30.022522522522522 ] ] ] } },
{ "type": "Feature", "properties": { "cell_id": 24, "poi_count": 1, "text_des": "تقع مركز القلب والشرائين للرعاية الطبية في القاهرة، مصر. نوع المنطقة: عام. البيانات من OpenStreetMap.", "poi_categories": [ "Health" ] }, "geometry": { "type": "Polygon", "coordinates": [ [ [ 31.213513513513512, 30.027027027027028 ], [ 31.213513513513512, 30.031531531531531 ], [ 31.209009009009009, 30.031531531531531 ], [ 31.209009009009009, 30.027027027027028 ], [ 31.213513513513512, 30.027027027027028 ] ] ] } },
{ "type": "Feature", "properties": { "cell_id": 25, "poi_count": 0, "text_des": "", "poi_categories": [ ] }, "geometry": { "type": "Polygon", "coordinates": [ [ [ 31.213513513513512, 30.031531531531531 ], [ 31.213513513513512, 30.036036036036034 ], [ 31.209009009009009, 30.036036036036034 ], [ 31.209009009009009, 30.031531531531531 ], [ 31.213513513513512, 30.031531531531531 ] ] ] } },
{ "type": "Feature", "properties": { "cell_id": 26, "poi_count": 1, "text_des": "تقع مركز الدقي للأشعة في القاهرة، مصر. نوع المنطقة: عام. البيانات من OpenStreetMap.", "poi_categories": [ "Health" ] }, "geometry": { "type": "Polygon", "coordinates": [ [ [ 31.213513513513512, 30.036036036036037 ], [ 31.213513513513512, 30.04054054054054 ], [ 31.209009009009009, 30.04054054054054 ], [ 31.209009009009009, 30.036036036036037 ], [ 31.213513513513512, 30.036036036036037 ] ] ] } },
{ "type": "Feature", "properties": { "cell_id": 27, "poi_count": 0, "text_des": "", "poi_categories": [ ] }, "geometry": { "type": "Polygon", "coordinates": [ [ [ 31.218018018018014, 30.0 ], [ 31.218018018018014, 30.004504504504503 ], [ 31.213513513513512, 30.004504504504503 ], [ 31.213513513513512, 30.0 ], [ 31.218018018018014, 30.0 ] ] ] } },
{ "type": "Feature", "properties": { "cell_id": 28, "poi_count": 0, "text_des": "", "poi_categories": [ ] }, "geometry": { "type": "Polygon", "coordinates": [ [ [ 31.218018018018014, 30.004504504504503 ], [ 31.218018018018014, 30.009009009009006 ], [ 31.213513513513512, 30.009009009009006 ], [ 31.213513513513512, 30.004504504504503 ], [ 31.218018018018014, 30.004504504504503 ] ] ] } },
{ "type": "Feature", "properties": { "cell_id": 29, "poi_count": 0, "text_des": "", "poi_categories": [ ] }, "geometry": { "type": "Polygon", "coordinates": [ [ [ 31.218018018018014, 30.009009009009009 ], [ 31.218018018018014, 30.013513513513512 ], [ 31.213513513513512, 30.013513513513512 ], [ 31.213513513513512, 30.009009009009009 ], [ 31.218018018018014, 30.009009009009009 ] ] ] } },
{ "type": "Feature", "properties": { "cell_id": 30, "poi_count": 3, "text_des": "تقع مستشفى الرماد في القاهرة، مصر. نوع المنطقة: مستشفى. البيانات من OpenStreetMap. تقع معهد بحوث امراض الرمد في القاهرة، مصر. نوع المنطقة: مستشفى. البيانات من OpenStreetMap. تقع معهد الرمد التذكاري للابحاث في القاهرة، مصر. نوع المنطقة: مستشفى. البيانات من OpenStreetMap.", "poi_categories": [ "Health" ] }, "geometry": { "type": "Polygon", "coordinates": [ [ [ 31.218018018018014, 30.013513513513512 ], [ 31.218018018018014, 30.018018018018015 ], [ 31.213513513513512, 30.018018018018015 ], [ 31.213513513513512, 30.013513513513512 ], [ 31.218018018018014, 30.013513513513512 ] ] ] } },
{ "type": "Feature", "properties": { "cell_id": 31, "poi_count": 1, "text_des": "تقع البنك الاهلي المصري في القاهرة، مصر. نوع المنطقة: بنك. البيانات من :contentReference[oaicite:1]{index=1}.", "poi_categories": [ "Bank" ] }, "geometry": { "type": "Polygon", "coordinates": [ [ [ 31.218018018018014, 30.018018018018019 ], [ 31.218018018018014, 30.022522522522522 ], [ 31.213513513513512, 30.022522522522522 ], [ 31.213513513513512, 30.018018018018019 ], [ 31.218018018018014, 30.018018018018019 ] ] ] } },
{ "type": "Feature", "properties": { "cell_id": 32, "poi_count": 1, "text_des": "تقع البنك العربي الأفريقي في القاهرة، مصر. نوع المنطقة: بنك. البيانات من :contentReference[oaicite:1]{index=1}.", "poi_categories": [ "Bank" ] }, "geometry": { "type": "Polygon", "coordinates": [ [ [ 31.218018018018014, 30.022522522522522 ], [ 31.218018018018014, 30.027027027027025 ], [ 31.213513513513512, 30.027027027027025 ], [ 31.213513513513512, 30.022522522522522 ], [ 31.218018018018014, 30.022522522522522 ] ] ] } },
{ "type": "Feature", "properties": { "cell_id": 33, "poi_count": 2, "text_des": "تقع NSGB في القاهرة، مصر. نوع المنطقة: بنك. البيانات من :contentReference[oaicite:1]{index=1}. تقع Arab International Bank في القاهرة، مصر. نوع المنطقة: بنك. البيانات من :contentReference[oaicite:1]{index=1}.", "poi_categories": [ "Bank" ] }, "geometry": { "type": "Polygon", "coordinates": [ [ [ 31.218018018018014, 30.027027027027028 ], [ 31.218018018018014, 30.031531531531531 ], [ 31.213513513513512, 30.031531531531531 ], [ 31.213513513513512, 30.027027027027028 ], [ 31.218018018018014, 30.027027027027028 ] ] ] } },
{ "type": "Feature", "properties": { "cell_id": 34, "poi_count": 1, "text_des": "تقع saib Bank - Mesaha Branch في القاهرة، مصر. نوع المنطقة: بنك. البيانات من :contentReference[oaicite:1]{index=1}.", "poi_categories": [ "Bank" ] }, "geometry": { "type": "Polygon", "coordinates": [ [ [ 31.218018018018014, 30.031531531531531 ], [ 31.218018018018014, 30.036036036036034 ], [ 31.213513513513512, 30.036036036036034 ], [ 31.213513513513512, 30.031531531531531 ], [ 31.218018018018014, 30.031531531531531 ] ] ] } },
{ "type": "Feature", "properties": { "cell_id": 35, "poi_count": 1, "text_des": "تقع مستشفى 6 اكتوبر في القاهرة، مصر. نوع المنطقة: مستشفى. البيانات من OpenStreetMap.", "poi_categories": [ "Health" ] }, "geometry": { "type": "Polygon", "coordinates": [ [ [ 31.218018018018014, 30.036036036036037 ], [ 31.218018018018014, 30.04054054054054 ], [ 31.213513513513512, 30.04054054054054 ], [ 31.213513513513512, 30.036036036036037 ], [ 31.218018018018014, 30.036036036036037 ] ] ] } },
{ "type": "Feature", "properties": { "cell_id": 36, "poi_count": 0, "text_des": "", "poi_categories": [ ] }, "geometry": { "type": "Polygon", "coordinates": [ [ [ 31.222522522522521, 30.0 ], [ 31.222522522522521, 30.004504504504503 ], [ 31.218018018018018, 30.004504504504503 ], [ 31.218018018018018, 30.0 ], [ 31.222522522522521, 30.0 ] ] ] } },
{ "type": "Feature", "properties": { "cell_id": 37, "poi_count": 0, "text_des": "", "poi_categories": [ ] }, "geometry": { "type": "Polygon", "coordinates": [ [ [ 31.222522522522521, 30.004504504504503 ], [ 31.222522522522521, 30.009009009009006 ], [ 31.218018018018018, 30.009009009009006 ], [ 31.218018018018018, 30.004504504504503 ], [ 31.222522522522521, 30.004504504504503 ] ] ] } },
{ "type": "Feature", "properties": { "cell_id": 38, "poi_count": 0, "text_des": "", "poi_categories": [ ] }, "geometry": { "type": "Polygon", "coordinates": [ [ [ 31.222522522522521, 30.009009009009009 ], [ 31.222522522522521, 30.013513513513512 ], [ 31.218018018018018, 30.013513513513512 ], [ 31.218018018018018, 30.009009009009009 ], [ 31.222522522522521, 30.009009009009009 ] ] ] } },
{ "type": "Feature", "properties": { "cell_id": 39, "poi_count": 0, "text_des": "", "poi_categories": [ ] }, "geometry": { "type": "Polygon", "coordinates": [ [ [ 31.222522522522521, 30.013513513513512 ], [ 31.222522522522521, 30.018018018018015 ], [ 31.218018018018018, 30.018018018018015 ], [ 31.218018018018018, 30.013513513513512 ], [ 31.222522522522521, 30.013513513513512 ] ] ] } },
{ "type": "Feature", "properties": { "cell_id": 40, "poi_count": 0, "text_des": "", "poi_categories": [ ] }, "geometry": { "type": "Polygon", "coordinates": [ [ [ 31.222522522522521, 30.018018018018019 ], [ 31.222522522522521, 30.022522522522522 ], [ 31.218018018018018, 30.022522522522522 ], [ 31.218018018018018, 30.018018018018019 ], [ 31.222522522522521, 30.018018018018019 ] ] ] } },
{ "type": "Feature", "properties": { "cell_id": 41, "poi_count": 0, "text_des": "", "poi_categories": [ ] }, "geometry": { "type": "Polygon", "coordinates": [ [ [ 31.222522522522521, 30.022522522522522 ], [ 31.222522522522521, 30.027027027027025 ], [ 31.218018018018018, 30.027027027027025 ], [ 31.218018018018018, 30.022522522522522 ], [ 31.222522522522521, 30.022522522522522 ] ] ] } },
{ "type": "Feature", "properties": { "cell_id": 42, "poi_count": 1, "text_des": "تقع EDBE BANK البنك المصرى لتنمية الصادرات في القاهرة، مصر. نوع المنطقة: بنك. البيانات من :contentReference[oaicite:1]{index=1}.", "poi_categories": [ "Bank" ] }, "geometry": { "type": "Polygon", "coordinates": [ [ [ 31.222522522522521, 30.027027027027028 ], [ 31.222522522522521, 30.031531531531531 ], [ 31.218018018018018, 30.031531531531531 ], [ 31.218018018018018, 30.027027027027028 ], [ 31.222522522522521, 30.027027027027028 ] ] ] } },
{ "type": "Feature", "properties": { "cell_id": 43, "poi_count": 0, "text_des": "", "poi_categories": [ ] }, "geometry": { "type": "Polygon", "coordinates": [ [ [ 31.222522522522521, 30.031531531531531 ], [ 31.222522522522521, 30.036036036036034 ], [ 31.218018018018018, 30.036036036036034 ], [ 31.218018018018018, 30.031531531531531 ], [ 31.222522522522521, 30.031531531531531 ] ] ] } },
{ "type": "Feature", "properties": { "cell_id": 44, "poi_count": 1, "text_des": "تقع CAE BANK فرع قصر النيل في القاهرة، مصر. نوع المنطقة: بنك. البيانات من :contentReference[oaicite:1]{index=1}.", "poi_categories": [ "Bank" ] }, "geometry": { "type": "Polygon", "coordinates": [ [ [ 31.222522522522521, 30.036036036036037 ], [ 31.222522522522521, 30.04054054054054 ], [ 31.218018018018018, 30.04054054054054 ], [ 31.218018018018018, 30.036036036036037 ], [ 31.222522522522521, 30.036036036036037 ] ] ] } },
{ "type": "Feature", "properties": { "cell_id": 45, "poi_count": 0, "text_des": "", "poi_categories": [ ] }, "geometry": { "type": "Polygon", "coordinates": [ [ [ 31.227027027027024, 30.0 ], [ 31.227027027027024, 30.004504504504503 ], [ 31.222522522522521, 30.004504504504503 ], [ 31.222522522522521, 30.0 ], [ 31.227027027027024, 30.0 ] ] ] } },
{ "type": "Feature", "properties": { "cell_id": 46, "poi_count": 0, "text_des": "", "poi_categories": [ ] }, "geometry": { "type": "Polygon", "coordinates": [ [ [ 31.227027027027024, 30.004504504504503 ], [ 31.227027027027024, 30.009009009009006 ], [ 31.222522522522521, 30.009009009009006 ], [ 31.222522522522521, 30.004504504504503 ], [ 31.227027027027024, 30.004504504504503 ] ] ] } },
{ "type": "Feature", "properties": { "cell_id": 47, "poi_count": 0, "text_des": "", "poi_categories": [ ] }, "geometry": { "type": "Polygon", "coordinates": [ [ [ 31.227027027027024, 30.009009009009009 ], [ 31.227027027027024, 30.013513513513512 ], [ 31.222522522522521, 30.013513513513512 ], [ 31.222522522522521, 30.009009009009009 ], [ 31.227027027027024, 30.009009009009009 ] ] ] } },
{ "type": "Feature", "properties": { "cell_id": 48, "poi_count": 0, "text_des": "", "poi_categories": [ ] }, "geometry": { "type": "Polygon", "coordinates": [ [ [ 31.227027027027024, 30.013513513513512 ], [ 31.227027027027024, 30.018018018018015 ], [ 31.222522522522521, 30.018018018018015 ], [ 31.222522522522521, 30.013513513513512 ], [ 31.227027027027024, 30.013513513513512 ] ] ] } },
{ "type": "Feature", "properties": { "cell_id": 49, "poi_count": 1, "text_des": "تقع بنك البركة - فرع المنيل في القاهرة، مصر. نوع المنطقة: بنك. البيانات من :contentReference[oaicite:1]{index=1}.", "poi_categories": [ "Bank" ] }, "geometry": { "type": "Polygon", "coordinates": [ [ [ 31.227027027027024, 30.018018018018019 ], [ 31.227027027027024, 30.022522522522522 ], [ 31.222522522522521, 30.022522522522522 ], [ 31.222522522522521, 30.018018018018019 ], [ 31.227027027027024, 30.018018018018019 ] ] ] } },
{ "type": "Feature", "properties": { "cell_id": 50, "poi_count": 3, "text_des": "تقع مركز دكتورة منى العقاد في القاهرة، مصر. نوع المنطقة: عام. البيانات من OpenStreetMap. تقع د. عمرو عنتر أخصائي التخاطب في القاهرة، مصر. نوع المنطقة: عام. البيانات من OpenStreetMap. تقع عوده المنيل في القاهرة، مصر. نوع المنطقة: بنك. البيانات من :contentReference[oaicite:1]{index=1}.", "poi_categories": [ "Health", "Bank" ] }, "geometry": { "type": "Polygon", "coordinates": [ [ [ 31.227027027027024, 30.022522522522522 ], [ 31.227027027027024, 30.027027027027025 ], [ 31.222522522522521, 30.027027027027025 ], [ 31.222522522522521, 30.022522522522522 ], [ 31.227027027027024, 30.022522522522522 ] ] ] } },
{ "type": "Feature", "properties": { "cell_id": 51, "poi_count": 2, "text_des": "تقع د. إيهاب عامر (المنيل) في القاهرة، مصر. نوع المنطقة: عام. البيانات من OpenStreetMap. تقع وحده الملك فهد في القاهرة، مصر. نوع المنطقة: عام. البيانات من OpenStreetMap.", "poi_categories": [ "Health" ] }, "geometry": { "type": "Polygon", "coordinates": [ [ [ 31.227027027027024, 30.027027027027028 ], [ 31.227027027027024, 30.031531531531531 ], [ 31.222522522522521, 30.031531531531531 ], [ 31.222522522522521, 30.027027027027028 ], [ 31.227027027027024, 30.027027027027028 ] ] ] } },
{ "type": "Feature", "properties": { "cell_id": 52, "poi_count": 0, "text_des": "", "poi_categories": [ ] }, "geometry": { "type": "Polygon", "coordinates": [ [ [ 31.227027027027024, 30.031531531531531 ], [ 31.227027027027024, 30.036036036036034 ], [ 31.222522522522521, 30.036036036036034 ], [ 31.222522522522521, 30.031531531531531 ], [ 31.227027027027024, 30.031531531531531 ] ] ] } },
{ "type": "Feature", "properties": { "cell_id": 53, "poi_count": 0, "text_des": "", "poi_categories": [ ] }, "geometry": { "type": "Polygon", "coordinates": [ [ [ 31.227027027027024, 30.036036036036037 ], [ 31.227027027027024, 30.04054054054054 ], [ 31.222522522522521, 30.04054054054054 ], [ 31.222522522522521, 30.036036036036037 ], [ 31.227027027027024, 30.036036036036037 ] ] ] } },
{ "type": "Feature", "properties": { "cell_id": 54, "poi_count": 0, "text_des": "", "poi_categories": [ ] }, "geometry": { "type": "Polygon", "coordinates": [ [ [ 31.23153153153153, 30.0 ], [ 31.23153153153153, 30.004504504504503 ], [ 31.227027027027027, 30.004504504504503 ], [ 31.227027027027027, 30.0 ], [ 31.23153153153153, 30.0 ] ] ] } },
{ "type": "Feature", "properties": { "cell_id": 55, "poi_count": 0, "text_des": "", "poi_categories": [ ] }, "geometry": { "type": "Polygon", "coordinates": [ [ [ 31.23153153153153, 30.004504504504503 ], [ 31.23153153153153, 30.009009009009006 ], [ 31.227027027027027, 30.009009009009006 ], [ 31.227027027027027, 30.004504504504503 ], [ 31.23153153153153, 30.004504504504503 ] ] ] } },
{ "type": "Feature", "properties": { "cell_id": 56, "poi_count": 2, "text_des": "تقع دار السلام للأورام (هرمل) في القاهرة، مصر. نوع المنطقة: مستشفى. البيانات من OpenStreetMap. تقع البنك الأهلى المصرى في القاهرة، مصر. نوع المنطقة: بنك. البيانات من :contentReference[oaicite:1]{index=1}.", "poi_categories": [ "Health", "Bank" ] }, "geometry": { "type": "Polygon", "coordinates": [ [ [ 31.23153153153153, 30.009009009009009 ], [ 31.23153153153153, 30.013513513513512 ], [ 31.227027027027027, 30.013513513513512 ], [ 31.227027027027027, 30.009009009009009 ], [ 31.23153153153153, 30.009009009009009 ] ] ] } },
{ "type": "Feature", "properties": { "cell_id": 57, "poi_count": 1, "text_des": "تقع Banque du Caire في القاهرة، مصر. نوع المنطقة: بنك. البيانات من :contentReference[oaicite:1]{index=1}.", "poi_categories": [ "Bank" ] }, "geometry": { "type": "Polygon", "coordinates": [ [ [ 31.23153153153153, 30.013513513513512 ], [ 31.23153153153153, 30.018018018018015 ], [ 31.227027027027027, 30.018018018018015 ], [ 31.227027027027027, 30.013513513513512 ], [ 31.23153153153153, 30.013513513513512 ] ] ] } },
{ "type": "Feature", "properties": { "cell_id": 58, "poi_count": 1, "text_des": "تقع مكتب صحة - المنيل في القاهرة، مصر. نوع المنطقة: عام. البيانات من OpenStreetMap.", "poi_categories": [ "Health" ] }, "geometry": { "type": "Polygon", "coordinates": [ [ [ 31.23153153153153, 30.018018018018019 ], [ 31.23153153153153, 30.022522522522522 ], [ 31.227027027027027, 30.022522522522522 ], [ 31.227027027027027, 30.018018018018019 ], [ 31.23153153153153, 30.018018018018019 ] ] ] } },
{ "type": "Feature", "properties": { "cell_id": 59, "poi_count": 1, "text_des": "تقع بنك التعمير و الاسكان في القاهرة، مصر. نوع المنطقة: بنك. البيانات من :contentReference[oaicite:1]{index=1}.", "poi_categories": [ "Bank" ] }, "geometry": { "type": "Polygon", "coordinates": [ [ [ 31.23153153153153, 30.022522522522522 ], [ 31.23153153153153, 30.027027027027025 ], [ 31.227027027027027, 30.027027027027025 ], [ 31.227027027027027, 30.022522522522522 ], [ 31.23153153153153, 30.022522522522522 ] ] ] } },
{ "type": "Feature", "properties": { "cell_id": 60, "poi_count": 4, "text_des": "تقع كلية الطب القصر العيني في القاهرة، مصر. نوع المنطقة: مدرسة. البيانات من OpenStreetMap. تقع مسجد كلية الطب في القاهرة، مصر. نوع المنطقة: مستشفى. البيانات من OpenStreetMap. تقع ليزر الرمد في القاهرة، مصر. نوع المنطقة: مستشفى. البيانات من OpenStreetMap. تقع مبنى بنك الدم و عيادة طب الأسرة في القاهرة، مصر. نوع المنطقة: مستشفى. البيانات من OpenStreetMap.", "poi_categories": [ "Education", "Health" ] }, "geometry": { "type": "Polygon", "coordinates": [ [ [ 31.23153153153153, 30.027027027027028 ], [ 31.23153153153153, 30.031531531531531 ], [ 31.227027027027027, 30.031531531531531 ], [ 31.227027027027027, 30.027027027027028 ], [ 31.23153153153153, 30.027027027027028 ] ] ] } },
{ "type": "Feature", "properties": { "cell_id": 61, "poi_count": 17, "text_des": "تقع عيادة كريم سعيد في القاهرة، مصر. نوع المنطقة: عام. البيانات من OpenStreetMap. تقع عيادة الذكورة في القاهرة، مصر. نوع المنطقة: مستشفى. البيانات من OpenStreetMap. تقع عيادة العلاج الطبيغى في القاهرة، مصر. نوع المنطقة: مستشفى. البيانات من OpenStreetMap. تقع عيادة الجلدية في القاهرة، مصر. نوع المنطقة: مستشفى. البيانات من OpenStreetMap. تقع عيادة السكر و عيادة الغدد و عيادة السمنة و التغذية في القاهرة، مصر. نوع المنطقة: مستشفى. البيانات من OpenStreetMap. تقع عيادة الرمد في القاهرة، مصر. نوع المنطقة: مستشفى. البيانات من OpenStreetMap. تقع عيادة الجراحة في القاهرة، مصر. نوع المنطقة: مستشفى. البيانات من OpenStreetMap. تقع عيادة الجراحة في القاهرة، مصر. نوع المنطقة: مستشفى. البيانات من OpenStreetMap. تقع عيادة الباطنة و عيادة جراحة مخ و اعصاب في القاهرة، مصر. نوع المنطقة: مستشفى. البيانات من OpenStreetMap. تقع عيادة العظام في القاهرة، مصر. نوع المنطقة: مستشفى. البيانات من OpenStreetMap. تقع عيادة الباطنة و القلب و المتوطنة في القاهرة، مصر. نوع المنطقة: مستشفى. البيانات من OpenStreetMap. تقع عيادة الروماتزم في القاهرة، مصر. نوع المنطقة: مستشفى. البيانات من OpenStreetMap. تقع عيادة مخ و أعصاب و الصدر في القاهرة، مصر. نوع المنطقة: مستشفى. البيانات من OpenStreetMap. تقع عيادة العلاج الطبيعى في القاهرة، مصر. نوع المنطقة: مستشفى. البيانات من OpenStreetMap. تقع عيادة السمعيات في القاهرة، مصر. نوع المنطقة: مستشفى. البيانات من OpenStreetMap. تقع عيادة أمراض الدم في القاهرة، مصر. نوع المنطقة: مستشفى. البيانات من OpenStreetMap. تقع ليزر الجلدية في القاهرة، مصر. نوع المنطقة: مستشفى. البيانات من OpenStreetMap.", "poi_categories": [ "Health" ] }, "geometry": { "type": "Polygon", "coordinates": [ [ [ 31.23153153153153, 30.031531531531531 ], [ 31.23153153153153, 30.036036036036034 ], [ 31.227027027027027, 30.036036036036034 ], [ 31.227027027027027, 30.031531531531531 ], [ 31.23153153153153, 30.031531531531531 ] ] ] } },
{ "type": "Feature", "properties": { "cell_id": 62, "poi_count": 1, "text_des": "تقع Alex Bank في القاهرة، مصر. نوع المنطقة: بنك. البيانات من :contentReference[oaicite:1]{index=1}.", "poi_categories": [ "Bank" ] }, "geometry": { "type": "Polygon", "coordinates": [ [ [ 31.23153153153153, 30.036036036036037 ], [ 31.23153153153153, 30.04054054054054 ], [ 31.227027027027027, 30.04054054054054 ], [ 31.227027027027027, 30.036036036036037 ], [ 31.23153153153153, 30.036036036036037 ] ] ] } },
{ "type": "Feature", "properties": { "cell_id": 63, "poi_count": 0, "text_des": "", "poi_categories": [ ] }, "geometry": { "type": "Polygon", "coordinates": [ [ [ 31.236036036036033, 30.0 ], [ 31.236036036036033, 30.004504504504503 ], [ 31.23153153153153, 30.004504504504503 ], [ 31.23153153153153, 30.0 ], [ 31.236036036036033, 30.0 ] ] ] } },
{ "type": "Feature", "properties": { "cell_id": 64, "poi_count": 0, "text_des": "", "poi_categories": [ ] }, "geometry": { "type": "Polygon", "coordinates": [ [ [ 31.236036036036033, 30.004504504504503 ], [ 31.236036036036033, 30.009009009009006 ], [ 31.23153153153153, 30.009009009009006 ], [ 31.23153153153153, 30.004504504504503 ], [ 31.236036036036033, 30.004504504504503 ] ] ] } },
{ "type": "Feature", "properties": { "cell_id": 65, "poi_count": 0, "text_des": "", "poi_categories": [ ] }, "geometry": { "type": "Polygon", "coordinates": [ [ [ 31.236036036036033, 30.009009009009009 ], [ 31.236036036036033, 30.013513513513512 ], [ 31.23153153153153, 30.013513513513512 ], [ 31.23153153153153, 30.009009009009009 ], [ 31.236036036036033, 30.009009009009009 ] ] ] } },
{ "type": "Feature", "properties": { "cell_id": 66, "poi_count": 0, "text_des": "", "poi_categories": [ ] }, "geometry": { "type": "Polygon", "coordinates": [ [ [ 31.236036036036033, 30.013513513513512 ], [ 31.236036036036033, 30.018018018018015 ], [ 31.23153153153153, 30.018018018018015 ], [ 31.23153153153153, 30.013513513513512 ], [ 31.236036036036033, 30.013513513513512 ] ] ] } },
{ "type": "Feature", "properties": { "cell_id": 67, "poi_count": 0, "text_des": "", "poi_categories": [ ] }, "geometry": { "type": "Polygon", "coordinates": [ [ [ 31.236036036036033, 30.018018018018019 ], [ 31.236036036036033, 30.022522522522522 ], [ 31.23153153153153, 30.022522522522522 ], [ 31.23153153153153, 30.018018018018019 ], [ 31.236036036036033, 30.018018018018019 ] ] ] } },
{ "type": "Feature", "properties": { "cell_id": 68, "poi_count": 0, "text_des": "", "poi_categories": [ ] }, "geometry": { "type": "Polygon", "coordinates": [ [ [ 31.236036036036033, 30.022522522522522 ], [ 31.236036036036033, 30.027027027027025 ], [ 31.23153153153153, 30.027027027027025 ], [ 31.23153153153153, 30.022522522522522 ], [ 31.236036036036033, 30.022522522522522 ] ] ] } },
{ "type": "Feature", "properties": { "cell_id": 69, "poi_count": 1, "text_des": "تقع مستشفي اطفال مصر- التأمين الصحي في القاهرة، مصر. نوع المنطقة: مستشفى. البيانات من OpenStreetMap.", "poi_categories": [ "Health" ] }, "geometry": { "type": "Polygon", "coordinates": [ [ [ 31.236036036036033, 30.027027027027028 ], [ 31.236036036036033, 30.031531531531531 ], [ 31.23153153153153, 30.031531531531531 ], [ 31.23153153153153, 30.027027027027028 ], [ 31.236036036036033, 30.027027027027028 ] ] ] } },
{ "type": "Feature", "properties": { "cell_id": 70, "poi_count": 1, "text_des": "تقع CIB Central International Bank في القاهرة، مصر. نوع المنطقة: بنك. البيانات من :contentReference[oaicite:1]{index=1}.", "poi_categories": [ "Bank" ] }, "geometry": { "type": "Polygon", "coordinates": [ [ [ 31.236036036036033, 30.031531531531531 ], [ 31.236036036036033, 30.036036036036034 ], [ 31.23153153153153, 30.036036036036034 ], [ 31.23153153153153, 30.031531531531531 ], [ 31.236036036036033, 30.031531531531531 ] ] ] } },
{ "type": "Feature", "properties": { "cell_id": 71, "poi_count": 0, "text_des": "", "poi_categories": [ ] }, "geometry": { "type": "Polygon", "coordinates": [ [ [ 31.236036036036033, 30.036036036036037 ], [ 31.236036036036033, 30.04054054054054 ], [ 31.23153153153153, 30.04054054054054 ], [ 31.23153153153153, 30.036036036036037 ], [ 31.236036036036033, 30.036036036036037 ] ] ] } },
{ "type": "Feature", "properties": { "cell_id": 72, "poi_count": 0, "text_des": "", "poi_categories": [ ] }, "geometry": { "type": "Polygon", "coordinates": [ [ [ 31.24054054054054, 30.0 ], [ 31.24054054054054, 30.004504504504503 ], [ 31.236036036036037, 30.004504504504503 ], [ 31.236036036036037, 30.0 ], [ 31.24054054054054, 30.0 ] ] ] } },
{ "type": "Feature", "properties": { "cell_id": 73, "poi_count": 0, "text_des": "", "poi_categories": [ ] }, "geometry": { "type": "Polygon", "coordinates": [ [ [ 31.24054054054054, 30.004504504504503 ], [ 31.24054054054054, 30.009009009009006 ], [ 31.236036036036037, 30.009009009009006 ], [ 31.236036036036037, 30.004504504504503 ], [ 31.24054054054054, 30.004504504504503 ] ] ] } },
{ "type": "Feature", "properties": { "cell_id": 74, "poi_count": 0, "text_des": "", "poi_categories": [ ] }, "geometry": { "type": "Polygon", "coordinates": [ [ [ 31.24054054054054, 30.009009009009009 ], [ 31.24054054054054, 30.013513513513512 ], [ 31.236036036036037, 30.013513513513512 ], [ 31.236036036036037, 30.009009009009009 ], [ 31.24054054054054, 30.009009009009009 ] ] ] } },
{ "type": "Feature", "properties": { "cell_id": 75, "poi_count": 0, "text_des": "", "poi_categories": [ ] }, "geometry": { "type": "Polygon", "coordinates": [ [ [ 31.24054054054054, 30.013513513513512 ], [ 31.24054054054054, 30.018018018018015 ], [ 31.236036036036037, 30.018018018018015 ], [ 31.236036036036037, 30.013513513513512 ], [ 31.24054054054054, 30.013513513513512 ] ] ] } },
{ "type": "Feature", "properties": { "cell_id": 76, "poi_count": 0, "text_des": "", "poi_categories": [ ] }, "geometry": { "type": "Polygon", "coordinates": [ [ [ 31.24054054054054, 30.018018018018019 ], [ 31.24054054054054, 30.022522522522522 ], [ 31.236036036036037, 30.022522522522522 ], [ 31.236036036036037, 30.018018018018019 ], [ 31.24054054054054, 30.018018018018019 ] ] ] } },
{ "type": "Feature", "properties": { "cell_id": 77, "poi_count": 0, "text_des": "", "poi_categories": [ ] }, "geometry": { "type": "Polygon", "coordinates": [ [ [ 31.24054054054054, 30.022522522522522 ], [ 31.24054054054054, 30.027027027027025 ], [ 31.236036036036037, 30.027027027027025 ], [ 31.236036036036037, 30.022522522522522 ], [ 31.24054054054054, 30.022522522522522 ] ] ] } },
{ "type": "Feature", "properties": { "cell_id": 78, "poi_count": 0, "text_des": "", "poi_categories": [ ] }, "geometry": { "type": "Polygon", "coordinates": [ [ [ 31.24054054054054, 30.027027027027028 ], [ 31.24054054054054, 30.031531531531531 ], [ 31.236036036036037, 30.031531531531531 ], [ 31.236036036036037, 30.027027027027028 ], [ 31.24054054054054, 30.027027027027028 ] ] ] } },
{ "type": "Feature", "properties": { "cell_id": 79, "poi_count": 0, "text_des": "", "poi_categories": [ ] }, "geometry": { "type": "Polygon", "coordinates": [ [ [ 31.24054054054054, 30.031531531531531 ], [ 31.24054054054054, 30.036036036036034 ], [ 31.236036036036037, 30.036036036036034 ], [ 31.236036036036037, 30.031531531531531 ], [ 31.24054054054054, 30.031531531531531 ] ] ] } },
{ "type": "Feature", "properties": { "cell_id": 80, "poi_count": 0, "text_des": "", "poi_categories": [ ] }, "geometry": { "type": "Polygon", "coordinates": [ [ [ 31.24054054054054, 30.036036036036037 ], [ 31.24054054054054, 30.04054054054054 ], [ 31.236036036036037, 30.04054054054054 ], [ 31.236036036036037, 30.036036036036037 ], [ 31.24054054054054, 30.036036036036037 ] ] ] } }
]
}
