{
"type": "FeatureCollection",
"name": "grid_d992e9f0",
"crs": { "type": "name", "properties": { "name": "urn:ogc:def:crs:OGC:1.3:CRS84" } },
"features": [
{ "type": "Feature", "properties": { "cell_id": 0, "node_count": 0.0, "total_length": 0.0, "avg_degree": 0.0, "poi_count": 0, "text_des": "", "poi_categories": [ ] }, "geometry": { "type": "Polygon", "coordinates": [ [ [ 31.339665756113284, 30.06803882567516 ], [ 31.339665756113284, 30.072543330179663 ], [ 31.335161251608781, 30.072543330179663 ], [ 31.335161251608781, 30.06803882567516 ], [ 31.339665756113284, 30.06803882567516 ] ] ] } },
{ "type": "Feature", "properties": { "cell_id": 1, "node_count": 0.0, "total_length": 0.0, "avg_degree": 0.0, "poi_count": 1, "text_des": "تقع عيادات سيمويا الايطالية للتجميل SIMOE Italian Beauty Clinics في القاهرة، مصر. نوع المنطقة: عام. البيانات من OpenStreetMap.", "poi_categories": [ "Health" ] }, "geometry": { "type": "Polygon", "coordinates": [ [ [ 31.339665756113284, 30.072543330179663 ], [ 31.339665756113284, 30.077047834684166 ], [ 31.335161251608781, 30.077047834684166 ], [ 31.335161251608781, 30.072543330179663 ], [ 31.339665756113284, 30.072543330179663 ] ] ] } },
{ "type": "Feature", "properties": { "cell_id": 2, "node_count": 0.0, "total_length": 0.0, "avg_degree": 0.0, "poi_count": 0, "text_des": "", "poi_categories": [ ] }, "geometry": { "type": "Polygon", "coordinates": [ [ [ 31.344170260617787, 30.06803882567516 ], [ 31.344170260617787, 30.072543330179663 ], [ 31.339665756113284, 30.072543330179663 ], [ 31.339665756113284, 30.06803882567516 ], [ 31.344170260617787, 30.06803882567516 ] ] ] } },
{ "type": "Feature", "properties": { "cell_id": 3, "node_count": 0.0, "total_length": 0.0, "avg_degree": 0.0, "poi_count": 0, "text_des": "", "poi_categories": [ ] }, "geometry": { "type": "Polygon", "coordinates": [ [ [ 31.344170260617787, 30.072543330179663 ], [ 31.344170260617787, 30.077047834684166 ], [ 31.339665756113284, 30.077047834684166 ], [ 31.339665756113284, 30.072543330179663 ], [ 31.344170260617787, 30.072543330179663 ] ] ] } },
{ "type": "Feature", "properties": { "cell_id": 4, "node_count": 0.0, "total_length": 0.0, "avg_degree": 0.0, "poi_count": 5, "text_des": "تقع عودة في القاهرة، مصر. نوع المنطقة: بنك. البيانات من :contentReference[oaicite:1]{index=1}. تقع بنك الاسكندرية في القاهرة، مصر. نوع المنطقة: بنك. البيانات من :contentReference[oaicite:1]{index=1}. تقع بنك القاهرة في القاهرة، مصر. نوع المنطقة: بنك. البيانات من :contentReference[oaicite:1]{index=1}. تقع هذه المنشأة في القاهرة، مصر. نوع المنطقة: مول تجاري (Mall). البيانات من OpenStreetMap. تقع هذه المنشأة في القاهرة، مصر. نوع المنطقة: مول تجاري (Mall). البيانات من OpenStreetMap.", "poi_categories": [ "Bank", "Mall" ] }, "geometry": { "type": "Polygon", "coordinates": [ [ [ 31.348674765122293, 30.06803882567516 ], [ 31.348674765122293, 30.072543330179663 ], [ 31.344170260617791, 30.072543330179663 ], [ 31.344170260617791, 30.06803882567516 ], [ 31.348674765122293, 30.06803882567516 ] ] ] } },
{ "type": "Feature", "properties": { "cell_id": 5, "node_count": 0.0, "total_length": 0.0, "avg_degree": 0.0, "poi_count": 1, "text_des": "تقع Banque MISR في القاهرة، مصر. نوع المنطقة: بنك. البيانات من :contentReference[oaicite:1]{index=1}.", "poi_categories": [ "Bank" ] }, "geometry": { "type": "Polygon", "coordinates": [ [ [ 31.348674765122293, 30.072543330179663 ], [ 31.348674765122293, 30.077047834684166 ], [ 31.344170260617791, 30.077047834684166 ], [ 31.344170260617791, 30.072543330179663 ], [ 31.348674765122293, 30.072543330179663 ] ] ] } }
]
}
