{
"type": "FeatureCollection",
"name": "grid_53a243ad",
"crs": { "type": "name", "properties": { "name": "urn:ogc:def:crs:OGC:1.3:CRS84" } },
"features": [
{ "type": "Feature", "properties": { "cell_id": 0, "node_count": 0.0, "total_length": 0.0, "avg_degree": 0.0, "poi_count": 0, "text_des": "" }, "geometry": { "type": "Polygon", "coordinates": [ [ [ 31.366785104455552, 30.034498995495497 ], [ 31.366785104455552, 30.0390035 ], [ 31.362280599951049, 30.0390035 ], [ 31.362280599951049, 30.034498995495497 ], [ 31.366785104455552, 30.034498995495497 ] ] ] } },
{ "type": "Feature", "properties": { "cell_id": 1, "node_count": 0.0, "total_length": 0.0, "avg_degree": 0.0, "poi_count": 0, "text_des": "" }, "geometry": { "type": "Polygon", "coordinates": [ [ [ 31.366785104455552, 30.0390035 ], [ 31.366785104455552, 30.043508004504503 ], [ 31.362280599951049, 30.043508004504503 ], [ 31.362280599951049, 30.0390035 ], [ 31.366785104455552, 30.0390035 ] ] ] } },
{ "type": "Feature", "properties": { "cell_id": 2, "node_count": 0.0, "total_length": 0.0, "avg_degree": 0.0, "poi_count": 0, "text_des": "" }, "geometry": { "type": "Polygon", "coordinates": [ [ [ 31.371289608960055, 30.034498995495497 ], [ 31.371289608960055, 30.0390035 ], [ 31.366785104455552, 30.0390035 ], [ 31.366785104455552, 30.034498995495497 ], [ 31.371289608960055, 30.034498995495497 ] ] ] } },
{ "type": "Feature", "properties": { "cell_id": 3, "node_count": 0.0, "total_length": 0.0, "avg_degree": 0.0, "poi_count": 0, "text_des": "" }, "geometry": { "type": "Polygon", "coordinates": [ [ [ 31.371289608960055, 30.0390035 ], [ 31.371289608960055, 30.043508004504503 ], [ 31.366785104455552, 30.043508004504503 ], [ 31.366785104455552, 30.0390035 ], [ 31.371289608960055, 30.0390035 ] ] ] } },
{ "type": "Feature", "properties": { "cell_id": 4, "node_count": 0.0, "total_length": 0.0, "avg_degree": 0.0, "poi_count": 0, "text_des": "" }, "geometry": { "type": "Polygon", "coordinates": [ [ [ 31.375794113464561, 30.034498995495497 ], [ 31.375794113464561, 30.0390035 ], [ 31.371289608960058, 30.0390035 ], [ 31.371289608960058, 30.034498995495497 ], [ 31.375794113464561, 30.034498995495497 ] ] ] } },
{ "type": "Feature", "properties": { "cell_id": 5, "node_count": 0.0, "total_length": 0.0, "avg_degree": 0.0, "poi_count": 0, "text_des": "" }, "geometry": { "type": "Polygon", "coordinates": [ [ [ 31.375794113464561, 30.0390035 ], [ 31.375794113464561, 30.043508004504503 ], [ 31.371289608960058, 30.043508004504503 ], [ 31.371289608960058, 30.0390035 ], [ 31.375794113464561, 30.0390035 ] ] ] } }
]
}
