{
"type": "FeatureCollection",
"name": "grid_134a7940",
"crs": { "type": "name", "properties": { "name": "urn:ogc:def:crs:OGC:1.3:CRS84" } },
"features": [
{ "type": "Feature", "properties": { "cell_id": 0, "node_count": 59.0, "total_length": 8287.130859375, "avg_degree": 2.7966101169586182, "poi_count": 3, "text_des": "تقع مستشفى الحياة التخصصى في القاهرة، مصر. نوع المنطقة: مستشفى. البيانات من OpenStreetMap. تقع مدرسة ابو بكر الصديق الاعدادية بنين في القاهرة، مصر. نوع المنطقة: مدرسة. البيانات من OpenStreetMap. تقع مدرسة ابن سندر الاعدادية في القاهرة، مصر. نوع المنطقة: مدرسة. البيانات من OpenStreetMap.", "poi_categories": [ "Health", "Education" ] }, "geometry": { "type": "Polygon", "coordinates": [ [ [ 31.301239239053309, 30.086323670340036 ], [ 31.301239239053309, 30.090828174844539 ], [ 31.296734734548807, 30.090828174844539 ], [ 31.296734734548807, 30.086323670340036 ], [ 31.301239239053309, 30.086323670340036 ] ] ] } },
{ "type": "Feature", "properties": { "cell_id": 1, "node_count": 5.0, "total_length": 664.01556396484375, "avg_degree": 3.0, "poi_count": 0, "text_des": "", "poi_categories": [ ] }, "geometry": { "type": "Polygon", "coordinates": [ [ [ 31.301239239053309, 30.090828174844539 ], [ 31.301239239053309, 30.095332679349042 ], [ 31.296734734548807, 30.095332679349042 ], [ 31.296734734548807, 30.090828174844539 ], [ 31.301239239053309, 30.090828174844539 ] ] ] } },
{ "type": "Feature", "properties": { "cell_id": 2, "node_count": 0.0, "total_length": 0.0, "avg_degree": 0.0, "poi_count": 2, "text_des": "تقع دكتور محمود ناجي استشاري جراحة العظام و المفاصل في القاهرة، مصر. نوع المنطقة: عام. البيانات من OpenStreetMap. تقع مركز مصر للأشعة في القاهرة، مصر. نوع المنطقة: عام. البيانات من OpenStreetMap.", "poi_categories": [ "Health" ] }, "geometry": { "type": "Polygon", "coordinates": [ [ [ 31.305743743557812, 30.086323670340036 ], [ 31.305743743557812, 30.090828174844539 ], [ 31.301239239053309, 30.090828174844539 ], [ 31.301239239053309, 30.086323670340036 ], [ 31.305743743557812, 30.086323670340036 ] ] ] } },
{ "type": "Feature", "properties": { "cell_id": 3, "node_count": 0.0, "total_length": 0.0, "avg_degree": 0.0, "poi_count": 6, "text_des": "تقع دكتور محمود ناجي استشاري جراحة العظام و المفاصل في القاهرة، مصر. نوع المنطقة: عام. البيانات من OpenStreetMap. تقع مدرسة كاظم اغا الابتدائية في القاهرة، مصر. نوع المنطقة: مدرسة. البيانات من OpenStreetMap. تقع مدرسة القبة الثانوية بنين في القاهرة، مصر. نوع المنطقة: مدرسة. البيانات من OpenStreetMap. تقع مدرسة النور بحمامات القبة للمكفوفين في القاهرة، مصر. نوع المنطقة: مدرسة. البيانات من OpenStreetMap. تقع مدرسة المستقبل الرسمية للغات في القاهرة، مصر. نوع المنطقة: مدرسة. البيانات من OpenStreetMap. تقع مدرسة الجيل الجديد في القاهرة، مصر. نوع المنطقة: مدرسة. البيانات من OpenStreetMap.", "poi_categories": [ "Health", "Education" ] }, "geometry": { "type": "Polygon", "coordinates": [ [ [ 31.305743743557812, 30.090828174844539 ], [ 31.305743743557812, 30.095332679349042 ], [ 31.301239239053309, 30.095332679349042 ], [ 31.301239239053309, 30.090828174844539 ], [ 31.305743743557812, 30.090828174844539 ] ] ] } },
{ "type": "Feature", "properties": { "cell_id": 4, "node_count": 0.0, "total_length": 0.0, "avg_degree": 0.0, "poi_count": 6, "text_des": "تقع b karnak في القاهرة، مصر. نوع المنطقة: مدرسة. البيانات من OpenStreetMap. تقع برج الأطباء في القاهرة، مصر. نوع المنطقة: مستشفى. البيانات من OpenStreetMap. تقع مدرسة خليفة المؤمون الابتدائي في القاهرة، مصر. نوع المنطقة: مدرسة. البيانات من OpenStreetMap. تقع مدرسة عاطف صدقي في القاهرة، مصر. نوع المنطقة: مدرسة. البيانات من OpenStreetMap. تقع عيادات كيميت في القاهرة، مصر. نوع المنطقة: عام. البيانات من OpenStreetMap. تقع CIB Bank في القاهرة، مصر. نوع المنطقة: بنك. البيانات من :contentReference[oaicite:1]{index=1}.", "poi_categories": [ "Education", "Health", "Bank" ] }, "geometry": { "type": "Polygon", "coordinates": [ [ [ 31.310248248062319, 30.086323670340036 ], [ 31.310248248062319, 30.090828174844539 ], [ 31.305743743557816, 30.090828174844539 ], [ 31.305743743557816, 30.086323670340036 ], [ 31.310248248062319, 30.086323670340036 ] ] ] } },
{ "type": "Feature", "properties": { "cell_id": 5, "node_count": 0.0, "total_length": 0.0, "avg_degree": 0.0, "poi_count": 3, "text_des": "تقع مستشفى منشية البكرى العام في القاهرة، مصر. نوع المنطقة: مستشفى. البيانات من OpenStreetMap. تقع مدرسة كلية السلام في القاهرة، مصر. نوع المنطقة: مدرسة. البيانات من OpenStreetMap. تقع مدرسة الطبرى الابتدائية في القاهرة، مصر. نوع المنطقة: مدرسة. البيانات من OpenStreetMap.", "poi_categories": [ "Health", "Education" ] }, "geometry": { "type": "Polygon", "coordinates": [ [ [ 31.310248248062319, 30.090828174844539 ], [ 31.310248248062319, 30.095332679349042 ], [ 31.305743743557816, 30.095332679349042 ], [ 31.305743743557816, 30.090828174844539 ], [ 31.310248248062319, 30.090828174844539 ] ] ] } },
{ "type": "Feature", "properties": { "cell_id": 6, "node_count": 0.0, "total_length": 0.0, "avg_degree": 0.0, "poi_count": 3, "text_des": "تقع مدرسة الخلفاء الإعدادية بنين في القاهرة، مصر. نوع المنطقة: مدرسة. البيانات من OpenStreetMap. تقع بنك قطر الوطنى في القاهرة، مصر. نوع المنطقة: بنك. البيانات من :contentReference[oaicite:1]{index=1}. تقع National Bank of Egypt في القاهرة، مصر. نوع المنطقة: بنك. البيانات من :contentReference[oaicite:1]{index=1}.", "poi_categories": [ "Education", "Bank" ] }, "geometry": { "type": "Polygon", "coordinates": [ [ [ 31.314752752566822, 30.086323670340036 ], [ 31.314752752566822, 30.090828174844539 ], [ 31.310248248062319, 30.090828174844539 ], [ 31.310248248062319, 30.086323670340036 ], [ 31.314752752566822, 30.086323670340036 ] ] ] } },
{ "type": "Feature", "properties": { "cell_id": 7, "node_count": 0.0, "total_length": 0.0, "avg_degree": 0.0, "poi_count": 4, "text_des": "تقع عيادة دكتور رفيق سليمان في القاهرة، مصر. نوع المنطقة: عام. البيانات من OpenStreetMap. تقع Al-Tabary في القاهرة، مصر. نوع المنطقة: مدرسة. البيانات من OpenStreetMap. تقع مدرسة الطبري اعدادي بنين روكسي في القاهرة، مصر. نوع المنطقة: مدرسة. البيانات من OpenStreetMap. تقع مدرسة الطبري الثانوية بنين روكسي في القاهرة، مصر. نوع المنطقة: مدرسة. البيانات من OpenStreetMap.", "poi_categories": [ "Health", "Education" ] }, "geometry": { "type": "Polygon", "coordinates": [ [ [ 31.314752752566822, 30.090828174844539 ], [ 31.314752752566822, 30.095332679349042 ], [ 31.310248248062319, 30.095332679349042 ], [ 31.310248248062319, 30.090828174844539 ], [ 31.314752752566822, 30.090828174844539 ] ] ] } },
{ "type": "Feature", "properties": { "cell_id": 8, "node_count": 0.0, "total_length": 0.0, "avg_degree": 0.0, "poi_count": 0, "text_des": "", "poi_categories": [ ] }, "geometry": { "type": "Polygon", "coordinates": [ [ [ 31.319257257071328, 30.086323670340036 ], [ 31.319257257071328, 30.090828174844539 ], [ 31.314752752566825, 30.090828174844539 ], [ 31.314752752566825, 30.086323670340036 ], [ 31.319257257071328, 30.086323670340036 ] ] ] } },
{ "type": "Feature", "properties": { "cell_id": 9, "node_count": 0.0, "total_length": 0.0, "avg_degree": 0.0, "poi_count": 3, "text_des": "تقع مستشفي القاهرة التخصصى في القاهرة، مصر. نوع المنطقة: مستشفى. البيانات من OpenStreetMap. تقع مدرسة الكمال الإبتدائية في القاهرة، مصر. نوع المنطقة: مدرسة. البيانات من OpenStreetMap. تقع مصرف ابو ظبى الاسلامى في القاهرة، مصر. نوع المنطقة: بنك. البيانات من :contentReference[oaicite:1]{index=1}.", "poi_categories": [ "Health", "Education", "Bank" ] }, "geometry": { "type": "Polygon", "coordinates": [ [ [ 31.319257257071328, 30.090828174844539 ], [ 31.319257257071328, 30.095332679349042 ], [ 31.314752752566825, 30.095332679349042 ], [ 31.314752752566825, 30.090828174844539 ], [ 31.319257257071328, 30.090828174844539 ] ] ] } }
]
}
