{
"type": "FeatureCollection",
"name": "grid_7641c124",
"crs": { "type": "name", "properties": { "name": "urn:ogc:def:crs:OGC:1.3:CRS84" } },
"features": [
{ "type": "Feature", "properties": { "cell_id": 0, "node_count": 0.0, "total_length": 0.0, "avg_degree": 0.0, "poi_count": 0, "text_des": "" }, "geometry": { "type": "Polygon", "coordinates": [ [ [ 31.452445237069224, 30.018637995495496 ], [ 31.452445237069224, 30.0231425 ], [ 31.447940732564721, 30.0231425 ], [ 31.447940732564721, 30.018637995495496 ], [ 31.452445237069224, 30.018637995495496 ] ] ] } },
{ "type": "Feature", "properties": { "cell_id": 1, "node_count": 0.0, "total_length": 0.0, "avg_degree": 0.0, "poi_count": 0, "text_des": "" }, "geometry": { "type": "Polygon", "coordinates": [ [ [ 31.452445237069224, 30.0231425 ], [ 31.452445237069224, 30.027647004504502 ], [ 31.447940732564721, 30.027647004504502 ], [ 31.447940732564721, 30.0231425 ], [ 31.452445237069224, 30.0231425 ] ] ] } },
{ "type": "Feature", "properties": { "cell_id": 2, "node_count": 0.0, "total_length": 0.0, "avg_degree": 0.0, "poi_count": 0, "text_des": "" }, "geometry": { "type": "Polygon", "coordinates": [ [ [ 31.456949741573727, 30.018637995495496 ], [ 31.456949741573727, 30.0231425 ], [ 31.452445237069224, 30.0231425 ], [ 31.452445237069224, 30.018637995495496 ], [ 31.456949741573727, 30.018637995495496 ] ] ] } },
{ "type": "Feature", "properties": { "cell_id": 3, "node_count": 0.0, "total_length": 0.0, "avg_degree": 0.0, "poi_count": 0, "text_des": "" }, "geometry": { "type": "Polygon", "coordinates": [ [ [ 31.456949741573727, 30.0231425 ], [ 31.456949741573727, 30.027647004504502 ], [ 31.452445237069224, 30.027647004504502 ], [ 31.452445237069224, 30.0231425 ], [ 31.456949741573727, 30.0231425 ] ] ] } },
{ "type": "Feature", "properties": { "cell_id": 4, "node_count": 0.0, "total_length": 0.0, "avg_degree": 0.0, "poi_count": 0, "text_des": "" }, "geometry": { "type": "Polygon", "coordinates": [ [ [ 31.461454246078233, 30.018637995495496 ], [ 31.461454246078233, 30.0231425 ], [ 31.45694974157373, 30.0231425 ], [ 31.45694974157373, 30.018637995495496 ], [ 31.461454246078233, 30.018637995495496 ] ] ] } },
{ "type": "Feature", "properties": { "cell_id": 5, "node_count": 0.0, "total_length": 0.0, "avg_degree": 0.0, "poi_count": 0, "text_des": "" }, "geometry": { "type": "Polygon", "coordinates": [ [ [ 31.461454246078233, 30.0231425 ], [ 31.461454246078233, 30.027647004504502 ], [ 31.45694974157373, 30.027647004504502 ], [ 31.45694974157373, 30.0231425 ], [ 31.461454246078233, 30.0231425 ] ] ] } }
]
}
