{
"type": "FeatureCollection",
"name": "grid_df4f5cc0",
"crs": { "type": "name", "properties": { "name": "urn:ogc:def:crs:OGC:1.3:CRS84" } },
"features": [
{ "type": "Feature", "properties": { "cell_id": 0, "poi_count": 0, "text_des": "" }, "geometry": { "type": "Polygon", "coordinates": [ [ [ 31.154504504504501, 30.1 ], [ 31.154504504504501, 30.104504504504504 ], [ 31.15, 30.104504504504504 ], [ 31.15, 30.1 ], [ 31.154504504504501, 30.1 ] ] ] } },
{ "type": "Feature", "properties": { "cell_id": 1, "poi_count": 0, "text_des": "" }, "geometry": { "type": "Polygon", "coordinates": [ [ [ 31.154504504504501, 30.104504504504504 ], [ 31.154504504504501, 30.109009009009007 ], [ 31.15, 30.109009009009007 ], [ 31.15, 30.104504504504504 ], [ 31.154504504504501, 30.104504504504504 ] ] ] } },
{ "type": "Feature", "properties": { "cell_id": 2, "poi_count": 0, "text_des": "" }, "geometry": { "type": "Polygon", "coordinates": [ [ [ 31.154504504504501, 30.109009009009011 ], [ 31.154504504504501, 30.113513513513514 ], [ 31.15, 30.113513513513514 ], [ 31.15, 30.109009009009011 ], [ 31.154504504504501, 30.109009009009011 ] ] ] } },
{ "type": "Feature", "properties": { "cell_id": 3, "poi_count": 0, "text_des": "" }, "geometry": { "type": "Polygon", "coordinates": [ [ [ 31.154504504504501, 30.113513513513514 ], [ 31.154504504504501, 30.118018018018017 ], [ 31.15, 30.118018018018017 ], [ 31.15, 30.113513513513514 ], [ 31.154504504504501, 30.113513513513514 ] ] ] } },
{ "type": "Feature", "properties": { "cell_id": 4, "poi_count": 0, "text_des": "" }, "geometry": { "type": "Polygon", "coordinates": [ [ [ 31.154504504504501, 30.11801801801802 ], [ 31.154504504504501, 30.122522522522523 ], [ 31.15, 30.122522522522523 ], [ 31.15, 30.11801801801802 ], [ 31.154504504504501, 30.11801801801802 ] ] ] } },
{ "type": "Feature", "properties": { "cell_id": 5, "poi_count": 0, "text_des": "" }, "geometry": { "type": "Polygon", "coordinates": [ [ [ 31.159009009009004, 30.1 ], [ 31.159009009009004, 30.104504504504504 ], [ 31.154504504504501, 30.104504504504504 ], [ 31.154504504504501, 30.1 ], [ 31.159009009009004, 30.1 ] ] ] } },
{ "type": "Feature", "properties": { "cell_id": 6, "poi_count": 0, "text_des": "" }, "geometry": { "type": "Polygon", "coordinates": [ [ [ 31.159009009009004, 30.104504504504504 ], [ 31.159009009009004, 30.109009009009007 ], [ 31.154504504504501, 30.109009009009007 ], [ 31.154504504504501, 30.104504504504504 ], [ 31.159009009009004, 30.104504504504504 ] ] ] } },
{ "type": "Feature", "properties": { "cell_id": 7, "poi_count": 0, "text_des": "" }, "geometry": { "type": "Polygon", "coordinates": [ [ [ 31.159009009009004, 30.109009009009011 ], [ 31.159009009009004, 30.113513513513514 ], [ 31.154504504504501, 30.113513513513514 ], [ 31.154504504504501, 30.109009009009011 ], [ 31.159009009009004, 30.109009009009011 ] ] ] } },
{ "type": "Feature", "properties": { "cell_id": 8, "poi_count": 0, "text_des": "" }, "geometry": { "type": "Polygon", "coordinates": [ [ [ 31.159009009009004, 30.113513513513514 ], [ 31.159009009009004, 30.118018018018017 ], [ 31.154504504504501, 30.118018018018017 ], [ 31.154504504504501, 30.113513513513514 ], [ 31.159009009009004, 30.113513513513514 ] ] ] } },
{ "type": "Feature", "properties": { "cell_id": 9, "poi_count": 0, "text_des": "" }, "geometry": { "type": "Polygon", "coordinates": [ [ [ 31.159009009009004, 30.11801801801802 ], [ 31.159009009009004, 30.122522522522523 ], [ 31.154504504504501, 30.122522522522523 ], [ 31.154504504504501, 30.11801801801802 ], [ 31.159009009009004, 30.11801801801802 ] ] ] } },
{ "type": "Feature", "properties": { "cell_id": 10, "poi_count": 0, "text_des": "" }, "geometry": { "type": "Polygon", "coordinates": [ [ [ 31.163513513513511, 30.1 ], [ 31.163513513513511, 30.104504504504504 ], [ 31.159009009009008, 30.104504504504504 ], [ 31.159009009009008, 30.1 ], [ 31.163513513513511, 30.1 ] ] ] } },
{ "type": "Feature", "properties": { "cell_id": 11, "poi_count": 0, "text_des": "" }, "geometry": { "type": "Polygon", "coordinates": [ [ [ 31.163513513513511, 30.104504504504504 ], [ 31.163513513513511, 30.109009009009007 ], [ 31.159009009009008, 30.109009009009007 ], [ 31.159009009009008, 30.104504504504504 ], [ 31.163513513513511, 30.104504504504504 ] ] ] } },
{ "type": "Feature", "properties": { "cell_id": 12, "poi_count": 0, "text_des": "" }, "geometry": { "type": "Polygon", "coordinates": [ [ [ 31.163513513513511, 30.109009009009011 ], [ 31.163513513513511, 30.113513513513514 ], [ 31.159009009009008, 30.113513513513514 ], [ 31.159009009009008, 30.109009009009011 ], [ 31.163513513513511, 30.109009009009011 ] ] ] } },
{ "type": "Feature", "properties": { "cell_id": 13, "poi_count": 0, "text_des": "" }, "geometry": { "type": "Polygon", "coordinates": [ [ [ 31.163513513513511, 30.113513513513514 ], [ 31.163513513513511, 30.118018018018017 ], [ 31.159009009009008, 30.118018018018017 ], [ 31.159009009009008, 30.113513513513514 ], [ 31.163513513513511, 30.113513513513514 ] ] ] } },
{ "type": "Feature", "properties": { "cell_id": 14, "poi_count": 0, "text_des": "" }, "geometry": { "type": "Polygon", "coordinates": [ [ [ 31.163513513513511, 30.11801801801802 ], [ 31.163513513513511, 30.122522522522523 ], [ 31.159009009009008, 30.122522522522523 ], [ 31.159009009009008, 30.11801801801802 ], [ 31.163513513513511, 30.11801801801802 ] ] ] } },
{ "type": "Feature", "properties": { "cell_id": 15, "poi_count": 0, "text_des": "" }, "geometry": { "type": "Polygon", "coordinates": [ [ [ 31.168018018018014, 30.1 ], [ 31.168018018018014, 30.104504504504504 ], [ 31.163513513513511, 30.104504504504504 ], [ 31.163513513513511, 30.1 ], [ 31.168018018018014, 30.1 ] ] ] } },
{ "type": "Feature", "properties": { "cell_id": 16, "poi_count": 0, "text_des": "" }, "geometry": { "type": "Polygon", "coordinates": [ [ [ 31.168018018018014, 30.104504504504504 ], [ 31.168018018018014, 30.109009009009007 ], [ 31.163513513513511, 30.109009009009007 ], [ 31.163513513513511, 30.104504504504504 ], [ 31.168018018018014, 30.104504504504504 ] ] ] } },
{ "type": "Feature", "properties": { "cell_id": 17, "poi_count": 0, "text_des": "" }, "geometry": { "type": "Polygon", "coordinates": [ [ [ 31.168018018018014, 30.109009009009011 ], [ 31.168018018018014, 30.113513513513514 ], [ 31.163513513513511, 30.113513513513514 ], [ 31.163513513513511, 30.109009009009011 ], [ 31.168018018018014, 30.109009009009011 ] ] ] } },
{ "type": "Feature", "properties": { "cell_id": 18, "poi_count": 0, "text_des": "" }, "geometry": { "type": "Polygon", "coordinates": [ [ [ 31.168018018018014, 30.113513513513514 ], [ 31.168018018018014, 30.118018018018017 ], [ 31.163513513513511, 30.118018018018017 ], [ 31.163513513513511, 30.113513513513514 ], [ 31.168018018018014, 30.113513513513514 ] ] ] } },
{ "type": "Feature", "properties": { "cell_id": 19, "poi_count": 0, "text_des": "" }, "geometry": { "type": "Polygon", "coordinates": [ [ [ 31.168018018018014, 30.11801801801802 ], [ 31.168018018018014, 30.122522522522523 ], [ 31.163513513513511, 30.122522522522523 ], [ 31.163513513513511, 30.11801801801802 ], [ 31.168018018018014, 30.11801801801802 ] ] ] } },
{ "type": "Feature", "properties": { "cell_id": 20, "poi_count": 0, "text_des": "" }, "geometry": { "type": "Polygon", "coordinates": [ [ [ 31.17252252252252, 30.1 ], [ 31.17252252252252, 30.104504504504504 ], [ 31.168018018018017, 30.104504504504504 ], [ 31.168018018018017, 30.1 ], [ 31.17252252252252, 30.1 ] ] ] } },
{ "type": "Feature", "properties": { "cell_id": 21, "poi_count": 0, "text_des": "" }, "geometry": { "type": "Polygon", "coordinates": [ [ [ 31.17252252252252, 30.104504504504504 ], [ 31.17252252252252, 30.109009009009007 ], [ 31.168018018018017, 30.109009009009007 ], [ 31.168018018018017, 30.104504504504504 ], [ 31.17252252252252, 30.104504504504504 ] ] ] } },
{ "type": "Feature", "properties": { "cell_id": 22, "poi_count": 0, "text_des": "" }, "geometry": { "type": "Polygon", "coordinates": [ [ [ 31.17252252252252, 30.109009009009011 ], [ 31.17252252252252, 30.113513513513514 ], [ 31.168018018018017, 30.113513513513514 ], [ 31.168018018018017, 30.109009009009011 ], [ 31.17252252252252, 30.109009009009011 ] ] ] } },
{ "type": "Feature", "properties": { "cell_id": 23, "poi_count": 0, "text_des": "" }, "geometry": { "type": "Polygon", "coordinates": [ [ [ 31.17252252252252, 30.113513513513514 ], [ 31.17252252252252, 30.118018018018017 ], [ 31.168018018018017, 30.118018018018017 ], [ 31.168018018018017, 30.113513513513514 ], [ 31.17252252252252, 30.113513513513514 ] ] ] } },
{ "type": "Feature", "properties": { "cell_id": 24, "poi_count": 0, "text_des": "" }, "geometry": { "type": "Polygon", "coordinates": [ [ [ 31.17252252252252, 30.11801801801802 ], [ 31.17252252252252, 30.122522522522523 ], [ 31.168018018018017, 30.122522522522523 ], [ 31.168018018018017, 30.11801801801802 ], [ 31.17252252252252, 30.11801801801802 ] ] ] } }
]
}
