{
"type": "FeatureCollection",
"name": "grid_9035c5cc",
"crs": { "type": "name", "properties": { "name": "urn:ogc:def:crs:OGC:1.3:CRS84" } },
"features": [
{ "type": "Feature", "properties": { "cell_id": 0, "node_count": 0.0, "total_length": 0.0, "avg_degree": 0.0, "poi_count": 0, "text_des": "", "poi_categories": [ ] }, "geometry": { "type": "Polygon", "coordinates": [ [ [ 31.325079671007394, 30.043165050464523 ], [ 31.325079671007394, 30.047669554969026 ], [ 31.320575166502891, 30.047669554969026 ], [ 31.320575166502891, 30.043165050464523 ], [ 31.325079671007394, 30.043165050464523 ] ] ] } },
{ "type": "Feature", "properties": { "cell_id": 1, "node_count": 0.0, "total_length": 0.0, "avg_degree": 0.0, "poi_count": 1, "text_des": "تقع مجمع الملك فهد الرسمي للغات في القاهرة، مصر. نوع المنطقة: مدرسة. البيانات من OpenStreetMap.", "poi_categories": [ "Education" ] }, "geometry": { "type": "Polygon", "coordinates": [ [ [ 31.325079671007394, 30.047669554969026 ], [ 31.325079671007394, 30.052174059473529 ], [ 31.320575166502891, 30.052174059473529 ], [ 31.320575166502891, 30.047669554969026 ], [ 31.325079671007394, 30.047669554969026 ] ] ] } },
{ "type": "Feature", "properties": { "cell_id": 2, "node_count": 0.0, "total_length": 0.0, "avg_degree": 0.0, "poi_count": 1, "text_des": "nan", "poi_categories": [ "Government" ] }, "geometry": { "type": "Polygon", "coordinates": [ [ [ 31.325079671007394, 30.052174059473533 ], [ 31.325079671007394, 30.056678563978036 ], [ 31.320575166502891, 30.056678563978036 ], [ 31.320575166502891, 30.052174059473533 ], [ 31.325079671007394, 30.052174059473533 ] ] ] } },
{ "type": "Feature", "properties": { "cell_id": 3, "node_count": 0.0, "total_length": 0.0, "avg_degree": 0.0, "poi_count": 1, "text_des": "nan", "poi_categories": [ "Commercial" ] }, "geometry": { "type": "Polygon", "coordinates": [ [ [ 31.325079671007394, 30.056678563978036 ], [ 31.325079671007394, 30.061183068482539 ], [ 31.320575166502891, 30.061183068482539 ], [ 31.320575166502891, 30.056678563978036 ], [ 31.325079671007394, 30.056678563978036 ] ] ] } },
{ "type": "Feature", "properties": { "cell_id": 4, "node_count": 0.0, "total_length": 0.0, "avg_degree": 0.0, "poi_count": 0, "text_des": "", "poi_categories": [ ] }, "geometry": { "type": "Polygon", "coordinates": [ [ [ 31.329584175511897, 30.043165050464523 ], [ 31.329584175511897, 30.047669554969026 ], [ 31.325079671007394, 30.047669554969026 ], [ 31.325079671007394, 30.043165050464523 ], [ 31.329584175511897, 30.043165050464523 ] ] ] } },
{ "type": "Feature", "properties": { "cell_id": 5, "node_count": 0.0, "total_length": 0.0, "avg_degree": 0.0, "poi_count": 2, "text_des": "تقع Al Sayida Aisha School في القاهرة، مصر. نوع المنطقة: مدرسة. البيانات من OpenStreetMap. تقع مركز نيروكير في القاهرة، مصر. نوع المنطقة: عام. البيانات من OpenStreetMap.", "poi_categories": [ "Education", "Health" ] }, "geometry": { "type": "Polygon", "coordinates": [ [ [ 31.329584175511897, 30.047669554969026 ], [ 31.329584175511897, 30.052174059473529 ], [ 31.325079671007394, 30.052174059473529 ], [ 31.325079671007394, 30.047669554969026 ], [ 31.329584175511897, 30.047669554969026 ] ] ] } },
{ "type": "Feature", "properties": { "cell_id": 6, "node_count": 0.0, "total_length": 0.0, "avg_degree": 0.0, "poi_count": 1, "text_des": "nan", "poi_categories": [ "Commercial" ] }, "geometry": { "type": "Polygon", "coordinates": [ [ [ 31.329584175511897, 30.052174059473533 ], [ 31.329584175511897, 30.056678563978036 ], [ 31.325079671007394, 30.056678563978036 ], [ 31.325079671007394, 30.052174059473533 ], [ 31.329584175511897, 30.052174059473533 ] ] ] } },
{ "type": "Feature", "properties": { "cell_id": 7, "node_count": 0.0, "total_length": 0.0, "avg_degree": 0.0, "poi_count": 1, "text_des": "nan", "poi_categories": [ "Commercial" ] }, "geometry": { "type": "Polygon", "coordinates": [ [ [ 31.329584175511897, 30.056678563978036 ], [ 31.329584175511897, 30.061183068482539 ], [ 31.325079671007394, 30.061183068482539 ], [ 31.325079671007394, 30.056678563978036 ], [ 31.329584175511897, 30.056678563978036 ] ] ] } },
{ "type": "Feature", "properties": { "cell_id": 8, "node_count": 0.0, "total_length": 0.0, "avg_degree": 0.0, "poi_count": 1, "text_des": "تقع سنتر ميراج في القاهرة، مصر. نوع المنطقة: مدرسة. البيانات من OpenStreetMap.", "poi_categories": [ "Education" ] }, "geometry": { "type": "Polygon", "coordinates": [ [ [ 31.334088680016404, 30.043165050464523 ], [ 31.334088680016404, 30.047669554969026 ], [ 31.329584175511901, 30.047669554969026 ], [ 31.329584175511901, 30.043165050464523 ], [ 31.334088680016404, 30.043165050464523 ] ] ] } },
{ "type": "Feature", "properties": { "cell_id": 9, "node_count": 0.0, "total_length": 0.0, "avg_degree": 0.0, "poi_count": 0, "text_des": "", "poi_categories": [ ] }, "geometry": { "type": "Polygon", "coordinates": [ [ [ 31.334088680016404, 30.047669554969026 ], [ 31.334088680016404, 30.052174059473529 ], [ 31.329584175511901, 30.052174059473529 ], [ 31.329584175511901, 30.047669554969026 ], [ 31.334088680016404, 30.047669554969026 ] ] ] } },
{ "type": "Feature", "properties": { "cell_id": 10, "node_count": 0.0, "total_length": 0.0, "avg_degree": 0.0, "poi_count": 2, "text_des": "تقع مستشفي جمال ابو العزايم في القاهرة، مصر. نوع المنطقة: مستشفى. البيانات من OpenStreetMap. nan", "poi_categories": [ "Health", "Commercial" ] }, "geometry": { "type": "Polygon", "coordinates": [ [ [ 31.334088680016404, 30.052174059473533 ], [ 31.334088680016404, 30.056678563978036 ], [ 31.329584175511901, 30.056678563978036 ], [ 31.329584175511901, 30.052174059473533 ], [ 31.334088680016404, 30.052174059473533 ] ] ] } },
{ "type": "Feature", "properties": { "cell_id": 11, "node_count": 0.0, "total_length": 0.0, "avg_degree": 0.0, "poi_count": 1, "text_des": "تقع مدينة نصر الثانوية الصناعية في القاهرة، مصر. نوع المنطقة: مدرسة. البيانات من OpenStreetMap.", "poi_categories": [ "Education" ] }, "geometry": { "type": "Polygon", "coordinates": [ [ [ 31.334088680016404, 30.056678563978036 ], [ 31.334088680016404, 30.061183068482539 ], [ 31.329584175511901, 30.061183068482539 ], [ 31.329584175511901, 30.056678563978036 ], [ 31.334088680016404, 30.056678563978036 ] ] ] } },
{ "type": "Feature", "properties": { "cell_id": 12, "node_count": 0.0, "total_length": 0.0, "avg_degree": 0.0, "poi_count": 0, "text_des": "", "poi_categories": [ ] }, "geometry": { "type": "Polygon", "coordinates": [ [ [ 31.338593184520906, 30.043165050464523 ], [ 31.338593184520906, 30.047669554969026 ], [ 31.334088680016404, 30.047669554969026 ], [ 31.334088680016404, 30.043165050464523 ], [ 31.338593184520906, 30.043165050464523 ] ] ] } },
{ "type": "Feature", "properties": { "cell_id": 13, "node_count": 0.0, "total_length": 0.0, "avg_degree": 0.0, "poi_count": 0, "text_des": "", "poi_categories": [ ] }, "geometry": { "type": "Polygon", "coordinates": [ [ [ 31.338593184520906, 30.047669554969026 ], [ 31.338593184520906, 30.052174059473529 ], [ 31.334088680016404, 30.052174059473529 ], [ 31.334088680016404, 30.047669554969026 ], [ 31.338593184520906, 30.047669554969026 ] ] ] } },
{ "type": "Feature", "properties": { "cell_id": 14, "node_count": 0.0, "total_length": 0.0, "avg_degree": 0.0, "poi_count": 0, "text_des": "", "poi_categories": [ ] }, "geometry": { "type": "Polygon", "coordinates": [ [ [ 31.338593184520906, 30.052174059473533 ], [ 31.338593184520906, 30.056678563978036 ], [ 31.334088680016404, 30.056678563978036 ], [ 31.334088680016404, 30.052174059473533 ], [ 31.338593184520906, 30.052174059473533 ] ] ] } },
{ "type": "Feature", "properties": { "cell_id": 15, "node_count": 0.0, "total_length": 0.0, "avg_degree": 0.0, "poi_count": 3, "text_des": "تقع COMMERCIAL INTERNATIONAL BANK في القاهرة، مصر. نوع المنطقة: بنك. البيانات من :contentReference[oaicite:1]{index=1}. تقع بنك عودة - فرع عباس العقاد في القاهرة، مصر. نوع المنطقة: بنك. البيانات من :contentReference[oaicite:1]{index=1}. nan", "poi_categories": [ "Bank", "Government" ] }, "geometry": { "type": "Polygon", "coordinates": [ [ [ 31.338593184520906, 30.056678563978036 ], [ 31.338593184520906, 30.061183068482539 ], [ 31.334088680016404, 30.061183068482539 ], [ 31.334088680016404, 30.056678563978036 ], [ 31.338593184520906, 30.056678563978036 ] ] ] } },
{ "type": "Feature", "properties": { "cell_id": 16, "node_count": 0.0, "total_length": 0.0, "avg_degree": 0.0, "poi_count": 1, "text_des": "تقع عيادة د. احمد العساف في القاهرة، مصر. نوع المنطقة: عام. البيانات من OpenStreetMap.", "poi_categories": [ "Health" ] }, "geometry": { "type": "Polygon", "coordinates": [ [ [ 31.343097689025413, 30.043165050464523 ], [ 31.343097689025413, 30.047669554969026 ], [ 31.33859318452091, 30.047669554969026 ], [ 31.33859318452091, 30.043165050464523 ], [ 31.343097689025413, 30.043165050464523 ] ] ] } },
{ "type": "Feature", "properties": { "cell_id": 17, "node_count": 0.0, "total_length": 0.0, "avg_degree": 0.0, "poi_count": 1, "text_des": "nan", "poi_categories": [ "Government" ] }, "geometry": { "type": "Polygon", "coordinates": [ [ [ 31.343097689025413, 30.047669554969026 ], [ 31.343097689025413, 30.052174059473529 ], [ 31.33859318452091, 30.052174059473529 ], [ 31.33859318452091, 30.047669554969026 ], [ 31.343097689025413, 30.047669554969026 ] ] ] } },
{ "type": "Feature", "properties": { "cell_id": 18, "node_count": 0.0, "total_length": 0.0, "avg_degree": 0.0, "poi_count": 3, "text_des": "تقع بنك الاستثمار العربي في القاهرة، مصر. نوع المنطقة: بنك. البيانات من :contentReference[oaicite:1]{index=1}. تقع CIB في القاهرة، مصر. نوع المنطقة: بنك. البيانات من :contentReference[oaicite:1]{index=1}. nan", "poi_categories": [ "Bank", "Commercial" ] }, "geometry": { "type": "Polygon", "coordinates": [ [ [ 31.343097689025413, 30.052174059473533 ], [ 31.343097689025413, 30.056678563978036 ], [ 31.33859318452091, 30.056678563978036 ], [ 31.33859318452091, 30.052174059473533 ], [ 31.343097689025413, 30.052174059473533 ] ] ] } },
{ "type": "Feature", "properties": { "cell_id": 19, "node_count": 0.0, "total_length": 0.0, "avg_degree": 0.0, "poi_count": 1, "text_des": "nan", "poi_categories": [ "Commercial" ] }, "geometry": { "type": "Polygon", "coordinates": [ [ [ 31.343097689025413, 30.056678563978036 ], [ 31.343097689025413, 30.061183068482539 ], [ 31.33859318452091, 30.061183068482539 ], [ 31.33859318452091, 30.056678563978036 ], [ 31.343097689025413, 30.056678563978036 ] ] ] } },
{ "type": "Feature", "properties": { "cell_id": 20, "node_count": 0.0, "total_length": 0.0, "avg_degree": 0.0, "poi_count": 1, "text_des": "تقع الملك فهد في القاهرة، مصر. نوع المنطقة: مدرسة. البيانات من OpenStreetMap.", "poi_categories": [ "Education" ] }, "geometry": { "type": "Polygon", "coordinates": [ [ [ 31.347602193529916, 30.043165050464523 ], [ 31.347602193529916, 30.047669554969026 ], [ 31.343097689025413, 30.047669554969026 ], [ 31.343097689025413, 30.043165050464523 ], [ 31.347602193529916, 30.043165050464523 ] ] ] } },
{ "type": "Feature", "properties": { "cell_id": 21, "node_count": 0.0, "total_length": 0.0, "avg_degree": 0.0, "poi_count": 2, "text_des": "nan nan", "poi_categories": [ "Commercial" ] }, "geometry": { "type": "Polygon", "coordinates": [ [ [ 31.347602193529916, 30.047669554969026 ], [ 31.347602193529916, 30.052174059473529 ], [ 31.343097689025413, 30.052174059473529 ], [ 31.343097689025413, 30.047669554969026 ], [ 31.347602193529916, 30.047669554969026 ] ] ] } },
{ "type": "Feature", "properties": { "cell_id": 22, "node_count": 0.0, "total_length": 0.0, "avg_degree": 0.0, "poi_count": 2, "text_des": "تقع بنك الكويت الوطنى في القاهرة، مصر. نوع المنطقة: بنك. البيانات من :contentReference[oaicite:1]{index=1}. تقع البنك الاهلي المصرى في القاهرة، مصر. نوع المنطقة: بنك. البيانات من :contentReference[oaicite:1]{index=1}.", "poi_categories": [ "Bank" ] }, "geometry": { "type": "Polygon", "coordinates": [ [ [ 31.347602193529916, 30.052174059473533 ], [ 31.347602193529916, 30.056678563978036 ], [ 31.343097689025413, 30.056678563978036 ], [ 31.343097689025413, 30.052174059473533 ], [ 31.347602193529916, 30.052174059473533 ] ] ] } },
{ "type": "Feature", "properties": { "cell_id": 23, "node_count": 0.0, "total_length": 0.0, "avg_degree": 0.0, "poi_count": 3, "text_des": "تقع Kibeida Academy في القاهرة، مصر. نوع المنطقة: مدرسة. البيانات من OpenStreetMap. nan nan", "poi_categories": [ "Education", "Commercial" ] }, "geometry": { "type": "Polygon", "coordinates": [ [ [ 31.347602193529916, 30.056678563978036 ], [ 31.347602193529916, 30.061183068482539 ], [ 31.343097689025413, 30.061183068482539 ], [ 31.343097689025413, 30.056678563978036 ], [ 31.347602193529916, 30.056678563978036 ] ] ] } },
{ "type": "Feature", "properties": { "cell_id": 24, "node_count": 0.0, "total_length": 0.0, "avg_degree": 0.0, "poi_count": 2, "text_des": "تقع مدرسه الالسن للغات في القاهرة، مصر. نوع المنطقة: مدرسة. البيانات من OpenStreetMap. nan", "poi_categories": [ "Education", "Commercial" ] }, "geometry": { "type": "Polygon", "coordinates": [ [ [ 31.352106698034422, 30.043165050464523 ], [ 31.352106698034422, 30.047669554969026 ], [ 31.347602193529919, 30.047669554969026 ], [ 31.347602193529919, 30.043165050464523 ], [ 31.352106698034422, 30.043165050464523 ] ] ] } },
{ "type": "Feature", "properties": { "cell_id": 25, "node_count": 0.0, "total_length": 0.0, "avg_degree": 0.0, "poi_count": 3, "text_des": "تقع هذه المنشأة في القاهرة، مصر. نوع المنطقة: مول تجاري (Mall). البيانات من OpenStreetMap. nan nan", "poi_categories": [ "Mall", "Commercial" ] }, "geometry": { "type": "Polygon", "coordinates": [ [ [ 31.352106698034422, 30.047669554969026 ], [ 31.352106698034422, 30.052174059473529 ], [ 31.347602193529919, 30.052174059473529 ], [ 31.347602193529919, 30.047669554969026 ], [ 31.352106698034422, 30.047669554969026 ] ] ] } },
{ "type": "Feature", "properties": { "cell_id": 26, "node_count": 0.0, "total_length": 0.0, "avg_degree": 0.0, "poi_count": 2, "text_des": "تقع بنك باركليز في القاهرة، مصر. نوع المنطقة: بنك. البيانات من :contentReference[oaicite:1]{index=1}. nan", "poi_categories": [ "Bank", "Commercial" ] }, "geometry": { "type": "Polygon", "coordinates": [ [ [ 31.352106698034422, 30.052174059473533 ], [ 31.352106698034422, 30.056678563978036 ], [ 31.347602193529919, 30.056678563978036 ], [ 31.347602193529919, 30.052174059473533 ], [ 31.352106698034422, 30.052174059473533 ] ] ] } },
{ "type": "Feature", "properties": { "cell_id": 27, "node_count": 0.0, "total_length": 0.0, "avg_degree": 0.0, "poi_count": 0, "text_des": "", "poi_categories": [ ] }, "geometry": { "type": "Polygon", "coordinates": [ [ [ 31.352106698034422, 30.056678563978036 ], [ 31.352106698034422, 30.061183068482539 ], [ 31.347602193529919, 30.061183068482539 ], [ 31.347602193529919, 30.056678563978036 ], [ 31.352106698034422, 30.056678563978036 ] ] ] } },
{ "type": "Feature", "properties": { "cell_id": 28, "node_count": 0.0, "total_length": 0.0, "avg_degree": 0.0, "poi_count": 0, "text_des": "", "poi_categories": [ ] }, "geometry": { "type": "Polygon", "coordinates": [ [ [ 31.356611202538925, 30.043165050464523 ], [ 31.356611202538925, 30.047669554969026 ], [ 31.352106698034422, 30.047669554969026 ], [ 31.352106698034422, 30.043165050464523 ], [ 31.356611202538925, 30.043165050464523 ] ] ] } },
{ "type": "Feature", "properties": { "cell_id": 29, "node_count": 0.0, "total_length": 0.0, "avg_degree": 0.0, "poi_count": 1, "text_des": "تقع الصديق في القاهرة، مصر. نوع المنطقة: مدرسة. البيانات من OpenStreetMap.", "poi_categories": [ "Education" ] }, "geometry": { "type": "Polygon", "coordinates": [ [ [ 31.356611202538925, 30.047669554969026 ], [ 31.356611202538925, 30.052174059473529 ], [ 31.352106698034422, 30.052174059473529 ], [ 31.352106698034422, 30.047669554969026 ], [ 31.356611202538925, 30.047669554969026 ] ] ] } },
{ "type": "Feature", "properties": { "cell_id": 30, "node_count": 0.0, "total_length": 0.0, "avg_degree": 0.0, "poi_count": 2, "text_des": "تقع د. ملك نادر في القاهرة، مصر. نوع المنطقة: عام. البيانات من OpenStreetMap. تقع مدرسة مدينة نصر الثانوية الفنية التجارية بنات في القاهرة، مصر. نوع المنطقة: مدرسة. البيانات من OpenStreetMap.", "poi_categories": [ "Health", "Education" ] }, "geometry": { "type": "Polygon", "coordinates": [ [ [ 31.356611202538925, 30.052174059473533 ], [ 31.356611202538925, 30.056678563978036 ], [ 31.352106698034422, 30.056678563978036 ], [ 31.352106698034422, 30.052174059473533 ], [ 31.356611202538925, 30.052174059473533 ] ] ] } },
{ "type": "Feature", "properties": { "cell_id": 31, "node_count": 0.0, "total_length": 0.0, "avg_degree": 0.0, "poi_count": 1, "text_des": "تقع Hsbc bank في القاهرة، مصر. نوع المنطقة: بنك. البيانات من :contentReference[oaicite:1]{index=1}.", "poi_categories": [ "Bank" ] }, "geometry": { "type": "Polygon", "coordinates": [ [ [ 31.356611202538925, 30.056678563978036 ], [ 31.356611202538925, 30.061183068482539 ], [ 31.352106698034422, 30.061183068482539 ], [ 31.352106698034422, 30.056678563978036 ], [ 31.356611202538925, 30.056678563978036 ] ] ] } }
]
}
