{
"type": "FeatureCollection",
"name": "grid_90d9cae9",
"crs": { "type": "name", "properties": { "name": "urn:ogc:def:crs:OGC:1.3:CRS84" } },
"features": [
{ "type": "Feature", "properties": { "cell_id": 0 }, "geometry": { "type": "Polygon", "coordinates": [ [ [ 31.23900900900901, 30.04 ], [ 31.23900900900901, 30.049009009009009 ], [ 31.23, 30.049009009009009 ], [ 31.23, 30.04 ], [ 31.23900900900901, 30.04 ] ] ] } },
{ "type": "Feature", "properties": { "cell_id": 1 }, "geometry": { "type": "Polygon", "coordinates": [ [ [ 31.23900900900901, 30.049009009009009 ], [ 31.23900900900901, 30.058018018018018 ], [ 31.23, 30.058018018018018 ], [ 31.23, 30.049009009009009 ], [ 31.23900900900901, 30.049009009009009 ] ] ] } },
{ "type": "Feature", "properties": { "cell_id": 2 }, "geometry": { "type": "Polygon", "coordinates": [ [ [ 31.248018018018019, 30.04 ], [ 31.248018018018019, 30.049009009009009 ], [ 31.23900900900901, 30.049009009009009 ], [ 31.23900900900901, 30.04 ], [ 31.248018018018019, 30.04 ] ] ] } },
{ "type": "Feature", "properties": { "cell_id": 3 }, "geometry": { "type": "Polygon", "coordinates": [ [ [ 31.248018018018019, 30.049009009009009 ], [ 31.248018018018019, 30.058018018018018 ], [ 31.23900900900901, 30.058018018018018 ], [ 31.23900900900901, 30.049009009009009 ], [ 31.248018018018019, 30.049009009009009 ] ] ] } }
]
}
