{
"type": "FeatureCollection",
"name": "grid_3c5d966b",
"crs": { "type": "name", "properties": { "name": "urn:ogc:def:crs:OGC:1.3:CRS84" } },
"features": [
{ "type": "Feature", "properties": { "cell_id": 0, "node_count": 0.0, "total_length": 0.0, "avg_degree": 0.0, "poi_count": 0, "text_des": "", "poi_categories": [ ] }, "geometry": { "type": "Polygon", "coordinates": [ [ [ 31.313802510806063, 30.051302248857027 ], [ 31.313802510806063, 30.05580675336153 ], [ 31.30929800630156, 30.05580675336153 ], [ 31.30929800630156, 30.051302248857027 ], [ 31.313802510806063, 30.051302248857027 ] ] ] } },
{ "type": "Feature", "properties": { "cell_id": 1, "node_count": 0.0, "total_length": 0.0, "avg_degree": 0.0, "poi_count": 0, "text_des": "", "poi_categories": [ ] }, "geometry": { "type": "Polygon", "coordinates": [ [ [ 31.313802510806063, 30.05580675336153 ], [ 31.313802510806063, 30.060311257866033 ], [ 31.30929800630156, 30.060311257866033 ], [ 31.30929800630156, 30.05580675336153 ], [ 31.313802510806063, 30.05580675336153 ] ] ] } },
{ "type": "Feature", "properties": { "cell_id": 2, "node_count": 0.0, "total_length": 0.0, "avg_degree": 0.0, "poi_count": 1, "text_des": "تقع Faculty of Islamic Sciences for Non-Arabic Speaking International Students في القاهرة، مصر. نوع المنطقة: عام. البيانات من OpenStreetMap.", "poi_categories": [ "Education" ] }, "geometry": { "type": "Polygon", "coordinates": [ [ [ 31.313802510806063, 30.060311257866037 ], [ 31.313802510806063, 30.064815762370539 ], [ 31.30929800630156, 30.064815762370539 ], [ 31.30929800630156, 30.060311257866037 ], [ 31.313802510806063, 30.060311257866037 ] ] ] } },
{ "type": "Feature", "properties": { "cell_id": 3, "node_count": 0.0, "total_length": 0.0, "avg_degree": 0.0, "poi_count": 0, "text_des": "", "poi_categories": [ ] }, "geometry": { "type": "Polygon", "coordinates": [ [ [ 31.313802510806063, 30.064815762370539 ], [ 31.313802510806063, 30.069320266875042 ], [ 31.30929800630156, 30.069320266875042 ], [ 31.30929800630156, 30.064815762370539 ], [ 31.313802510806063, 30.064815762370539 ] ] ] } },
{ "type": "Feature", "properties": { "cell_id": 4, "node_count": 0.0, "total_length": 0.0, "avg_degree": 0.0, "poi_count": 0, "text_des": "", "poi_categories": [ ] }, "geometry": { "type": "Polygon", "coordinates": [ [ [ 31.313802510806063, 30.069320266875046 ], [ 31.313802510806063, 30.073824771379549 ], [ 31.30929800630156, 30.073824771379549 ], [ 31.30929800630156, 30.069320266875046 ], [ 31.313802510806063, 30.069320266875046 ] ] ] } },
{ "type": "Feature", "properties": { "cell_id": 5, "node_count": 0.0, "total_length": 0.0, "avg_degree": 0.0, "poi_count": 0, "text_des": "", "poi_categories": [ ] }, "geometry": { "type": "Polygon", "coordinates": [ [ [ 31.318307015310566, 30.051302248857027 ], [ 31.318307015310566, 30.05580675336153 ], [ 31.313802510806063, 30.05580675336153 ], [ 31.313802510806063, 30.051302248857027 ], [ 31.318307015310566, 30.051302248857027 ] ] ] } },
{ "type": "Feature", "properties": { "cell_id": 6, "node_count": 0.0, "total_length": 0.0, "avg_degree": 0.0, "poi_count": 0, "text_des": "", "poi_categories": [ ] }, "geometry": { "type": "Polygon", "coordinates": [ [ [ 31.318307015310566, 30.05580675336153 ], [ 31.318307015310566, 30.060311257866033 ], [ 31.313802510806063, 30.060311257866033 ], [ 31.313802510806063, 30.05580675336153 ], [ 31.318307015310566, 30.05580675336153 ] ] ] } },
{ "type": "Feature", "properties": { "cell_id": 7, "node_count": 0.0, "total_length": 0.0, "avg_degree": 0.0, "poi_count": 0, "text_des": "", "poi_categories": [ ] }, "geometry": { "type": "Polygon", "coordinates": [ [ [ 31.318307015310566, 30.060311257866037 ], [ 31.318307015310566, 30.064815762370539 ], [ 31.313802510806063, 30.064815762370539 ], [ 31.313802510806063, 30.060311257866037 ], [ 31.318307015310566, 30.060311257866037 ] ] ] } },
{ "type": "Feature", "properties": { "cell_id": 8, "node_count": 0.0, "total_length": 0.0, "avg_degree": 0.0, "poi_count": 0, "text_des": "", "poi_categories": [ ] }, "geometry": { "type": "Polygon", "coordinates": [ [ [ 31.318307015310566, 30.064815762370539 ], [ 31.318307015310566, 30.069320266875042 ], [ 31.313802510806063, 30.069320266875042 ], [ 31.313802510806063, 30.064815762370539 ], [ 31.318307015310566, 30.064815762370539 ] ] ] } },
{ "type": "Feature", "properties": { "cell_id": 9, "node_count": 0.0, "total_length": 0.0, "avg_degree": 0.0, "poi_count": 0, "text_des": "", "poi_categories": [ ] }, "geometry": { "type": "Polygon", "coordinates": [ [ [ 31.318307015310566, 30.069320266875046 ], [ 31.318307015310566, 30.073824771379549 ], [ 31.313802510806063, 30.073824771379549 ], [ 31.313802510806063, 30.069320266875046 ], [ 31.318307015310566, 30.069320266875046 ] ] ] } },
{ "type": "Feature", "properties": { "cell_id": 10, "node_count": 0.0, "total_length": 0.0, "avg_degree": 0.0, "poi_count": 1, "text_des": "nan", "poi_categories": [ "Government" ] }, "geometry": { "type": "Polygon", "coordinates": [ [ [ 31.322811519815073, 30.051302248857027 ], [ 31.322811519815073, 30.05580675336153 ], [ 31.31830701531057, 30.05580675336153 ], [ 31.31830701531057, 30.051302248857027 ], [ 31.322811519815073, 30.051302248857027 ] ] ] } },
{ "type": "Feature", "properties": { "cell_id": 11, "node_count": 0.0, "total_length": 0.0, "avg_degree": 0.0, "poi_count": 1, "text_des": "nan", "poi_categories": [ "Commercial" ] }, "geometry": { "type": "Polygon", "coordinates": [ [ [ 31.322811519815073, 30.05580675336153 ], [ 31.322811519815073, 30.060311257866033 ], [ 31.31830701531057, 30.060311257866033 ], [ 31.31830701531057, 30.05580675336153 ], [ 31.322811519815073, 30.05580675336153 ] ] ] } },
{ "type": "Feature", "properties": { "cell_id": 12, "node_count": 0.0, "total_length": 0.0, "avg_degree": 0.0, "poi_count": 0, "text_des": "", "poi_categories": [ ] }, "geometry": { "type": "Polygon", "coordinates": [ [ [ 31.322811519815073, 30.060311257866037 ], [ 31.322811519815073, 30.064815762370539 ], [ 31.31830701531057, 30.064815762370539 ], [ 31.31830701531057, 30.060311257866037 ], [ 31.322811519815073, 30.060311257866037 ] ] ] } },
{ "type": "Feature", "properties": { "cell_id": 13, "node_count": 0.0, "total_length": 0.0, "avg_degree": 0.0, "poi_count": 0, "text_des": "", "poi_categories": [ ] }, "geometry": { "type": "Polygon", "coordinates": [ [ [ 31.322811519815073, 30.064815762370539 ], [ 31.322811519815073, 30.069320266875042 ], [ 31.31830701531057, 30.069320266875042 ], [ 31.31830701531057, 30.064815762370539 ], [ 31.322811519815073, 30.064815762370539 ] ] ] } },
{ "type": "Feature", "properties": { "cell_id": 14, "node_count": 0.0, "total_length": 0.0, "avg_degree": 0.0, "poi_count": 0, "text_des": "", "poi_categories": [ ] }, "geometry": { "type": "Polygon", "coordinates": [ [ [ 31.322811519815073, 30.069320266875046 ], [ 31.322811519815073, 30.073824771379549 ], [ 31.31830701531057, 30.073824771379549 ], [ 31.31830701531057, 30.069320266875046 ], [ 31.322811519815073, 30.069320266875046 ] ] ] } },
{ "type": "Feature", "properties": { "cell_id": 15, "node_count": 0.0, "total_length": 0.0, "avg_degree": 0.0, "poi_count": 0, "text_des": "", "poi_categories": [ ] }, "geometry": { "type": "Polygon", "coordinates": [ [ [ 31.327316024319575, 30.051302248857027 ], [ 31.327316024319575, 30.05580675336153 ], [ 31.322811519815073, 30.05580675336153 ], [ 31.322811519815073, 30.051302248857027 ], [ 31.327316024319575, 30.051302248857027 ] ] ] } },
{ "type": "Feature", "properties": { "cell_id": 16, "node_count": 0.0, "total_length": 0.0, "avg_degree": 0.0, "poi_count": 0, "text_des": "", "poi_categories": [ ] }, "geometry": { "type": "Polygon", "coordinates": [ [ [ 31.327316024319575, 30.05580675336153 ], [ 31.327316024319575, 30.060311257866033 ], [ 31.322811519815073, 30.060311257866033 ], [ 31.322811519815073, 30.05580675336153 ], [ 31.327316024319575, 30.05580675336153 ] ] ] } },
{ "type": "Feature", "properties": { "cell_id": 17, "node_count": 0.0, "total_length": 0.0, "avg_degree": 0.0, "poi_count": 1, "text_des": "تقع أن أس جي بي في القاهرة، مصر. نوع المنطقة: بنك. البيانات من :contentReference[oaicite:1]{index=1}.", "poi_categories": [ "Bank" ] }, "geometry": { "type": "Polygon", "coordinates": [ [ [ 31.327316024319575, 30.060311257866037 ], [ 31.327316024319575, 30.064815762370539 ], [ 31.322811519815073, 30.064815762370539 ], [ 31.322811519815073, 30.060311257866037 ], [ 31.327316024319575, 30.060311257866037 ] ] ] } },
{ "type": "Feature", "properties": { "cell_id": 18, "node_count": 0.0, "total_length": 0.0, "avg_degree": 0.0, "poi_count": 0, "text_des": "", "poi_categories": [ ] }, "geometry": { "type": "Polygon", "coordinates": [ [ [ 31.327316024319575, 30.064815762370539 ], [ 31.327316024319575, 30.069320266875042 ], [ 31.322811519815073, 30.069320266875042 ], [ 31.322811519815073, 30.064815762370539 ], [ 31.327316024319575, 30.064815762370539 ] ] ] } },
{ "type": "Feature", "properties": { "cell_id": 19, "node_count": 0.0, "total_length": 0.0, "avg_degree": 0.0, "poi_count": 1, "text_des": "تقع د. ممدوح لبيب في القاهرة، مصر. نوع المنطقة: عام. البيانات من OpenStreetMap.", "poi_categories": [ "Health" ] }, "geometry": { "type": "Polygon", "coordinates": [ [ [ 31.327316024319575, 30.069320266875046 ], [ 31.327316024319575, 30.073824771379549 ], [ 31.322811519815073, 30.073824771379549 ], [ 31.322811519815073, 30.069320266875046 ], [ 31.327316024319575, 30.069320266875046 ] ] ] } },
{ "type": "Feature", "properties": { "cell_id": 20, "node_count": 0.0, "total_length": 0.0, "avg_degree": 0.0, "poi_count": 1, "text_des": "nan", "poi_categories": [ "Commercial" ] }, "geometry": { "type": "Polygon", "coordinates": [ [ [ 31.331820528824082, 30.051302248857027 ], [ 31.331820528824082, 30.05580675336153 ], [ 31.327316024319579, 30.05580675336153 ], [ 31.327316024319579, 30.051302248857027 ], [ 31.331820528824082, 30.051302248857027 ] ] ] } },
{ "type": "Feature", "properties": { "cell_id": 21, "node_count": 0.0, "total_length": 0.0, "avg_degree": 0.0, "poi_count": 2, "text_des": "تقع مستشفي جمال ابو العزايم في القاهرة، مصر. نوع المنطقة: مستشفى. البيانات من OpenStreetMap. nan", "poi_categories": [ "Health", "Commercial" ] }, "geometry": { "type": "Polygon", "coordinates": [ [ [ 31.331820528824082, 30.05580675336153 ], [ 31.331820528824082, 30.060311257866033 ], [ 31.327316024319579, 30.060311257866033 ], [ 31.327316024319579, 30.05580675336153 ], [ 31.331820528824082, 30.05580675336153 ] ] ] } },
{ "type": "Feature", "properties": { "cell_id": 22, "node_count": 0.0, "total_length": 0.0, "avg_degree": 0.0, "poi_count": 1, "text_des": "nan", "poi_categories": [ "Government" ] }, "geometry": { "type": "Polygon", "coordinates": [ [ [ 31.331820528824082, 30.060311257866037 ], [ 31.331820528824082, 30.064815762370539 ], [ 31.327316024319579, 30.064815762370539 ], [ 31.327316024319579, 30.060311257866037 ], [ 31.331820528824082, 30.060311257866037 ] ] ] } },
{ "type": "Feature", "properties": { "cell_id": 23, "node_count": 0.0, "total_length": 0.0, "avg_degree": 0.0, "poi_count": 0, "text_des": "", "poi_categories": [ ] }, "geometry": { "type": "Polygon", "coordinates": [ [ [ 31.331820528824082, 30.064815762370539 ], [ 31.331820528824082, 30.069320266875042 ], [ 31.327316024319579, 30.069320266875042 ], [ 31.327316024319579, 30.064815762370539 ], [ 31.331820528824082, 30.064815762370539 ] ] ] } },
{ "type": "Feature", "properties": { "cell_id": 24, "node_count": 0.0, "total_length": 0.0, "avg_degree": 0.0, "poi_count": 0, "text_des": "", "poi_categories": [ ] }, "geometry": { "type": "Polygon", "coordinates": [ [ [ 31.331820528824082, 30.069320266875046 ], [ 31.331820528824082, 30.073824771379549 ], [ 31.327316024319579, 30.073824771379549 ], [ 31.327316024319579, 30.069320266875046 ], [ 31.331820528824082, 30.069320266875046 ] ] ] } },
{ "type": "Feature", "properties": { "cell_id": 25, "node_count": 0.0, "total_length": 0.0, "avg_degree": 0.0, "poi_count": 1, "text_des": "nan", "poi_categories": [ "Commercial" ] }, "geometry": { "type": "Polygon", "coordinates": [ [ [ 31.336325033328585, 30.051302248857027 ], [ 31.336325033328585, 30.05580675336153 ], [ 31.331820528824082, 30.05580675336153 ], [ 31.331820528824082, 30.051302248857027 ], [ 31.336325033328585, 30.051302248857027 ] ] ] } },
{ "type": "Feature", "properties": { "cell_id": 26, "node_count": 0.0, "total_length": 0.0, "avg_degree": 0.0, "poi_count": 2, "text_des": "تقع مدينة نصر الثانوية الصناعية في القاهرة، مصر. نوع المنطقة: مدرسة. البيانات من OpenStreetMap. nan", "poi_categories": [ "Education", "Government" ] }, "geometry": { "type": "Polygon", "coordinates": [ [ [ 31.336325033328585, 30.05580675336153 ], [ 31.336325033328585, 30.060311257866033 ], [ 31.331820528824082, 30.060311257866033 ], [ 31.331820528824082, 30.05580675336153 ], [ 31.336325033328585, 30.05580675336153 ] ] ] } },
{ "type": "Feature", "properties": { "cell_id": 27, "node_count": 0.0, "total_length": 0.0, "avg_degree": 0.0, "poi_count": 1, "text_des": "nan", "poi_categories": [ "Commercial" ] }, "geometry": { "type": "Polygon", "coordinates": [ [ [ 31.336325033328585, 30.060311257866037 ], [ 31.336325033328585, 30.064815762370539 ], [ 31.331820528824082, 30.064815762370539 ], [ 31.331820528824082, 30.060311257866037 ], [ 31.336325033328585, 30.060311257866037 ] ] ] } },
{ "type": "Feature", "properties": { "cell_id": 28, "node_count": 0.0, "total_length": 0.0, "avg_degree": 0.0, "poi_count": 0, "text_des": "", "poi_categories": [ ] }, "geometry": { "type": "Polygon", "coordinates": [ [ [ 31.336325033328585, 30.064815762370539 ], [ 31.336325033328585, 30.069320266875042 ], [ 31.331820528824082, 30.069320266875042 ], [ 31.331820528824082, 30.064815762370539 ], [ 31.336325033328585, 30.064815762370539 ] ] ] } },
{ "type": "Feature", "properties": { "cell_id": 29, "node_count": 0.0, "total_length": 0.0, "avg_degree": 0.0, "poi_count": 0, "text_des": "", "poi_categories": [ ] }, "geometry": { "type": "Polygon", "coordinates": [ [ [ 31.336325033328585, 30.069320266875046 ], [ 31.336325033328585, 30.073824771379549 ], [ 31.331820528824082, 30.073824771379549 ], [ 31.331820528824082, 30.069320266875046 ], [ 31.336325033328585, 30.069320266875046 ] ] ] } },
{ "type": "Feature", "properties": { "cell_id": 30, "node_count": 0.0, "total_length": 0.0, "avg_degree": 0.0, "poi_count": 3, "text_des": "تقع بنك الاستثمار العربي في القاهرة، مصر. نوع المنطقة: بنك. البيانات من :contentReference[oaicite:1]{index=1}. تقع CIB في القاهرة، مصر. نوع المنطقة: بنك. البيانات من :contentReference[oaicite:1]{index=1}. nan", "poi_categories": [ "Bank", "Commercial" ] }, "geometry": { "type": "Polygon", "coordinates": [ [ [ 31.340829537833091, 30.051302248857027 ], [ 31.340829537833091, 30.05580675336153 ], [ 31.336325033328588, 30.05580675336153 ], [ 31.336325033328588, 30.051302248857027 ], [ 31.340829537833091, 30.051302248857027 ] ] ] } },
{ "type": "Feature", "properties": { "cell_id": 31, "node_count": 0.0, "total_length": 0.0, "avg_degree": 0.0, "poi_count": 3, "text_des": "تقع COMMERCIAL INTERNATIONAL BANK في القاهرة، مصر. نوع المنطقة: بنك. البيانات من :contentReference[oaicite:1]{index=1}. تقع بنك عودة - فرع عباس العقاد في القاهرة، مصر. نوع المنطقة: بنك. البيانات من :contentReference[oaicite:1]{index=1}. nan", "poi_categories": [ "Bank", "Commercial" ] }, "geometry": { "type": "Polygon", "coordinates": [ [ [ 31.340829537833091, 30.05580675336153 ], [ 31.340829537833091, 30.060311257866033 ], [ 31.336325033328588, 30.060311257866033 ], [ 31.336325033328588, 30.05580675336153 ], [ 31.340829537833091, 30.05580675336153 ] ] ] } },
{ "type": "Feature", "properties": { "cell_id": 32, "node_count": 0.0, "total_length": 0.0, "avg_degree": 0.0, "poi_count": 1, "text_des": "تقع Crédit Agricole في القاهرة، مصر. نوع المنطقة: بنك. البيانات من :contentReference[oaicite:1]{index=1}.", "poi_categories": [ "Bank" ] }, "geometry": { "type": "Polygon", "coordinates": [ [ [ 31.340829537833091, 30.060311257866037 ], [ 31.340829537833091, 30.064815762370539 ], [ 31.336325033328588, 30.064815762370539 ], [ 31.336325033328588, 30.060311257866037 ], [ 31.340829537833091, 30.060311257866037 ] ] ] } },
{ "type": "Feature", "properties": { "cell_id": 33, "node_count": 0.0, "total_length": 0.0, "avg_degree": 0.0, "poi_count": 0, "text_des": "", "poi_categories": [ ] }, "geometry": { "type": "Polygon", "coordinates": [ [ [ 31.340829537833091, 30.064815762370539 ], [ 31.340829537833091, 30.069320266875042 ], [ 31.336325033328588, 30.069320266875042 ], [ 31.336325033328588, 30.064815762370539 ], [ 31.340829537833091, 30.064815762370539 ] ] ] } },
{ "type": "Feature", "properties": { "cell_id": 34, "node_count": 0.0, "total_length": 0.0, "avg_degree": 0.0, "poi_count": 0, "text_des": "", "poi_categories": [ ] }, "geometry": { "type": "Polygon", "coordinates": [ [ [ 31.340829537833091, 30.069320266875046 ], [ 31.340829537833091, 30.073824771379549 ], [ 31.336325033328588, 30.073824771379549 ], [ 31.336325033328588, 30.069320266875046 ], [ 31.340829537833091, 30.069320266875046 ] ] ] } },
{ "type": "Feature", "properties": { "cell_id": 35, "node_count": 0.0, "total_length": 0.0, "avg_degree": 0.0, "poi_count": 2, "text_des": "تقع البنك الاهلي المصرى في القاهرة، مصر. نوع المنطقة: بنك. البيانات من :contentReference[oaicite:1]{index=1}. nan", "poi_categories": [ "Bank", "Government" ] }, "geometry": { "type": "Polygon", "coordinates": [ [ [ 31.345334042337594, 30.051302248857027 ], [ 31.345334042337594, 30.05580675336153 ], [ 31.340829537833091, 30.05580675336153 ], [ 31.340829537833091, 30.051302248857027 ], [ 31.345334042337594, 30.051302248857027 ] ] ] } },
{ "type": "Feature", "properties": { "cell_id": 36, "node_count": 0.0, "total_length": 0.0, "avg_degree": 0.0, "poi_count": 2, "text_des": "تقع Kibeida Academy في القاهرة، مصر. نوع المنطقة: مدرسة. البيانات من OpenStreetMap. nan", "poi_categories": [ "Education", "Commercial" ] }, "geometry": { "type": "Polygon", "coordinates": [ [ [ 31.345334042337594, 30.05580675336153 ], [ 31.345334042337594, 30.060311257866033 ], [ 31.340829537833091, 30.060311257866033 ], [ 31.340829537833091, 30.05580675336153 ], [ 31.345334042337594, 30.05580675336153 ] ] ] } },
{ "type": "Feature", "properties": { "cell_id": 37, "node_count": 0.0, "total_length": 0.0, "avg_degree": 0.0, "poi_count": 2, "text_des": "تقع سي أي بي في القاهرة، مصر. نوع المنطقة: بنك. البيانات من :contentReference[oaicite:1]{index=1}. nan", "poi_categories": [ "Bank", "Commercial" ] }, "geometry": { "type": "Polygon", "coordinates": [ [ [ 31.345334042337594, 30.060311257866037 ], [ 31.345334042337594, 30.064815762370539 ], [ 31.340829537833091, 30.064815762370539 ], [ 31.340829537833091, 30.060311257866037 ], [ 31.345334042337594, 30.060311257866037 ] ] ] } },
{ "type": "Feature", "properties": { "cell_id": 38, "node_count": 0.0, "total_length": 0.0, "avg_degree": 0.0, "poi_count": 3, "text_des": "تقع أن أس جي بي في القاهرة، مصر. نوع المنطقة: بنك. البيانات من :contentReference[oaicite:1]{index=1}. تقع عودة في القاهرة، مصر. نوع المنطقة: بنك. البيانات من :contentReference[oaicite:1]{index=1}. تقع بنك القاهرة في القاهرة، مصر. نوع المنطقة: بنك. البيانات من :contentReference[oaicite:1]{index=1}.", "poi_categories": [ "Bank" ] }, "geometry": { "type": "Polygon", "coordinates": [ [ [ 31.345334042337594, 30.064815762370539 ], [ 31.345334042337594, 30.069320266875042 ], [ 31.340829537833091, 30.069320266875042 ], [ 31.340829537833091, 30.064815762370539 ], [ 31.345334042337594, 30.064815762370539 ] ] ] } },
{ "type": "Feature", "properties": { "cell_id": 39, "node_count": 0.0, "total_length": 0.0, "avg_degree": 0.0, "poi_count": 1, "text_des": "تقع بنك الاسكندرية في القاهرة، مصر. نوع المنطقة: بنك. البيانات من :contentReference[oaicite:1]{index=1}.", "poi_categories": [ "Bank" ] }, "geometry": { "type": "Polygon", "coordinates": [ [ [ 31.345334042337594, 30.069320266875046 ], [ 31.345334042337594, 30.073824771379549 ], [ 31.340829537833091, 30.073824771379549 ], [ 31.340829537833091, 30.069320266875046 ], [ 31.345334042337594, 30.069320266875046 ] ] ] } },
{ "type": "Feature", "properties": { "cell_id": 40, "node_count": 0.0, "total_length": 0.0, "avg_degree": 0.0, "poi_count": 3, "text_des": "تقع بنك الكويت الوطنى في القاهرة، مصر. نوع المنطقة: بنك. البيانات من :contentReference[oaicite:1]{index=1}. تقع بنك باركليز في القاهرة، مصر. نوع المنطقة: بنك. البيانات من :contentReference[oaicite:1]{index=1}. nan", "poi_categories": [ "Bank", "Commercial" ] }, "geometry": { "type": "Polygon", "coordinates": [ [ [ 31.349838546842101, 30.051302248857027 ], [ 31.349838546842101, 30.05580675336153 ], [ 31.345334042337598, 30.05580675336153 ], [ 31.345334042337598, 30.051302248857027 ], [ 31.349838546842101, 30.051302248857027 ] ] ] } },
{ "type": "Feature", "properties": { "cell_id": 41, "node_count": 0.0, "total_length": 0.0, "avg_degree": 0.0, "poi_count": 2, "text_des": "nan nan", "poi_categories": [ "Commercial" ] }, "geometry": { "type": "Polygon", "coordinates": [ [ [ 31.349838546842101, 30.05580675336153 ], [ 31.349838546842101, 30.060311257866033 ], [ 31.345334042337598, 30.060311257866033 ], [ 31.345334042337598, 30.05580675336153 ], [ 31.349838546842101, 30.05580675336153 ] ] ] } },
{ "type": "Feature", "properties": { "cell_id": 42, "node_count": 0.0, "total_length": 0.0, "avg_degree": 0.0, "poi_count": 4, "text_des": "تقع مركز الإيمان الطبي في القاهرة، مصر. نوع المنطقة: مستشفى. البيانات من OpenStreetMap. تقع منظمه الصحه العالمية في القاهرة، مصر. نوع المنطقة: مستشفى. البيانات من OpenStreetMap. تقع مستشفى العاملين بقطاع البترول في القاهرة، مصر. نوع المنطقة: مستشفى. البيانات من OpenStreetMap. nan", "poi_categories": [ "Health", "Government" ] }, "geometry": { "type": "Polygon", "coordinates": [ [ [ 31.349838546842101, 30.060311257866037 ], [ 31.349838546842101, 30.064815762370539 ], [ 31.345334042337598, 30.064815762370539 ], [ 31.345334042337598, 30.060311257866037 ], [ 31.349838546842101, 30.060311257866037 ] ] ] } },
{ "type": "Feature", "properties": { "cell_id": 43, "node_count": 0.0, "total_length": 0.0, "avg_degree": 0.0, "poi_count": 1, "text_des": "تقع مستشفى الكبد د يس عبد الغفار الخيرية في القاهرة، مصر. نوع المنطقة: مستشفى. البيانات من OpenStreetMap.", "poi_categories": [ "Health" ] }, "geometry": { "type": "Polygon", "coordinates": [ [ [ 31.349838546842101, 30.064815762370539 ], [ 31.349838546842101, 30.069320266875042 ], [ 31.345334042337598, 30.069320266875042 ], [ 31.345334042337598, 30.064815762370539 ], [ 31.349838546842101, 30.064815762370539 ] ] ] } },
{ "type": "Feature", "properties": { "cell_id": 44, "node_count": 0.0, "total_length": 0.0, "avg_degree": 0.0, "poi_count": 2, "text_des": "تقع هذه المنشأة في القاهرة، مصر. نوع المنطقة: مول تجاري (Mall). البيانات من OpenStreetMap. تقع هذه المنشأة في القاهرة، مصر. نوع المنطقة: مول تجاري (Mall). البيانات من OpenStreetMap.", "poi_categories": [ "Mall" ] }, "geometry": { "type": "Polygon", "coordinates": [ [ [ 31.349838546842101, 30.069320266875046 ], [ 31.349838546842101, 30.073824771379549 ], [ 31.345334042337598, 30.073824771379549 ], [ 31.345334042337598, 30.069320266875046 ], [ 31.349838546842101, 30.069320266875046 ] ] ] } },
{ "type": "Feature", "properties": { "cell_id": 45, "node_count": 0.0, "total_length": 0.0, "avg_degree": 0.0, "poi_count": 3, "text_des": "تقع د. ملك نادر في القاهرة، مصر. نوع المنطقة: عام. البيانات من OpenStreetMap. تقع مدرسة مدينة نصر الثانوية الفنية التجارية بنات في القاهرة، مصر. نوع المنطقة: مدرسة. البيانات من OpenStreetMap. nan", "poi_categories": [ "Health", "Education", "Commercial" ] }, "geometry": { "type": "Polygon", "coordinates": [ [ [ 31.354343051346603, 30.051302248857027 ], [ 31.354343051346603, 30.05580675336153 ], [ 31.349838546842101, 30.05580675336153 ], [ 31.349838546842101, 30.051302248857027 ], [ 31.354343051346603, 30.051302248857027 ] ] ] } },
{ "type": "Feature", "properties": { "cell_id": 46, "node_count": 0.0, "total_length": 0.0, "avg_degree": 0.0, "poi_count": 0, "text_des": "", "poi_categories": [ ] }, "geometry": { "type": "Polygon", "coordinates": [ [ [ 31.354343051346603, 30.05580675336153 ], [ 31.354343051346603, 30.060311257866033 ], [ 31.349838546842101, 30.060311257866033 ], [ 31.349838546842101, 30.05580675336153 ], [ 31.354343051346603, 30.05580675336153 ] ] ] } },
{ "type": "Feature", "properties": { "cell_id": 47, "node_count": 0.0, "total_length": 0.0, "avg_degree": 0.0, "poi_count": 1, "text_des": "تقع Hsbc bank في القاهرة، مصر. نوع المنطقة: بنك. البيانات من :contentReference[oaicite:1]{index=1}.", "poi_categories": [ "Bank" ] }, "geometry": { "type": "Polygon", "coordinates": [ [ [ 31.354343051346603, 30.060311257866037 ], [ 31.354343051346603, 30.064815762370539 ], [ 31.349838546842101, 30.064815762370539 ], [ 31.349838546842101, 30.060311257866037 ], [ 31.354343051346603, 30.060311257866037 ] ] ] } },
{ "type": "Feature", "properties": { "cell_id": 48, "node_count": 0.0, "total_length": 0.0, "avg_degree": 0.0, "poi_count": 0, "text_des": "", "poi_categories": [ ] }, "geometry": { "type": "Polygon", "coordinates": [ [ [ 31.354343051346603, 30.064815762370539 ], [ 31.354343051346603, 30.069320266875042 ], [ 31.349838546842101, 30.069320266875042 ], [ 31.349838546842101, 30.064815762370539 ], [ 31.354343051346603, 30.064815762370539 ] ] ] } },
{ "type": "Feature", "properties": { "cell_id": 49, "node_count": 0.0, "total_length": 0.0, "avg_degree": 0.0, "poi_count": 0, "text_des": "", "poi_categories": [ ] }, "geometry": { "type": "Polygon", "coordinates": [ [ [ 31.354343051346603, 30.069320266875046 ], [ 31.354343051346603, 30.073824771379549 ], [ 31.349838546842101, 30.073824771379549 ], [ 31.349838546842101, 30.069320266875046 ], [ 31.354343051346603, 30.069320266875046 ] ] ] } },
{ "type": "Feature", "properties": { "cell_id": 50, "node_count": 0.0, "total_length": 0.0, "avg_degree": 0.0, "poi_count": 2, "text_des": "تقع مدرسة المنهل الخاصة في القاهرة، مصر. نوع المنطقة: مدرسة. البيانات من OpenStreetMap. تقع مركز طبي الحى الثامن في القاهرة، مصر. نوع المنطقة: مستشفى. البيانات من OpenStreetMap.", "poi_categories": [ "Education", "Health" ] }, "geometry": { "type": "Polygon", "coordinates": [ [ [ 31.35884755585111, 30.051302248857027 ], [ 31.35884755585111, 30.05580675336153 ], [ 31.354343051346607, 30.05580675336153 ], [ 31.354343051346607, 30.051302248857027 ], [ 31.35884755585111, 30.051302248857027 ] ] ] } },
{ "type": "Feature", "properties": { "cell_id": 51, "node_count": 0.0, "total_length": 0.0, "avg_degree": 0.0, "poi_count": 1, "text_des": "تقع مركز طبي الحى الثامن في القاهرة، مصر. نوع المنطقة: مستشفى. البيانات من OpenStreetMap.", "poi_categories": [ "Health" ] }, "geometry": { "type": "Polygon", "coordinates": [ [ [ 31.35884755585111, 30.05580675336153 ], [ 31.35884755585111, 30.060311257866033 ], [ 31.354343051346607, 30.060311257866033 ], [ 31.354343051346607, 30.05580675336153 ], [ 31.35884755585111, 30.05580675336153 ] ] ] } },
{ "type": "Feature", "properties": { "cell_id": 52, "node_count": 0.0, "total_length": 0.0, "avg_degree": 0.0, "poi_count": 0, "text_des": "", "poi_categories": [ ] }, "geometry": { "type": "Polygon", "coordinates": [ [ [ 31.35884755585111, 30.060311257866037 ], [ 31.35884755585111, 30.064815762370539 ], [ 31.354343051346607, 30.064815762370539 ], [ 31.354343051346607, 30.060311257866037 ], [ 31.35884755585111, 30.060311257866037 ] ] ] } },
{ "type": "Feature", "properties": { "cell_id": 53, "node_count": 0.0, "total_length": 0.0, "avg_degree": 0.0, "poi_count": 0, "text_des": "", "poi_categories": [ ] }, "geometry": { "type": "Polygon", "coordinates": [ [ [ 31.35884755585111, 30.064815762370539 ], [ 31.35884755585111, 30.069320266875042 ], [ 31.354343051346607, 30.069320266875042 ], [ 31.354343051346607, 30.064815762370539 ], [ 31.35884755585111, 30.064815762370539 ] ] ] } },
{ "type": "Feature", "properties": { "cell_id": 54, "node_count": 0.0, "total_length": 0.0, "avg_degree": 0.0, "poi_count": 0, "text_des": "", "poi_categories": [ ] }, "geometry": { "type": "Polygon", "coordinates": [ [ [ 31.35884755585111, 30.069320266875046 ], [ 31.35884755585111, 30.073824771379549 ], [ 31.354343051346607, 30.073824771379549 ], [ 31.354343051346607, 30.069320266875046 ], [ 31.35884755585111, 30.069320266875046 ] ] ] } },
{ "type": "Feature", "properties": { "cell_id": 55, "node_count": 0.0, "total_length": 0.0, "avg_degree": 0.0, "poi_count": 2, "text_des": "تقع Bayan في القاهرة، مصر. نوع المنطقة: مدرسة. البيانات من OpenStreetMap. تقع منارة هليوبوليس المتكاملة للغات في القاهرة، مصر. نوع المنطقة: مدرسة. البيانات من OpenStreetMap.", "poi_categories": [ "Education" ] }, "geometry": { "type": "Polygon", "coordinates": [ [ [ 31.363352060355613, 30.051302248857027 ], [ 31.363352060355613, 30.05580675336153 ], [ 31.35884755585111, 30.05580675336153 ], [ 31.35884755585111, 30.051302248857027 ], [ 31.363352060355613, 30.051302248857027 ] ] ] } },
{ "type": "Feature", "properties": { "cell_id": 56, "node_count": 0.0, "total_length": 0.0, "avg_degree": 0.0, "poi_count": 1, "text_des": "تقع ايجيكير في القاهرة، مصر. نوع المنطقة: مستشفى. البيانات من OpenStreetMap.", "poi_categories": [ "Health" ] }, "geometry": { "type": "Polygon", "coordinates": [ [ [ 31.363352060355613, 30.05580675336153 ], [ 31.363352060355613, 30.060311257866033 ], [ 31.35884755585111, 30.060311257866033 ], [ 31.35884755585111, 30.05580675336153 ], [ 31.363352060355613, 30.05580675336153 ] ] ] } },
{ "type": "Feature", "properties": { "cell_id": 57, "node_count": 0.0, "total_length": 0.0, "avg_degree": 0.0, "poi_count": 0, "text_des": "", "poi_categories": [ ] }, "geometry": { "type": "Polygon", "coordinates": [ [ [ 31.363352060355613, 30.060311257866037 ], [ 31.363352060355613, 30.064815762370539 ], [ 31.35884755585111, 30.064815762370539 ], [ 31.35884755585111, 30.060311257866037 ], [ 31.363352060355613, 30.060311257866037 ] ] ] } },
{ "type": "Feature", "properties": { "cell_id": 58, "node_count": 0.0, "total_length": 0.0, "avg_degree": 0.0, "poi_count": 1, "text_des": "تقع Advanced Technical School في القاهرة، مصر. نوع المنطقة: مدرسة. البيانات من OpenStreetMap.", "poi_categories": [ "Education" ] }, "geometry": { "type": "Polygon", "coordinates": [ [ [ 31.363352060355613, 30.064815762370539 ], [ 31.363352060355613, 30.069320266875042 ], [ 31.35884755585111, 30.069320266875042 ], [ 31.35884755585111, 30.064815762370539 ], [ 31.363352060355613, 30.064815762370539 ] ] ] } },
{ "type": "Feature", "properties": { "cell_id": 59, "node_count": 0.0, "total_length": 0.0, "avg_degree": 0.0, "poi_count": 0, "text_des": "", "poi_categories": [ ] }, "geometry": { "type": "Polygon", "coordinates": [ [ [ 31.363352060355613, 30.069320266875046 ], [ 31.363352060355613, 30.073824771379549 ], [ 31.35884755585111, 30.073824771379549 ], [ 31.35884755585111, 30.069320266875046 ], [ 31.363352060355613, 30.069320266875046 ] ] ] } },
{ "type": "Feature", "properties": { "cell_id": 60, "node_count": 0.0, "total_length": 0.0, "avg_degree": 0.0, "poi_count": 1, "text_des": "تقع مدرسه حسان بن ثابت الابتدائيه في القاهرة، مصر. نوع المنطقة: مدرسة. البيانات من OpenStreetMap.", "poi_categories": [ "Education" ] }, "geometry": { "type": "Polygon", "coordinates": [ [ [ 31.367856564860116, 30.051302248857027 ], [ 31.367856564860116, 30.05580675336153 ], [ 31.363352060355613, 30.05580675336153 ], [ 31.363352060355613, 30.051302248857027 ], [ 31.367856564860116, 30.051302248857027 ] ] ] } },
{ "type": "Feature", "properties": { "cell_id": 61, "node_count": 0.0, "total_length": 0.0, "avg_degree": 0.0, "poi_count": 0, "text_des": "", "poi_categories": [ ] }, "geometry": { "type": "Polygon", "coordinates": [ [ [ 31.367856564860116, 30.05580675336153 ], [ 31.367856564860116, 30.060311257866033 ], [ 31.363352060355613, 30.060311257866033 ], [ 31.363352060355613, 30.05580675336153 ], [ 31.367856564860116, 30.05580675336153 ] ] ] } },
{ "type": "Feature", "properties": { "cell_id": 62, "node_count": 0.0, "total_length": 0.0, "avg_degree": 0.0, "poi_count": 0, "text_des": "", "poi_categories": [ ] }, "geometry": { "type": "Polygon", "coordinates": [ [ [ 31.367856564860116, 30.060311257866037 ], [ 31.367856564860116, 30.064815762370539 ], [ 31.363352060355613, 30.064815762370539 ], [ 31.363352060355613, 30.060311257866037 ], [ 31.367856564860116, 30.060311257866037 ] ] ] } },
{ "type": "Feature", "properties": { "cell_id": 63, "node_count": 0.0, "total_length": 0.0, "avg_degree": 0.0, "poi_count": 0, "text_des": "", "poi_categories": [ ] }, "geometry": { "type": "Polygon", "coordinates": [ [ [ 31.367856564860116, 30.064815762370539 ], [ 31.367856564860116, 30.069320266875042 ], [ 31.363352060355613, 30.069320266875042 ], [ 31.363352060355613, 30.064815762370539 ], [ 31.367856564860116, 30.064815762370539 ] ] ] } },
{ "type": "Feature", "properties": { "cell_id": 64, "node_count": 0.0, "total_length": 0.0, "avg_degree": 0.0, "poi_count": 0, "text_des": "", "poi_categories": [ ] }, "geometry": { "type": "Polygon", "coordinates": [ [ [ 31.367856564860116, 30.069320266875046 ], [ 31.367856564860116, 30.073824771379549 ], [ 31.363352060355613, 30.073824771379549 ], [ 31.363352060355613, 30.069320266875046 ], [ 31.367856564860116, 30.069320266875046 ] ] ] } }
]
}
