{
"type": "FeatureCollection",
"name": "grid_15710f53",
"crs": { "type": "name", "properties": { "name": "urn:ogc:def:crs:OGC:1.3:CRS84" } },
"features": [
{ "type": "Feature", "properties": { "cell_id": 0, "node_count": 0.0, "total_length": 0.0, "avg_degree": 0.0, "poi_count": 4, "text_des": "تقع بنك الاسكندرية في القاهرة، مصر. نوع المنطقة: بنك. البيانات من :contentReference[oaicite:1]{index=1}. تقع Banque MISR في القاهرة، مصر. نوع المنطقة: بنك. البيانات من :contentReference[oaicite:1]{index=1}. تقع هذه المنشأة في القاهرة، مصر. نوع المنطقة: مول تجاري (Mall). البيانات من OpenStreetMap. تقع هذه المنشأة في القاهرة، مصر. نوع المنطقة: مول تجاري (Mall). البيانات من OpenStreetMap.", "poi_categories": [ "Bank", "Mall" ] }, "geometry": { "type": "Polygon", "coordinates": [ [ [ 31.345879675570963, 30.071615977743434 ], [ 31.345879675570963, 30.076120482247937 ], [ 31.34137517106646, 30.076120482247937 ], [ 31.34137517106646, 30.071615977743434 ], [ 31.345879675570963, 30.071615977743434 ] ] ] } },
{ "type": "Feature", "properties": { "cell_id": 1, "node_count": 0.0, "total_length": 0.0, "avg_degree": 0.0, "poi_count": 0, "text_des": "", "poi_categories": [ ] }, "geometry": { "type": "Polygon", "coordinates": [ [ [ 31.350384180075466, 30.071615977743434 ], [ 31.350384180075466, 30.076120482247937 ], [ 31.345879675570963, 30.076120482247937 ], [ 31.345879675570963, 30.071615977743434 ], [ 31.350384180075466, 30.071615977743434 ] ] ] } },
{ "type": "Feature", "properties": { "cell_id": 2, "node_count": 0.0, "total_length": 0.0, "avg_degree": 0.0, "poi_count": 0, "text_des": "", "poi_categories": [ ] }, "geometry": { "type": "Polygon", "coordinates": [ [ [ 31.354888684579972, 30.071615977743434 ], [ 31.354888684579972, 30.076120482247937 ], [ 31.350384180075469, 30.076120482247937 ], [ 31.350384180075469, 30.071615977743434 ], [ 31.354888684579972, 30.071615977743434 ] ] ] } }
]
}
