{
"type": "FeatureCollection",
"name": "grid_72c3677d",
"crs": { "type": "name", "properties": { "name": "urn:ogc:def:crs:OGC:1.3:CRS84" } },
"features": [
{ "type": "Feature", "properties": { "cell_id": 0, "node_count": 0.0, "total_length": 0.0, "avg_degree": 0.0, "poi_count": 0, "text_des": "", "poi_categories": [ ] }, "geometry": { "type": "Polygon", "coordinates": [ [ [ 31.405678380133118, 30.013834613200601 ], [ 31.405678380133118, 30.018339117705104 ], [ 31.401173875628615, 30.018339117705104 ], [ 31.401173875628615, 30.013834613200601 ], [ 31.405678380133118, 30.013834613200601 ] ] ] } },
{ "type": "Feature", "properties": { "cell_id": 1, "node_count": 0.0, "total_length": 0.0, "avg_degree": 0.0, "poi_count": 0, "text_des": "", "poi_categories": [ ] }, "geometry": { "type": "Polygon", "coordinates": [ [ [ 31.405678380133118, 30.018339117705104 ], [ 31.405678380133118, 30.022843622209606 ], [ 31.401173875628615, 30.022843622209606 ], [ 31.401173875628615, 30.018339117705104 ], [ 31.405678380133118, 30.018339117705104 ] ] ] } },
{ "type": "Feature", "properties": { "cell_id": 2, "node_count": 0.0, "total_length": 0.0, "avg_degree": 0.0, "poi_count": 4, "text_des": "تقع هذه المنشأة في القاهرة، مصر. نوع المنطقة: مبنى صناعي (Industrial Building). البيانات من OpenStreetMap. تقع هذه المنشأة في القاهرة، مصر. نوع المنطقة: مبنى صناعي (Industrial Building). البيانات من OpenStreetMap. تقع هذه المنشأة في القاهرة، مصر. نوع المنطقة: مبنى صناعي (Industrial Building). البيانات من OpenStreetMap. تقع هذه المنشأة في القاهرة، مصر. نوع المنطقة: مبنى صناعي (Industrial Building). البيانات من OpenStreetMap.", "poi_categories": [ "Industrial" ] }, "geometry": { "type": "Polygon", "coordinates": [ [ [ 31.410182884637621, 30.013834613200601 ], [ 31.410182884637621, 30.018339117705104 ], [ 31.405678380133118, 30.018339117705104 ], [ 31.405678380133118, 30.013834613200601 ], [ 31.410182884637621, 30.013834613200601 ] ] ] } },
{ "type": "Feature", "properties": { "cell_id": 3, "node_count": 0.0, "total_length": 0.0, "avg_degree": 0.0, "poi_count": 0, "text_des": "", "poi_categories": [ ] }, "geometry": { "type": "Polygon", "coordinates": [ [ [ 31.410182884637621, 30.018339117705104 ], [ 31.410182884637621, 30.022843622209606 ], [ 31.405678380133118, 30.022843622209606 ], [ 31.405678380133118, 30.018339117705104 ], [ 31.410182884637621, 30.018339117705104 ] ] ] } },
{ "type": "Feature", "properties": { "cell_id": 4, "node_count": 0.0, "total_length": 0.0, "avg_degree": 0.0, "poi_count": 2, "text_des": "تقع بنك كريدى أجريكول في القاهرة، مصر. نوع المنطقة: بنك. البيانات من :contentReference[oaicite:1]{index=1}. تقع بنك إن إس جى بى في القاهرة، مصر. نوع المنطقة: بنك. البيانات من :contentReference[oaicite:1]{index=1}.", "poi_categories": [ "Bank" ] }, "geometry": { "type": "Polygon", "coordinates": [ [ [ 31.414687389142127, 30.013834613200601 ], [ 31.414687389142127, 30.018339117705104 ], [ 31.410182884637624, 30.018339117705104 ], [ 31.410182884637624, 30.013834613200601 ], [ 31.414687389142127, 30.013834613200601 ] ] ] } },
{ "type": "Feature", "properties": { "cell_id": 5, "node_count": 0.0, "total_length": 0.0, "avg_degree": 0.0, "poi_count": 0, "text_des": "", "poi_categories": [ ] }, "geometry": { "type": "Polygon", "coordinates": [ [ [ 31.414687389142127, 30.018339117705104 ], [ 31.414687389142127, 30.022843622209606 ], [ 31.410182884637624, 30.022843622209606 ], [ 31.410182884637624, 30.018339117705104 ], [ 31.414687389142127, 30.018339117705104 ] ] ] } }
]
}
