{"type": "FeatureCollection", "features": [{"type": "Feature", "properties": {"cell_id": 0, "ground_truth": "Industrial"}, "geometry": {"type": "Polygon", "coordinates": [[[31.204504504504502, 30.0], [31.204504504504502, 30.004504504504503], [31.2, 30.004504504504503], [31.2, 30.0], [31.204504504504502, 30.0]]]}}, {"type": "Feature", "properties": {"cell_id": 1, "ground_truth": "Industrial"}, "geometry": {"type": "Polygon", "coordinates": [[[31.204504504504502, 30.004504504504503], [31.204504504504502, 30.009009009009006], [31.2, 30.009009009009006], [31.2, 30.004504504504503], [31.204504504504502, 30.004504504504503]]]}}, {"type": "Feature", "properties": {"cell_id": 2, "ground_truth": "Industrial"}, "geometry": {"type": "Polygon", "coordinates": [[[31.204504504504502, 30.00900900900901], [31.204504504504502, 30.013513513513512], [31.2, 30.013513513513512], [31.2, 30.00900900900901], [31.204504504504502, 30.00900900900901]]]}}, {"type": "Feature", "properties": {"cell_id": 3, "ground_truth": "Industrial"}, "geometry": {"type": "Polygon", "coordinates": [[[31.204504504504502, 30.013513513513512], [31.204504504504502, 30.018018018018015], [31.2, 30.018018018018015], [31.2, 30.013513513513512], [31.204504504504502, 30.013513513513512]]]}}, {"type": "Feature", "properties": {"cell_id": 4, "ground_truth": "Industrial"}, "geometry": {"type": "Polygon", "coordinates": [[[31.204504504504502, 30.01801801801802], [31.204504504504502, 30.02252252252252], [31.2, 30.02252252252252], [31.2, 30.01801801801802], [31.204504504504502, 30.01801801801802]]]}}, {"type": "Feature", "properties": {"cell_id": 5, "ground_truth": "Industrial"}, "geometry": {"type": "Polygon", "coordinates": [[[31.209009009009005, 30.0], [31.209009009009005, 30.004504504504503], [31.204504504504502, 30.004504504504503], [31.204504504504502, 30.0], [31.209009009009005, 30.0]]]}}, {"type": "Feature", "properties": {"cell_id": 6, "ground_truth": "Industrial"}, "geometry": {"type": "Polygon", "coordinates": [[[31.209009009009005, 30.004504504504503], [31.209009009009005, 30.009009009009006], [31.204504504504502, 30.009009009009006], [31.204504504504502, 30.004504504504503], [31.209009009009005, 30.004504504504503]]]}}, {"type": "Feature", "properties": {"cell_id": 7, "ground_truth": "Industrial"}, "geometry": {"type": "Polygon", "coordinates": [[[31.209009009009005, 30.00900900900901], [31.209009009009005, 30.013513513513512], [31.204504504504502, 30.013513513513512], [31.204504504504502, 30.00900900900901], [31.209009009009005, 30.00900900900901]]]}}, {"type": "Feature", "properties": {"cell_id": 8, "ground_truth": "Industrial"}, "geometry": {"type": "Polygon", "coordinates": [[[31.209009009009005, 30.013513513513512], [31.209009009009005, 30.018018018018015], [31.204504504504502, 30.018018018018015], [31.204504504504502, 30.013513513513512], [31.209009009009005, 30.013513513513512]]]}}, {"type": "Feature", "properties": {"cell_id": 9, "ground_truth": "Commercial"}, "geometry": {"type": "Polygon", "coordinates": [[[31.209009009009005, 30.01801801801802], [31.209009009009005, 30.02252252252252], [31.204504504504502, 30.02252252252252], [31.204504504504502, 30.01801801801802], [31.209009009009005, 30.01801801801802]]]}}, {"type": "Feature", "properties": {"cell_id": 10, "ground_truth": "Industrial"}, "geometry": {"type": "Polygon", "coordinates": [[[31.21351351351351, 30.0], [31.21351351351351, 30.004504504504503], [31.20900900900901, 30.004504504504503], [31.20900900900901, 30.0], [31.21351351351351, 30.0]]]}}, {"type": "Feature", "properties": {"cell_id": 11, "ground_truth": "Industrial"}, "geometry": {"type": "Polygon", "coordinates": [[[31.21351351351351, 30.004504504504503], [31.21351351351351, 30.009009009009006], [31.20900900900901, 30.009009009009006], [31.20900900900901, 30.004504504504503], [31.21351351351351, 30.004504504504503]]]}}, {"type": "Feature", "properties": {"cell_id": 12, "ground_truth": "Industrial"}, "geometry": {"type": "Polygon", "coordinates": [[[31.21351351351351, 30.00900900900901], [31.21351351351351, 30.013513513513512], [31.20900900900901, 30.013513513513512], [31.20900900900901, 30.00900900900901], [31.21351351351351, 30.00900900900901]]]}}, {"type": "Feature", "properties": {"cell_id": 13, "ground_truth": "Industrial"}, "geometry": {"type": "Polygon", "coordinates": [[[31.21351351351351, 30.013513513513512], [31.21351351351351, 30.018018018018015], [31.20900900900901, 30.018018018018015], [31.20900900900901, 30.013513513513512], [31.21351351351351, 30.013513513513512]]]}}, {"type": "Feature", "properties": {"cell_id": 14, "ground_truth": "Industrial"}, "geometry": {"type": "Polygon", "coordinates": [[[31.21351351351351, 30.01801801801802], [31.21351351351351, 30.02252252252252], [31.20900900900901, 30.02252252252252], [31.20900900900901, 30.01801801801802], [31.21351351351351, 30.01801801801802]]]}}, {"type": "Feature", "properties": {"cell_id": 15, "ground_truth": "Industrial"}, "geometry": {"type": "Polygon", "coordinates": [[[31.218018018018014, 30.0], [31.218018018018014, 30.004504504504503], [31.21351351351351, 30.004504504504503], [31.21351351351351, 30.0], [31.218018018018014, 30.0]]]}}, {"type": "Feature", "properties": {"cell_id": 16, "ground_truth": "Industrial"}, "geometry": {"type": "Polygon", "coordinates": [[[31.218018018018014, 30.004504504504503], [31.218018018018014, 30.009009009009006], [31.21351351351351, 30.009009009009006], [31.21351351351351, 30.004504504504503], [31.218018018018014, 30.004504504504503]]]}}, {"type": "Feature", "properties": {"cell_id": 17, "ground_truth": "Industrial"}, "geometry": {"type": "Polygon", "coordinates": [[[31.218018018018014, 30.00900900900901], [31.218018018018014, 30.013513513513512], [31.21351351351351, 30.013513513513512], [31.21351351351351, 30.00900900900901], [31.218018018018014, 30.00900900900901]]]}}, {"type": "Feature", "properties": {"cell_id": 18, "ground_truth": "Industrial"}, "geometry": {"type": "Polygon", "coordinates": [[[31.218018018018014, 30.013513513513512], [31.218018018018014, 30.018018018018015], [31.21351351351351, 30.018018018018015], [31.21351351351351, 30.013513513513512], [31.218018018018014, 30.013513513513512]]]}}, {"type": "Feature", "properties": {"cell_id": 19, "ground_truth": "Industrial"}, "geometry": {"type": "Polygon", "coordinates": [[[31.218018018018014, 30.01801801801802], [31.218018018018014, 30.02252252252252], [31.21351351351351, 30.02252252252252], [31.21351351351351, 30.01801801801802], [31.218018018018014, 30.01801801801802]]]}}, {"type": "Feature", "properties": {"cell_id": 20, "ground_truth": "Commercial"}, "geometry": {"type": "Polygon", "coordinates": [[[31.22252252252252, 30.0], [31.22252252252252, 30.004504504504503], [31.218018018018018, 30.004504504504503], [31.218018018018018, 30.0], [31.22252252252252, 30.0]]]}}, {"type": "Feature", "properties": {"cell_id": 21, "ground_truth": "Industrial"}, "geometry": {"type": "Polygon", "coordinates": [[[31.22252252252252, 30.004504504504503], [31.22252252252252, 30.009009009009006], [31.218018018018018, 30.009009009009006], [31.218018018018018, 30.004504504504503], [31.22252252252252, 30.004504504504503]]]}}, {"type": "Feature", "properties": {"cell_id": 22, "ground_truth": "Industrial"}, "geometry": {"type": "Polygon", "coordinates": [[[31.22252252252252, 30.00900900900901], [31.22252252252252, 30.013513513513512], [31.218018018018018, 30.013513513513512], [31.218018018018018, 30.00900900900901], [31.22252252252252, 30.00900900900901]]]}}, {"type": "Feature", "properties": {"cell_id": 23, "ground_truth": "Industrial"}, "geometry": {"type": "Polygon", "coordinates": [[[31.22252252252252, 30.013513513513512], [31.22252252252252, 30.018018018018015], [31.218018018018018, 30.018018018018015], [31.218018018018018, 30.013513513513512], [31.22252252252252, 30.013513513513512]]]}}, {"type": "Feature", "properties": {"cell_id": 24, "ground_truth": "Industrial"}, "geometry": {"type": "Polygon", "coordinates": [[[31.22252252252252, 30.01801801801802], [31.22252252252252, 30.02252252252252], [31.218018018018018, 30.02252252252252], [31.218018018018018, 30.01801801801802], [31.22252252252252, 30.01801801801802]]]}}]}